{"type": "FeatureCollection", "features": [{"type": "Feature", "geometry": {"type": "Polygon", "coordinates": [[[74.95767211914065, 31.15506625705298], [74.9541666666667, 31.154166666666693], [74.94166666666669, 31.154166666666693], [74.93835076226131, 31.15501742892798], [74.93750000000003, 31.15833333333336], [74.93806728786895, 31.160543823242215], [74.94526604546444, 31.168622843424508], [74.94644741482207, 31.19492170545793], [74.9535837809245, 31.19675309922963], [74.96203816731774, 31.206241183810793], [74.95890062120229, 31.210289510091172], [74.95776604546444, 31.223043823242215], [74.95359937879778, 31.228420003255238], [74.95473395453563, 31.235543823242217], [74.96203816731774, 31.243741183810794], [74.95834655761722, 31.2485042995877], [74.96445617675784, 31.253599378797773], [74.9666666666667, 31.254166666666695], [74.96723395453562, 31.260543823242216], [74.97026604546444, 31.26445617675784], [74.97144741482208, 31.29075503879126], [74.97721048990888, 31.292233954535618], [74.98271009657121, 31.296820407443604], [74.98390062120228, 31.317413330078153], [74.97877061631948, 31.324032253689264], [74.97500000000002, 31.32500000000003], [74.97500000000002, 31.33750000000003], [74.97556728786896, 31.339710489908885], [74.97956271701392, 31.3448655870226], [74.98679165310332, 31.3467207166884], [74.98806728786896, 31.35637715657555], [75.00097825792103, 31.370179070366785], [75.01471048990888, 31.371400621202287], [75.01875000000003, 31.37453121609161], [75.0229166666667, 31.371302117241783], [75.02695617675785, 31.374432712131107], [75.03248257107208, 31.375850931803416], [75.03418409559465, 31.382482401529977], [75.03971048990888, 31.383900621202287], [75.04582010904952, 31.388995700412355], [75.04223395453562, 31.39362284342451], [75.0416666666667, 31.395833333333364], [75.04109937879777, 31.39804382324222], [75.03754035102, 31.402636210123728], [75.04778951009118, 31.411932712131108], [75.05348951551652, 31.413395521375897], [75.07026604546444, 31.43112284342451], [75.07140062120229, 31.435543823242217], [75.07443271213111, 31.439456176757844], [75.07556728786895, 31.443877156575553], [75.07859937879778, 31.447789510091177], [75.08007575141062, 31.453543090820343], [75.0916666666667, 31.454166666666698], [75.09409111870663, 31.454519992404546], [75.0975755479601, 31.457980007595516], [75.10242445203995, 31.458686659071212], [75.10797831217451, 31.464212883843345], [75.10833333333336, 31.470833333333363], [75.10106981065542, 31.47147945827911], [75.0994327121311, 31.47574666341149], [75.10359937879777, 31.481122843424508], [75.10473395453562, 31.485543823242217], [75.11204223632815, 31.493745761447514], [75.10750664605038, 31.49918450249569], [75.1012149386936, 31.500567287868954], [75.09900614420576, 31.491961161295603], [75.09651150173615, 31.492520480685794], [75.09526604546444, 31.504913330078157], [75.0994327121311, 31.510289510091177], [75.10056728786896, 31.514710489908886], [75.10359937879777, 31.51862284342451], [75.10501742892798, 31.524149068196646], [75.11164923773875, 31.525850931803415], [75.11306728786896, 31.53137715657555], [75.11609937879777, 31.535289510091175], [75.11723395453562, 31.53824666341149], [75.11306728786896, 31.54362284342451], [75.11250000000003, 31.558333333333366], [75.11311747233076, 31.560493469238313], [75.12021586100263, 31.568673197428417], [75.12175971137155, 31.574073621961837], [75.12839830186635, 31.575971645779113], [75.12996927897139, 31.58676486545142], [75.14382697211374, 31.588117641872863], [75.14783969455299, 31.59104902479387], [75.15895080566409, 31.592666286892392], [75.15764567057295, 31.611505296495256], [75.1493825276693, 31.613867865668436], [75.15061747233077, 31.618826802571647], [75.15354919433597, 31.622839864095084], [75.15478413899743, 31.62716013590498], [75.15771586100263, 31.631173197428417], [75.15932685004343, 31.636807929144997], [75.17716030544707, 31.63811764187286], [75.18117302788632, 31.64104902479387], [75.19133572048614, 31.642528110080328], [75.19521586100264, 31.647839864095083], [75.19692145453563, 31.653806389702723], [75.21033969455299, 31.666049024793868], [75.21466030544708, 31.66728430853953], [75.23124050564239, 31.682778761121995], [75.23703070746531, 31.67854902479387], [75.23966030544707, 31.679784308539528], [75.24367302788632, 31.682715691460537], [75.24799363878041, 31.683950975206194], [75.26033969455298, 31.695215691460536], [75.26250000000003, 31.695833333333365], [75.26285332573788, 31.698257785373297], [75.27464667426219, 31.710075547960102], [75.27500000000003, 31.7166666666667], [75.30335083007816, 31.71731143527564], [75.30478413899743, 31.72716013590498], [75.32021586100264, 31.743673197428418], [75.32175971137156, 31.749073621961838], [75.32886996799049, 31.751106431749164], [75.3368825276693, 31.760339864095084], [75.33811747233077, 31.764660135904982], [75.34104919433597, 31.76867319742842], [75.34243503146705, 31.77819502088762], [75.34799363878041, 31.77978430853953], [75.35200636121965, 31.782715691460538], [75.36216905381947, 31.784194776746993], [75.36604919433597, 31.789506530761752], [75.36766018337677, 31.79514126247833], [75.38549363878042, 31.796450975206195], [75.39367302788632, 31.80354902479387], [75.39799363878042, 31.80478430853953], [75.40200636121965, 31.807715691460537], [75.41882697211375, 31.808950975206198], [75.4229166666667, 31.811938476562535], [75.42780558268232, 31.808367241753505], [75.43271586100263, 31.81450653076175], [75.4339508056641, 31.822993469238316], [75.4368825276693, 31.827006530761754], [75.43842637803823, 31.832406955295173], [75.44382697211375, 31.833950975206196], [75.45200636121965, 31.841049024793872], [75.45833333333337, 31.8416666666667], [75.45776604546444, 31.843877156575555], [75.45056728786896, 31.851956176757845], [75.44943271213111, 31.856377156575554], [75.44640062120229, 31.860289510091178], [75.44526604546445, 31.867413330078158], [75.44953138563372, 31.8729166666667], [75.44640062120229, 31.876956176757847], [75.445209757487, 31.89909074571401], [75.43945617675784, 31.90056728786896], [75.43554382324223, 31.90359937879778], [75.42695617675784, 31.904733954535626], [75.42304382324222, 31.907766045464445], [75.41751742892798, 31.90918426513675], [75.4166666666667, 31.912500000000033], [75.4166666666667, 31.9166666666667], [75.42017211914066, 31.917566257052986], [75.42083333333336, 31.925000000000033], [75.42083333333336, 31.929166666666703], [75.42118665907121, 31.94409111870663], [75.42881334092885, 31.95174221462677], [75.42951999240455, 31.964924452039966], [75.44131334092886, 31.97674221462677], [75.4416666666667, 31.9791666666667], [75.4416666666667, 31.98333333333337], [75.4492106119792, 31.984069824218786], [75.45061747233076, 31.994465467664966], [75.44583333333337, 31.99583333333337], [75.44583333333337, 32.000000000000036], [75.44914923773875, 32.00085093180342], [75.45000000000003, 32.0041666666667], [75.45242445203996, 32.004519992404546], [75.4579752604167, 32.01004316541887], [75.45833333333337, 32.01250000000004], [75.46179165310333, 32.01338738335507], [75.46306728786895, 32.023043823242226], [75.46609937879778, 32.02695617675785], [75.46758626302086, 32.032750447591184], [75.47695617675785, 32.04109937879778], [75.4791666666667, 32.041666666666686], [75.47951999240455, 32.04825778537328], [75.48298000759551, 32.051742214626756], [75.48368665907121, 32.06075778537328], [75.48714667426219, 32.06424221462676], [75.48785332573789, 32.069091118706616], [75.49131334092885, 32.07257554796009], [75.4916666666667, 32.07916666666669], [75.4916666666667, 32.08333333333335], [75.49251742892798, 32.08664923773873], [75.49929165310333, 32.088387383355055], [75.50056728786896, 32.09804382324221], [75.51193271213111, 32.110289510091164], [75.51250000000003, 32.13750000000002], [75.51250000000003, 32.14166666666669], [75.51993374294709, 32.1423278808594], [75.52083333333337, 32.14583333333336], [75.52500000000003, 32.14583333333336], [75.53992445203997, 32.1461866590712], [75.54340888129343, 32.14964667426217], [75.5482577853733, 32.15035332573787], [75.55174221462677, 32.15381334092884], [75.55659111870663, 32.15451999240453], [75.56424221462677, 32.162146674262175], [75.57500000000003, 32.16250000000002], [75.57464667426218, 32.16492445203995], [75.57118665907122, 32.16840888129342], [75.57048000759552, 32.17742445203995], [75.56701999240455, 32.180908881293426], [75.56631334092886, 32.18921305338544], [75.57048000759552, 32.19340888129342], [75.57118665907122, 32.20242445203995], [75.57464667426218, 32.205908881293425], [75.57535332573788, 32.21492445203995], [75.58714667426219, 32.22674221462675], [75.58785332573788, 32.23159111870662], [75.59131334092885, 32.23507554796009], [75.59201999240454, 32.23992445203995], [75.59548000759553, 32.243408881293426], [75.59583333333337, 32.24583333333335], [75.59825778537329, 32.2461866590712], [75.60590888129343, 32.25381334092884], [75.62742445203996, 32.25451999240453], [75.6350755479601, 32.262146674262176], [75.63992445203996, 32.262853325737865], [75.64340888129344, 32.26631334092884], [75.65659111870663, 32.267019992404535], [75.6600755479601, 32.27048000759551], [75.66492445203997, 32.271186659071205], [75.66840888129344, 32.27464667426217], [75.67742445203997, 32.27535332573787], [75.68507554796011, 32.282980007595505], [75.69409111870664, 32.2836866590712], [75.6975755479601, 32.287146674262175], [75.70659111870663, 32.28785332573787], [75.71424221462678, 32.29548000759551], [75.71909111870663, 32.2961866590712], [75.7225755479601, 32.29964667426218], [75.72742445203997, 32.300353325737866], [75.74964226616757, 32.32254604763457], [75.75035332573788, 32.32742445203995], [75.75381334092886, 32.330908881293425], [75.75451999240455, 32.33992445203995], [75.75798000759552, 32.34340888129343], [75.75868665907122, 32.348257785373285], [75.76248541937937, 32.352083333333354], [75.75834791395403, 32.356250000000024], [75.76214667426218, 32.36007554796009], [75.76285332573788, 32.36492445203995], [75.76631334092886, 32.368408881293426], [75.76666666666671, 32.37083333333336], [75.77083333333337, 32.37083333333336], [75.77118665907122, 32.37325778537328], [75.77881334092885, 32.38090888129342], [75.77951999240454, 32.385757785373286], [75.78298000759553, 32.389242214626755], [75.78368665907122, 32.39825778537329], [75.78714667426219, 32.40174221462676], [75.78750000000004, 32.40833333333335], [75.79409111870663, 32.407980007595505], [75.80245090060768, 32.39964667426217], [75.81492445203996, 32.40035332573787], [75.81840888129344, 32.40381334092884], [75.82329033745664, 32.40452473958336], [75.82881334092886, 32.41007554796009], [75.82952440049917, 32.41495496961808], [75.83924221462678, 32.42464667426218], [75.86495293511288, 32.42535400390627], [75.87048000759552, 32.430908881293426], [75.87119140625003, 32.435790337456616], [75.87674221462677, 32.44131334092884], [75.88159111870664, 32.44201999240454], [75.88507554796011, 32.445480007595506], [75.89409111870664, 32.4461866590712], [75.8975755479601, 32.449646674262176], [75.90000000000003, 32.450000000000024], [75.90000000000003, 32.45416666666669], [75.90331590440542, 32.455017428927974], [75.90501742892799, 32.46164923773874], [75.91164923773876, 32.46335076226131], [75.91338738335507, 32.47012498643665], [75.92304382324222, 32.47140062120228], [75.92695617675786, 32.4744327121311], [75.93137715657556, 32.47556728786895], [75.93528951009118, 32.47859937879777], [75.9647104899089, 32.47973395453561], [75.97290785047747, 32.48703816731773], [75.97709486219622, 32.48379313151044], [75.98945617675786, 32.49526604546443], [75.99387715657556, 32.49640062120228], [76.00324707031254, 32.504749552408875], [76.00501742892799, 32.51164923773874], [76.01164923773875, 32.51335076226131], [76.01250000000005, 32.51666666666669], [76.0128580729167, 32.51912367078995], [76.01840888129344, 32.52464667426217], [76.02083333333337, 32.52500000000002], [76.03750000000002, 32.52500000000002], [76.03785332573787, 32.518408881293425], [76.04131334092884, 32.514924452039956], [76.04201999240453, 32.51007554796009], [76.04964667426218, 32.50242445203995], [76.05035332573787, 32.49757554796009], [76.05381334092884, 32.49409111870662], [76.0541666666667, 32.487500000000026], [76.07713504367406, 32.48685709635419], [76.08119828965931, 32.48397623697919], [76.10338999430341, 32.482613457573805], [76.10480940077042, 32.46869845920141], [76.10769059922963, 32.46463487413197], [76.10913119845922, 32.45518086751304], [76.11463504367407, 32.453523763020854], [76.1186982896593, 32.45064290364586], [76.12502356635201, 32.44873826768666], [76.12852393256296, 32.44380154079863], [76.13035753038197, 32.437711249457486], [76.14369828965931, 32.42564290364586], [76.14583333333336, 32.425000000000026], [76.14547526041669, 32.42254299587676], [76.13992445203995, 32.41701999240453], [76.13750000000002, 32.416666666666686], [76.13653225368925, 32.41289605034724], [76.13137715657554, 32.40890062120228], [76.12695617675783, 32.407766045464435], [76.12304382324221, 32.404733954535615], [76.11343315972225, 32.40346408420141], [76.10056728786894, 32.38971048990888], [76.0994327121311, 32.38528951009117], [76.08806728786895, 32.37304382324221], [76.08661261664498, 32.36737501356339], [76.07695617675783, 32.36609937879776], [76.07304382324222, 32.363067287868944], [76.06445617675783, 32.3619327121311], [76.06054382324221, 32.35890062120228], [76.05195617675784, 32.35776604546443], [76.04804382324221, 32.35473395453561], [76.04231245252824, 32.35326300726999], [76.02973395453562, 32.339710489908875], [76.02916666666671, 32.33750000000002], [76.02969614664715, 32.335251871744816], [76.03386281331382, 32.33010728624134], [76.03242136637373, 32.32576666937936], [76.02691836886937, 32.324470350477455], [76.02308163113067, 32.32136298285592], [76.01762390136722, 32.32007751464846], [76.00363718668622, 32.30529581705731], [76.00469614664716, 32.30191853841148], [76.00780385335288, 32.298081461588566], [76.00886281331383, 32.28525187174481], [76.01302947998049, 32.28010728624134], [76.01197052001956, 32.27691853841148], [76.00886281331383, 32.27308146158856], [76.00833333333337, 32.258333333333354], [76.00590888129344, 32.2586866590712], [76.00242445203997, 32.262146674262176], [76.00000000000004, 32.262500000000024], [75.99914923773875, 32.2658159044054], [75.99362284342452, 32.26723395453561], [75.98971048990889, 32.27026604546443], [75.98528951009118, 32.271400621202275], [75.9803853352865, 32.27520141601565], [75.97571411132816, 32.274154324001756], [75.97429165310334, 32.26338738335505], [75.96862284342451, 32.2619327121311], [75.9647104899089, 32.25890062120228], [75.95612284342452, 32.25776604546443], [75.94387715657555, 32.24640062120228], [75.93945617675784, 32.24526604546443], [75.93125881618927, 32.23796183268231], [75.92721048990889, 32.24109937879776], [75.92083333333338, 32.24166666666669], [75.92048000759553, 32.24409111870662], [75.91459859212243, 32.25000203450523], [75.90659111870663, 32.242019992404536], [75.89828694661462, 32.24131334092884], [75.89409111870664, 32.2454800075955], [75.87674221462677, 32.2461866590712], [75.8732577853733, 32.24964667426217], [75.86840888129343, 32.25035332573787], [75.86492445203997, 32.25381334092884], [75.8350755479601, 32.25451999240453], [75.83125000000004, 32.2583187527127], [75.82708333333338, 32.25418124728735], [75.8232577853733, 32.257980007595506], [75.81912027994795, 32.2586866590712], [75.81492445203996, 32.25451999240453], [75.80245361328129, 32.25381334092884], [75.79791666666671, 32.2583187527127], [75.79409111870663, 32.25451999240453], [75.7916666666667, 32.25416666666669], [75.76862284342451, 32.253599378797766], [75.7647104899089, 32.25056728786895], [75.75195617675784, 32.249432712131096], [75.7479166666667, 32.24630194769967], [75.74387715657555, 32.249432712131096], [75.74092000325524, 32.25056728786895], [75.73554382324222, 32.24640062120228], [75.73112284342452, 32.24526604546443], [75.72721048990888, 32.242233954535614], [75.72278951009118, 32.24109937879776], [75.7134195963542, 32.232750447591165], [75.71193271213112, 32.22695617675783], [75.70793728298615, 32.221801079644116], [75.70085076226133, 32.219982571072066], [75.69914923773875, 32.21335076226131], [75.69362284342452, 32.211932712131095], [75.68554382324223, 32.20473395453561], [75.67173292371966, 32.203505452473976], [75.67026604546444, 32.19778951009117], [75.66627061631948, 32.19263441297745], [75.66028951009118, 32.191099378797766], [75.64673699273007, 32.17852105034724], [75.64583333333337, 32.17500000000002], [75.63090888129344, 32.17464667426217], [75.61702440049916, 32.160787624783005], [75.61631334092885, 32.15590888129342], [75.61285332573789, 32.15242445203995], [75.61214667426219, 32.143408881293425], [75.60868665907121, 32.13992445203995], [75.60798000759551, 32.12257554796009], [75.60451999240455, 32.11909111870662], [75.60381334092885, 32.10174221462675], [75.59829033745663, 32.09619140625002], [75.59583333333337, 32.09583333333335], [75.59583333333337, 32.09166666666668], [75.59583333333337, 32.08750000000002], [75.59583333333337, 32.08333333333335], [75.61909111870663, 32.0836866590712], [75.62257554796011, 32.08714667426217], [75.63333333333337, 32.08750000000002], [75.6342207166884, 32.08404168023005], [75.64387715657556, 32.08276604546443], [75.64925333658857, 32.07859937879776], [75.66471048990888, 32.07973395453561], [75.67008666992191, 32.083900621202275], [75.68137715657555, 32.08276604546443], [75.68528951009118, 32.07973395453561], [75.69095831977, 32.07827928331165], [75.69236958821618, 32.06759575737849], [75.70195617675785, 32.05890062120228], [75.70637715657556, 32.057766045464426], [75.71028951009119, 32.05473395453561], [75.71595831977, 32.05327928331165], [75.71723395453563, 32.0436228434245], [75.72026604546444, 32.03971048990887], [75.72083333333337, 32.02083333333335], [75.72140062120229, 32.01445617675783], [75.72443271213112, 32.01054382324221], [75.72556728786896, 32.0061228434245], [75.73693271213111, 31.99387715657554], [75.73806728786896, 31.98945617675783], [75.74109937879778, 31.985543823242207], [75.74223395453562, 31.981122843424497], [75.74526604546445, 31.977210489908874], [75.7464006212023, 31.968622843424498], [75.75056728786896, 31.963246663411475], [75.7493554009332, 31.946737331814255], [75.74583333333337, 31.94583333333337], [75.7464006212023, 31.943622843424514], [75.74943271213111, 31.93971048990889], [75.75085076226132, 31.934184265136754], [75.75637715657555, 31.932766045464444], [75.76028951009118, 31.929733954535624], [75.76887715657556, 31.928599378797777], [75.77278951009119, 31.925567287868958], [75.77831590440542, 31.924149068196648], [75.7791666666667, 31.920833333333366], [75.78248257107208, 31.919982401529982], [75.78390062120229, 31.914456176757845], [75.78693271213112, 31.91054382324222], [75.78820427788632, 31.9009194268121], [75.79362284342452, 31.89640062120229], [75.80637715657556, 31.895266045464442], [75.81028951009118, 31.892233954535623], [75.81627061631949, 31.890698920355938], [75.82026604546445, 31.885543823242223], [75.82083333333337, 31.88333333333337], [75.82118665907122, 31.880908881293436], [75.82464667426218, 31.877424452039964], [75.82500000000003, 31.8666666666667], [75.82858378092452, 31.865746900770432], [75.83693271213112, 31.856377156575554], [75.83835076226133, 31.850850931803418], [75.84498257107208, 31.84914906819665], [75.84583333333337, 31.845833333333367], [75.84914923773876, 31.844982401529982], [75.85000000000004, 31.8416666666667], [75.84668409559465, 31.840815734863316], [75.84526604546444, 31.83528951009118], [75.83691711425784, 31.825919765896302], [75.83112284342451, 31.82443271213111], [75.81471048990889, 31.80890062120229], [75.81028951009118, 31.807766045464444], [75.80637715657556, 31.804733954535624], [75.79583333333338, 31.8041666666667], [75.78750000000004, 31.8041666666667], [75.78714192708337, 31.801709832085535], [75.78159111870663, 31.796186659071214], [75.77674221462678, 31.79548000759552], [75.7732577853733, 31.792019992404548], [75.76840888129344, 31.791313340928852], [75.7607577853733, 31.783686659071215], [75.74583333333337, 31.783333333333367], [75.70833333333337, 31.783333333333367], [75.70195617675785, 31.78276604546444], [75.69804382324222, 31.779733954535622], [75.69362284342452, 31.778599378797775], [75.68971048990889, 31.775567287868956], [75.68528951009118, 31.77443271213111], [75.67721048990889, 31.767233954535623], [75.66862284342452, 31.766099378797776], [75.66471048990888, 31.763067287868957], [75.65612284342451, 31.76193271213111], [75.64387715657556, 31.750567287868957], [75.63528951009118, 31.74943271213111], [75.62721048990889, 31.742233954535624], [75.60612284342452, 31.741099378797777], [75.60221048990888, 31.738067287868958], [75.59778951009118, 31.736932712131107], [75.59263441297746, 31.732937452528244], [75.59109937879778, 31.726956176757845], [75.58806728786895, 31.72304382324222], [75.58683878580733, 31.70923292371965], [75.58112284342451, 31.707766045464442], [75.5772104899089, 31.704733954535623], [75.57278951009118, 31.703599378797776], [75.56732245551218, 31.699040222168], [75.5666666666667, 31.6916666666667], [75.56335076226132, 31.690815734863314], [75.56164923773875, 31.68418426513675], [75.55612284342452, 31.68276604546444], [75.54675292968753, 31.674417114257846], [75.5446960449219, 31.666402011447516], [75.53957451714413, 31.670371500651072], [75.53008626302086, 31.661917114257847], [75.52831590440542, 31.655017598470085], [75.52278951009119, 31.653599378797775], [75.50506218804257, 31.63682284884986], [75.50359937879777, 31.63112284342451], [75.49960394965281, 31.625967746310796], [75.49362284342452, 31.62443271213111], [75.48971048990889, 31.621400621202287], [75.48112284342452, 31.62026604546444], [75.47304382324222, 31.613067287868954], [75.46862284342451, 31.611932712131107], [75.46471048990888, 31.608900621202288], [75.46250000000003, 31.608333333333366], [75.46214667426219, 31.601742214626768], [75.45868665907122, 31.598257785373296], [75.45833333333337, 31.595833333333363], [75.45742763943146, 31.59230431450741], [75.43847893608944, 31.591033935546907], [75.43390062120228, 31.58554382324222], [75.43276604546445, 31.56862284342451], [75.42556728786896, 31.56054382324222], [75.42403225368928, 31.554562547471818], [75.41875000000003, 31.55046878390845], [75.41457451714413, 31.553704833984405], [75.40637715657556, 31.546400621202288], [75.40195617675785, 31.54526604546444], [75.39804382324222, 31.54223395453562], [75.39362284342451, 31.541099378797774], [75.3897104899089, 31.538067287868955], [75.38528951009118, 31.536932712131108], [75.38137715657555, 31.53390062120229], [75.3791666666667, 31.533333333333363], [75.37859937879777, 31.526956176757842], [75.37140062120228, 31.518877156575552], [75.36992967393667, 31.513145785861575], [75.35637715657555, 31.500567287868954], [75.35085076226132, 31.499149068196644], [75.35000000000004, 31.495833333333366], [75.34647115071618, 31.494927639431456], [75.34526604546444, 31.47695617675784], [75.33691711425784, 31.467586432562964], [75.33112284342451, 31.46609937879777], [75.32570427788632, 31.461580573187966], [75.32429165310333, 31.450887383355067], [75.32083333333337, 31.45000000000003], [75.3100755479601, 31.449646674262183], [75.30659111870663, 31.44618665907121], [75.30174221462677, 31.445480007595517], [75.28575778537329, 31.429519992404543], [75.2791666666667, 31.429166666666696], [75.27852376302087, 31.42703162299265], [75.27564290364586, 31.422968377007408], [75.2743570963542, 31.418698289659318], [75.2714762369792, 31.414635043674075], [75.27019042968753, 31.410364956325985], [75.26730957031253, 31.406301710340742], [75.26545715332034, 31.400149875217043], [75.25630154079865, 31.39230940077043], [75.24243808322485, 31.390895250108535], [75.24102376302086, 31.37703162299265], [75.23814290364587, 31.372968377007407], [75.2368570963542, 31.368698289659317], [75.2339762369792, 31.364635043674074], [75.23269042968754, 31.356198289659318], [75.22980957031253, 31.352135043674075], [75.22842576768666, 31.334083387586837], [75.22296820746531, 31.32980940077043], [75.21299540201827, 31.328289794921904], [75.20064290364587, 31.314635043674073], [75.19903564453128, 31.309297519260014], [75.19369845920141, 31.30769059922963], [75.1854682074653, 31.30064273410376], [75.18333333333337, 31.30000000000003], [75.18280368381079, 31.293585035536054], [75.17969631618926, 31.28974829779734], [75.17839423285594, 31.284219699435795], [75.17400071885854, 31.28285132514109], [75.1689147949219, 31.286970520019562], [75.1666666666667, 31.28750000000003], [75.16335076226132, 31.286649068196645], [75.1619327121311, 31.28112284342451], [75.15890062120229, 31.27721048990888], [75.15776604546444, 31.26592000325524], [75.1619327121311, 31.260543823242216], [75.16250000000004, 31.25833333333336], [75.16184421115454, 31.25095977783206], [75.15637715657556, 31.246400621202284], [75.15195617675785, 31.24526604546444], [75.14804382324222, 31.24223395453562], [75.13528951009118, 31.24109937879777], [75.12721048990889, 31.233900621202284], [75.12278951009118, 31.232766045464437], [75.11471048990889, 31.22556728786895], [75.11028951009118, 31.224432712131104], [75.10221048990888, 31.21723395453562], [75.09778951009118, 31.21609937879777], [75.08971048990888, 31.208900621202286], [75.08528951009117, 31.20776604546444], [75.07593722873267, 31.199432712131106], [75.06445617675784, 31.200567287868953], [75.05907999674483, 31.20473395453562], [75.04264017740888, 31.203527323404977], [75.03806728786896, 31.198043823242216], [75.03679165310334, 31.188387383355064], [75.03112284342451, 31.186932712131103], [75.02574666341148, 31.182766045464437], [75.02278951009117, 31.183900621202284], [75.01887715657556, 31.186932712131103], [75.00833333333337, 31.18750000000003], [75.00590888129344, 31.18714667426218], [75.00242445203996, 31.18368665907121], [74.99340888129343, 31.182980007595514], [74.9753577338325, 31.16495412190758], [74.97500000000002, 31.16250000000003], [74.96250000000003, 31.16250000000003], [74.95833333333336, 31.16250000000003], [74.95767211914065, 31.15506625705298]]]}, "properties": {"kind": "catchment", "name": "Beas local", "outlet": 4080729700, "area_km2": 3506.5, "n_subbasins": 2, "role": "local", "source": "HydroBASINS v1c Asia level 8 (Lehner & Grill 2013), hybas_as_lev08_v1c.zip, sha256 878c56bb4253a7c8...; upstream set of the sub-basin containing the dam"}}, {"type": "Feature", "geometry": {"type": "Point", "coordinates": [75.0, 31.25]}, "properties": {"kind": "grid_point", "weight_km2": 294.675, "weight_imd_km2": 294.675}}, {"type": "Feature", "geometry": {"type": "Point", "coordinates": [75.25, 31.25]}, "properties": {"kind": "grid_point", "weight_km2": 99.786, "weight_imd_km2": 99.786}}, {"type": "Feature", "geometry": {"type": "Point", "coordinates": [75.0, 31.5]}, "properties": {"kind": "grid_point", "weight_km2": 79.841, "weight_imd_km2": 79.841}}, {"type": "Feature", "geometry": {"type": "Point", "coordinates": [75.25, 31.5]}, "properties": {"kind": "grid_point", "weight_km2": 542.632, "weight_imd_km2": 542.632}}, {"type": "Feature", "geometry": {"type": "Point", "coordinates": [75.5, 31.5]}, "properties": {"kind": "grid_point", "weight_km2": 61.153, "weight_imd_km2": 61.153}}, {"type": "Feature", "geometry": {"type": "Point", "coordinates": [75.25, 31.75]}, "properties": {"kind": "grid_point", "weight_km2": 184.651, "weight_imd_km2": 184.651}}, {"type": "Feature", "geometry": {"type": "Point", "coordinates": [75.5, 31.75]}, "properties": {"kind": "grid_point", "weight_km2": 518.438, "weight_imd_km2": 518.438}}, {"type": "Feature", "geometry": {"type": "Point", "coordinates": [75.75, 31.75]}, "properties": {"kind": "grid_point", "weight_km2": 203.846, "weight_imd_km2": 203.846}}, {"type": "Feature", "geometry": {"type": "Point", "coordinates": [75.5, 32.0]}, "properties": {"kind": "grid_point", "weight_km2": 424.623, "weight_imd_km2": 424.623}}, {"type": "Feature", "geometry": {"type": "Point", "coordinates": [75.75, 32.0]}, "properties": {"kind": "grid_point", "weight_km2": 262.809, "weight_imd_km2": 262.809}}, {"type": "Feature", "geometry": {"type": "Point", "coordinates": [75.5, 32.25]}, "properties": {"kind": "grid_point", "weight_km2": 75.066, "weight_imd_km2": 75.066}}, {"type": "Feature", "geometry": {"type": "Point", "coordinates": [75.75, 32.25]}, "properties": {"kind": "grid_point", "weight_km2": 249.176, "weight_imd_km2": 249.176}}, {"type": "Feature", "geometry": {"type": "Point", "coordinates": [76.0, 32.25]}, "properties": {"kind": "grid_point", "weight_km2": 192.915, "weight_imd_km2": 192.915}}, {"type": "Feature", "geometry": {"type": "Point", "coordinates": [75.75, 32.5]}, "properties": {"kind": "grid_point", "weight_km2": 38.438, "weight_imd_km2": 38.438}}, {"type": "Feature", "geometry": {"type": "Point", "coordinates": [76.0, 32.5]}, "properties": {"kind": "grid_point", "weight_km2": 273.907, "weight_imd_km2": 273.907}}, {"type": "Feature", "geometry": {"type": "Point", "coordinates": [76.25, 32.5]}, "properties": {"kind": "grid_point", "weight_km2": 4.53, "weight_imd_km2": 4.53}}]}