{"type": "FeatureCollection", "features": [{"type": "Feature", "geometry": {"type": "Polygon", "coordinates": [[[76.30505676269534, 30.028891838921474], [76.30320265028215, 30.016445075141093], [76.2979166666667, 30.020249430338577], [76.29287618001304, 30.016621738010016], [76.29072129991322, 30.009278700086842], [76.28535241021052, 30.007703145345086], [76.26464758978952, 29.988130187988315], [76.25927870008682, 29.986554633246563], [76.25770314534508, 29.981185743543872], [76.25340576171877, 29.97575581868493], [76.2382768419054, 29.974245876736145], [76.23686981201175, 29.962103780110713], [76.24103647867841, 29.956314256456196], [76.24229685465497, 29.93710378011071], [76.2381301879883, 29.931314256456197], [76.23750000000003, 29.929166666666703], [76.23090888129343, 29.928813340928855], [76.22119106716582, 29.919121805826858], [76.22048000759551, 29.91424221462677], [76.21495378282337, 29.908688184950122], [76.20174221462676, 29.90798000759552], [76.19825778537329, 29.90451999240455], [76.19340888129342, 29.903813340928853], [76.18159111870662, 29.89201999240455], [76.17083333333336, 29.8916666666667], [76.16666666666669, 29.8916666666667], [76.1657402886285, 29.894906955295173], [76.15925971137155, 29.896759711371562], [76.15771569146052, 29.902160135904982], [76.15061764187286, 29.910339864095086], [76.1493823581272, 29.927160135904984], [76.14645097520619, 29.93117319742842], [76.14521569146052, 29.94213578965932], [76.1493823581272, 29.947839864095087], [76.15061764187286, 29.960493469238315], [76.15354902479386, 29.964506530761753], [76.15509304470488, 29.969906955295173], [76.16157362196184, 29.97175971137156], [76.16311764187286, 29.97716013590498], [76.16604902479386, 29.98117319742842], [76.16728430853952, 29.984069993760887], [76.15849728054472, 29.994196065266962], [76.15369754367407, 29.996450975206198], [76.14678192138675, 29.991399298773906], [76.14521569146052, 30.002160135904983], [76.14155273437503, 30.00717451307512], [76.13750000000002, 30.00833333333337], [76.1369327121311, 30.018877156575556], [76.13380211724177, 30.022916666666703], [76.1369327121311, 30.026956176757846], [76.1382024129232, 30.036566840277814], [76.15195617675784, 30.04943271213111], [76.16887715657555, 30.050567287868958], [76.17278951009116, 30.053599378797777], [76.17721048990887, 30.054733954535624], [76.1811228434245, 30.057766045464444], [76.18664906819664, 30.059184265136754], [76.18806728786895, 30.06471048990889], [76.19223395453561, 30.07008666992191], [76.19109937879777, 30.073043823242223], [76.1869327121311, 30.078420003255243], [76.18816850450307, 30.090717400444912], [76.1937454223633, 30.095368279351163], [76.19778951009117, 30.092233954535626], [76.20000000000002, 30.091666666666704], [76.20035332573786, 30.102424452039966], [76.20381334092885, 30.105908881293438], [76.20451999240454, 30.122546217176684], [76.20035332573786, 30.126742214626773], [76.20000000000002, 30.129166666666688], [76.20056728786895, 30.13554382324221], [76.20359937879776, 30.139456176757832], [76.20473395453561, 30.14387715657554], [76.20786454942494, 30.14791666666669], [76.20463545057511, 30.152083333333355], [76.20776604546444, 30.156122843424498], [76.20918426513674, 30.161649237738736], [76.21595815022789, 30.163387383355055], [76.21723395453562, 30.173043823242207], [76.22026604546443, 30.176956176757834], [76.22168426513674, 30.182482571072068], [76.2284581502279, 30.184220716688387], [76.22987518310549, 30.19494594997832], [76.23664906819664, 30.196684095594637], [76.23806728786894, 30.202210489908875], [76.25370771620011, 30.218737453884568], [76.2496041191949, 30.224032253689256], [76.24583333333335, 30.22500000000002], [76.24657067192928, 30.2367628309462], [76.25833333333335, 30.237500000000022], [76.25897606743709, 30.239634874131966], [76.26602393256296, 30.247865125868078], [76.26730940077043, 30.264634874131964], [76.27852393256296, 30.277031792534743], [76.27980940077042, 30.281301540798633], [76.28685726589629, 30.289531792534742], [76.28814273410376, 30.293801540798633], [76.29519059922963, 30.302031792534745], [76.29647606743708, 30.322968207465298], [76.29935726589629, 30.327031792534743], [76.30064273410376, 30.338133748372417], [76.29230940077042, 30.347865125868076], [76.29089525010853, 30.361728583441863], [76.28333333333336, 30.362500000000022], [76.28390062120228, 30.364710489908877], [76.2869327121311, 30.3686228434245], [76.28835093180341, 30.374149237738738], [76.29498240152998, 30.375850762261308], [76.29640062120228, 30.381377156575542], [76.30371263292103, 30.389583333333356], [76.29640062120228, 30.39778951009117], [76.29498240152998, 30.403315904405403], [76.28835093180341, 30.405017428927973], [76.2869327121311, 30.41054382324221], [76.28276604546443, 30.41592000325523], [76.28390062120228, 30.42304382324221], [76.28806728786896, 30.42842000325523], [76.2869327121311, 30.439710489908876], [76.28276604546443, 30.4450866699219], [76.28451809353301, 30.449653455946205], [76.2936228434245, 30.45776604546443], [76.30000000000003, 30.458333333333357], [76.29943271213111, 30.46054382324221], [76.29640062120228, 30.464456176757835], [76.29498240152998, 30.469982571072073], [76.29166666666669, 30.470833333333356], [76.29075741238067, 30.474376424153668], [76.2791666666667, 30.475000000000023], [76.27978430853952, 30.481326972113738], [76.28271569146052, 30.485339694552973], [76.28395097520618, 30.49630262586808], [76.27978430853952, 30.502006361219642], [76.27854902479386, 30.504635959201412], [76.28271569146052, 30.510339694552975], [76.28395097520618, 30.514660305447073], [76.28783111572268, 30.519971720377626], [76.29926486545142, 30.521635945638042], [76.30000000000003, 30.52916666666669], [76.30056728786894, 30.531377156575545], [76.30359937879777, 30.535289510091168], [76.30501759847007, 30.540815904405406], [76.31054382324221, 30.542233954535615], [76.31445617675784, 30.545266045464434], [76.32408057318796, 30.54653761121964], [76.32859937879776, 30.551956176757834], [76.32977413601348, 30.582419840494815], [76.33333333333336, 30.583333333333357], [76.33397606743709, 30.593801540798633], [76.3368572658963, 30.59786512586808], [76.33827345106339, 30.61174892849395], [76.35448845757381, 30.61314290364586], [76.3604166666667, 30.60893961588544], [76.36453162299264, 30.61185709635419], [76.3729683770074, 30.61314290364586], [76.37703162299265, 30.616023763020856], [76.38130171034074, 30.617309570312525], [76.39464246961808, 30.629377916124156], [76.39647606743709, 30.6354682074653], [76.39997643364804, 30.640404934353324], [76.40630171034074, 30.642309570312523], [76.41036495632598, 30.645190429687524], [76.42296837700741, 30.64647623697919], [76.42708333333336, 30.64939371744794], [76.4311982896593, 30.64647623697919], [76.44021860758465, 30.645190429687524], [76.44263085259334, 30.65320231119794], [76.44903581407337, 30.655131022135443], [76.45000000000003, 30.658333333333356], [76.45637715657554, 30.657766045464435], [76.46175333658857, 30.653599378797768], [76.46471048990888, 30.654733954535615], [76.4700866699219, 30.65890062120228], [76.48137715657555, 30.657766045464435], [76.48528951009118, 30.654733954535615], [76.49804382324221, 30.653599378797768], [76.50342000325523, 30.6494327121311], [76.50637715657555, 30.65056728786895], [76.51028951009117, 30.653599378797768], [76.51471048990888, 30.654733954535615], [76.52278951009117, 30.6619327121311], [76.52831573486331, 30.66335076226131], [76.53008236355254, 30.670234849717907], [76.55000000000003, 30.670833333333356], [76.55637715657555, 30.67140062120228], [76.56873864067929, 30.682873535156276], [76.57386288113067, 30.678902180989606], [76.57585093180342, 30.686649237738738], [76.58137715657554, 30.688067287868947], [76.58528951009117, 30.691099378797766], [76.60221048990888, 30.692233954535613], [76.6061228434245, 30.695266045464436], [76.61887715657555, 30.69640062120228], [76.62278951009117, 30.699432712131102], [76.62721048990888, 30.70056728786895], [76.63528951009117, 30.707766045464435], [76.63971048990888, 30.708900621202282], [76.64362284342451, 30.7119327121311], [76.64804382324222, 30.71306728786895], [76.65195617675784, 30.716099378797768], [76.65748240152998, 30.717517428927977], [76.65930107964412, 30.724603949652803], [76.66445617675784, 30.728599378797767], [76.67411261664499, 30.729875013563394], [76.67589959038631, 30.736838785807315], [76.68333333333337, 30.737500000000026], [76.6857577853733, 30.737853325737873], [76.69130859375002, 30.743376329210093], [76.69201999240454, 30.74825778537329], [76.71004587809247, 30.766308932834228], [76.71492445203995, 30.76701999240454], [76.7204788208008, 30.772546725802975], [76.72118665907121, 30.789924452039955], [76.73714667426218, 30.805908881293426], [76.73750000000003, 30.80833333333336], [76.7408157348633, 30.809184095594645], [76.74166666666669, 30.812500000000025], [76.74804382324221, 30.81306728786895], [76.7574135674371, 30.821416219075545], [76.75890062120229, 30.82721048990888], [76.77026604546444, 30.83945617675784], [76.77168426513674, 30.844982571072073], [76.77721048990888, 30.84640062120228], [76.78658023410377, 30.85474955240888], [76.78806728786896, 30.860543823242214], [76.79109937879777, 30.864456176757837], [76.79223395453562, 30.873043823242213], [76.79526604546444, 30.876956176757837], [76.79583333333336, 30.87916666666669], [76.80000000000003, 30.87916666666669], [76.80743374294708, 30.878505452473984], [76.8092207166884, 30.87154168023006], [76.81989593505863, 30.870131429036483], [76.84526604546444, 30.843877156575545], [76.84668409559464, 30.83835076226131], [76.85221048990888, 30.8369327121311], [76.85612284342452, 30.833900621202282], [76.86164923773875, 30.832482571072074], [76.86250000000003, 30.82916666666669], [76.86909111870662, 30.828813340928846], [76.8725755479601, 30.825353325737872], [76.87500000000003, 30.825000000000024], [76.87916666666669, 30.825000000000024], [76.88333333333337, 30.825000000000024], [76.91492445203995, 30.825353325737872], [76.92674221462677, 30.83714667426218], [76.93159111870662, 30.83785332573787], [76.94547492133249, 30.851711357964437], [76.94618665907122, 30.85587972005211], [76.94201999240454, 30.860075547960093], [76.94131334092884, 30.864214409722248], [76.94754299587676, 30.870475260416693], [76.95242445203996, 30.871186659071206], [76.95590888129344, 30.87464667426218], [76.96909111870663, 30.875353325737873], [76.97464396158857, 30.880878702799507], [76.97535332573787, 30.889213053385443], [76.97118665907121, 30.89340888129343], [76.97083333333336, 30.89583333333336], [76.97325778537329, 30.896186659071205], [76.98090888129343, 30.903813340928846], [76.98333333333336, 30.904166666666693], [76.99804382324221, 30.904733954535615], [77.00208333333336, 30.90786471896704], [77.0061228434245, 30.904733954535615], [77.02721048990888, 30.903599378797768], [77.03112284342451, 30.90056728786895], [77.03664923773874, 30.89914923773874], [77.03835076226132, 30.892517428927977], [77.04387715657555, 30.89109937879777], [77.05195617675784, 30.883900621202283], [77.0541666666667, 30.883333333333358], [77.05793728298615, 30.882365587022594], [77.06193271213111, 30.87721048990888], [77.06306728786896, 30.87278951009117], [77.07443271213111, 30.860543823242214], [77.07585076226131, 30.855017428927976], [77.08293728298614, 30.85319892035593], [77.08806728786895, 30.84657999674482], [77.08643018934465, 30.842312622070338], [77.0791666666667, 30.841666666666693], [77.0791666666667, 30.833333333333357], [77.08001742892799, 30.830017428927977], [77.08554382324222, 30.82859937879777], [77.08945617675785, 30.82556728786895], [77.10221048990888, 30.824432712131102], [77.11028951009118, 30.817233954535617], [77.11627061631947, 30.815698920355928], [77.12026604546445, 30.810543823242213], [77.12140062120228, 30.806122843424504], [77.12443271213111, 30.80221048990888], [77.12566121419275, 30.78839959038631], [77.13268771701392, 30.786596340603325], [77.14526604546444, 30.77304382324221], [77.14654168023007, 30.76338738335506], [77.15331590440542, 30.76164923773874], [77.15505405002173, 30.754875013563392], [77.16577928331166, 30.75345831976999], [77.1666666666667, 30.750000000000025], [77.16723395453562, 30.74778951009117], [77.17026604546444, 30.743877156575547], [77.17180107964413, 30.737896050347246], [77.17695617675784, 30.73390062120228], [77.18268771701392, 30.732429673936657], [77.19526604546444, 30.718877156575545], [77.19640062120229, 30.714456176757835], [77.21306728786895, 30.696845160590303], [77.21182861328128, 30.68423021104603], [77.20833333333337, 30.68333333333336], [77.20482788085941, 30.682433742947072], [77.2041666666667, 30.675000000000026], [77.20513441297746, 30.67122938368058], [77.21028951009117, 30.667233954535615], [77.21581590440542, 30.665815904405406], [77.21751742892798, 30.659184095594643], [77.22304382324222, 30.657766045464435], [77.22695617675784, 30.654733954535615], [77.23137715657555, 30.653599378797768], [77.23528951009118, 30.65056728786895], [77.24804382324221, 30.6494327121311], [77.25195617675784, 30.646400621202282], [77.25637715657555, 30.645266045464435], [77.26028951009118, 30.642233954535612], [77.2647104899089, 30.64109937879777], [77.26862284342451, 30.63806728786895], [77.27304382324222, 30.6369327121311], [77.28112284342451, 30.629733954535613], [77.28554382324222, 30.628599378797766], [77.28945617675784, 30.625567287868947], [77.29520975748702, 30.6240909152561], [77.29583333333336, 30.612500000000026], [77.29808146158858, 30.611970350477453], [77.31025187174482, 30.600529649522592], [77.32724812825523, 30.599470350477453], [77.33239271375871, 30.595303683810787], [77.33558146158857, 30.596362982855926], [77.34072604709205, 30.600529649522592], [77.34808146158858, 30.599470350477453], [77.35624050564239, 30.59205491807728], [77.36155938042538, 30.596362982855926], [77.36589999728736, 30.59492119683162], [77.3666666666667, 30.59166666666669], [77.36887715657555, 30.591099378797768], [77.37278951009118, 30.588067287868945], [77.37831590440541, 30.58664923773874], [77.3791666666667, 30.583333333333357], [77.37951999240455, 30.580908881293425], [77.38748609754778, 30.572917344835094], [77.38298000759552, 30.568379720052107], [77.38368665907122, 30.52257554796009], [77.38714667426218, 30.51909111870662], [77.38750000000003, 30.51666666666669], [77.38528951009118, 30.516099378797765], [77.37721048990889, 30.50890062120228], [77.36862284342452, 30.507766045464432], [77.36471048990889, 30.504733954535613], [77.35758666992191, 30.503599378797766], [77.35221048990888, 30.507766045464432], [77.33528951009117, 30.50890062120228], [77.33137715657556, 30.5119327121311], [77.32695617675785, 30.513067287868946], [77.32197062174482, 30.516931152343773], [77.32026604546444, 30.51028951009117], [77.30348951551653, 30.49256218804256], [77.29668409559466, 30.490815904405405], [77.29583333333336, 30.487500000000022], [77.29673699273006, 30.4839789496528], [77.31028951009118, 30.471400621202278], [77.31471048990889, 30.47026604546443], [77.3186228434245, 30.46723395453561], [77.32304382324222, 30.466099378797765], [77.32695617675785, 30.463067287868945], [77.33390062120229, 30.461285061306448], [77.33276604546444, 30.426956176757834], [77.31723395453562, 30.41054382324221], [77.3166666666667, 30.408333333333356], [77.31424221462677, 30.40798000759551], [77.3107577853733, 30.404519992404538], [77.30174221462677, 30.403813340928842], [77.2982577853733, 30.400353325737868], [77.29340888129343, 30.399646674262176], [77.28992445203997, 30.3961866590712], [77.2850755479601, 30.39548000759551], [77.28159111870663, 30.392019992404535], [77.26840888129344, 30.391313340928843], [77.26492445203996, 30.38785332573787], [77.25174221462677, 30.387146674262176], [77.23958401150176, 30.37501356336808], [77.2357577853733, 30.37881334092884], [77.2291666666667, 30.379166666666688], [77.22819485134552, 30.37576836480037], [77.21867302788631, 30.374382527669294], [77.21466030544708, 30.371450805664082], [77.21033969455299, 30.370215861002627], [77.20632697211374, 30.36728413899742], [77.19662746853302, 30.365872531467037], [77.19506496853302, 30.35513848198787], [77.18950636121966, 30.353549194335958], [77.18549363878041, 30.35061747233075], [77.17573513454865, 30.349197387695334], [77.17500000000003, 30.34166666666669], [77.17414923773875, 30.338350762261307], [77.16862284342452, 30.336932712131098], [77.15637715657556, 30.325567287868946], [77.15039605034725, 30.324032253689257], [77.14640062120229, 30.318877156575542], [77.14526604546444, 30.314456176757833], [77.13806728786895, 30.306377156575543], [77.13750000000003, 30.30416666666669], [77.12695617675784, 30.303599378797763], [77.11471048990889, 30.29223395453561], [77.10612284342452, 30.291099378797764], [77.10221048990888, 30.288067287868945], [77.09508666992191, 30.286932712131097], [77.08971048990888, 30.291099378797764], [77.08454827202694, 30.29223395453561], [77.08244594997834, 30.284041680230054], [77.0717207166884, 30.28262498643665], [77.07083333333337, 30.279166666666686], [77.07026604546444, 30.276956176757835], [77.06723395453562, 30.273043823242208], [77.06609937879777, 30.2686228434245], [77.06306728786896, 30.264710489908875], [77.06193271213111, 30.260289510091166], [77.05890062120228, 30.256377156575542], [77.05742763943145, 30.250637817382835], [77.03945617675784, 30.249432712131096], [77.03554382324222, 30.246400621202277], [77.02278951009117, 30.24526604546443], [77.01887715657556, 30.24223395453561], [77.01445617675785, 30.241099378797763], [77.01054382324222, 30.238067287868944], [76.99778951009118, 30.236932712131097], [76.98554382324221, 30.225567287868945], [76.98112284342452, 30.224432712131097], [76.97721048990888, 30.221400621202278], [76.97278951009118, 30.22026604546443], [76.96471048990888, 30.213067287868945], [76.95891621907555, 30.211580403645854], [76.95056728786895, 30.202210489908875], [76.94909091525611, 30.19645690917971], [76.93750000000003, 30.195833333333354], [76.93636271158857, 30.191402180989606], [76.93030395507816, 30.196097819010436], [76.92859937879777, 30.189456176757833], [76.92556728786896, 30.185543823242206], [76.92409634060333, 30.17981228298613], [76.91054382324222, 30.16723395453561], [76.89362284342451, 30.166099378797764], [76.88971048990888, 30.163067287868945], [76.88750000000003, 30.16250000000002], [76.86840888129343, 30.16214667426219], [76.8628590901693, 30.15662451850047], [76.86214667426218, 30.152453782823386], [76.86631334092885, 30.1482577853733], [76.86701999240454, 30.139242214626773], [76.87048000759552, 30.1357577853733], [76.87083333333337, 30.129166666666702], [76.8666666666667, 30.129166666666702], [76.85612284342452, 30.12859937879778], [76.85221048990888, 30.12556728786896], [76.84092000325523, 30.124432712131114], [76.83554382324222, 30.12859937879778], [76.81788160536027, 30.129733954535627], [76.81609937879777, 30.12278951009118], [76.80775044759118, 30.113419765896303], [76.80195617675784, 30.11193271213111], [76.78971048990888, 30.10056728786896], [76.76592000325523, 30.09943271213111], [76.76054382324222, 30.103599378797778], [76.75121493869361, 30.104733954535625], [76.74886288113068, 30.095568678114184], [76.74387715657555, 30.09943271213111], [76.73750000000003, 30.100000000000037], [76.72278951009118, 30.10056728786896], [76.71875000000003, 30.103697882758283], [76.71471048990888, 30.10056728786896], [76.71028951009117, 30.09943271213111], [76.70637715657554, 30.096400621202292], [76.6936228434245, 30.095266045464445], [76.6800701565213, 30.082687547471824], [76.6783157348633, 30.07585093180342], [76.67500000000003, 30.07500000000002], [76.67464667426218, 30.06840888129344], [76.67118665907121, 30.064924452039968], [76.67048000759551, 30.055908881293437], [76.66701999240455, 30.052424452039965], [76.6666666666667, 30.050000000000036], [76.65195617675784, 30.04943271213111], [76.64804382324222, 30.04640062120229], [76.58008592393666, 30.04524841308597], [76.57859937879778, 30.03945617675785], [76.574040222168, 30.033989291720957], [76.56028951009117, 30.032766045464445], [76.55637715657555, 30.029733954535626], [76.5467207166884, 30.028458150227898], [76.54495357937286, 30.021572028266093], [76.53675333658857, 30.020266045464446], [76.53137715657554, 30.024432712131112], [76.51862284342451, 30.02556728786896], [76.51471048990888, 30.02859937879778], [76.51028951009117, 30.029733954535626], [76.50637715657555, 30.032766045464445], [76.49583333333337, 30.033333333333367], [76.49251759847007, 30.034184265136755], [76.49077928331165, 30.0409581502279], [76.4811228434245, 30.042233954535625], [76.47721048990888, 30.045266045464444], [76.47278951009118, 30.04640062120229], [76.46780378553605, 30.05026465521922], [76.4666666666667, 30.04583333333337], [76.45091332329646, 30.046440802680156], [76.449089050293, 30.053549533420174], [76.42425333658856, 30.054733954535624], [76.41887715657555, 30.050567287868958], [76.4041666666667, 30.05000000000002], [76.39362284342451, 30.04943271213111], [76.38971048990888, 30.04640062120229], [76.38528951009117, 30.045266045464444], [76.38030378553604, 30.041402011447516], [76.37835574679907, 30.04899325900611], [76.37425333658857, 30.050567287868958], [76.36875000000002, 30.046302117241787], [76.36471048990887, 30.04943271213111], [76.34489610460072, 30.050567287868958], [76.33554382324222, 30.042233954535625], [76.32588738335505, 30.0409581502279], [76.3244327121311, 30.035289510091182], [76.32140062120229, 30.031377156575555], [76.32083333333335, 30.0291666666667], [76.31840888129342, 30.02951999240455], [76.31492445203996, 30.032980007595523], [76.31250000000003, 30.033333333333367], [76.31035241021053, 30.03270314534509], [76.30505676269534, 30.028891838921474]]]}, "properties": {"kind": "catchment", "name": "Ghaggar Khanauri", "outlet": 4080768840, "area_km2": 6741.8, "n_subbasins": 5, "source": "HydroBASINS v1c Asia level 8 (Lehner & Grill 2013), hybas_as_lev08_v1c.zip, sha256 878c56bb4253a7c8...; upstream set of the sub-basin containing the dam"}}, {"type": "Feature", "geometry": {"type": "Point", "coordinates": [76.25, 30.0]}, "properties": {"kind": "grid_point", "weight_km2": 329.252, "weight_imd_km2": 329.252}}, {"type": "Feature", "geometry": {"type": "Point", "coordinates": [76.5, 30.0]}, "properties": {"kind": "grid_point", "weight_km2": 223.773, "weight_imd_km2": 223.773}}, {"type": "Feature", "geometry": {"type": "Point", "coordinates": [76.75, 30.0]}, "properties": {"kind": "grid_point", "weight_km2": 77.676, "weight_imd_km2": 77.676}}, {"type": "Feature", "geometry": {"type": "Point", "coordinates": [76.25, 30.25]}, "properties": {"kind": "grid_point", "weight_km2": 312.208, "weight_imd_km2": 312.208}}, {"type": "Feature", "geometry": {"type": "Point", "coordinates": [76.5, 30.25]}, "properties": {"kind": "grid_point", "weight_km2": 666.827, "weight_imd_km2": 666.827}}, {"type": "Feature", "geometry": {"type": "Point", "coordinates": [76.75, 30.25]}, "properties": {"kind": "grid_point", "weight_km2": 662.13, "weight_imd_km2": 662.13}}, {"type": "Feature", "geometry": {"type": "Point", "coordinates": [77.0, 30.25]}, "properties": {"kind": "grid_point", "weight_km2": 386.041, "weight_imd_km2": 386.041}}, {"type": "Feature", "geometry": {"type": "Point", "coordinates": [77.25, 30.25]}, "properties": {"kind": "grid_point", "weight_km2": 36.017, "weight_imd_km2": 36.017}}, {"type": "Feature", "geometry": {"type": "Point", "coordinates": [76.25, 30.5]}, "properties": {"kind": "grid_point", "weight_km2": 183.913, "weight_imd_km2": 183.913}}, {"type": "Feature", "geometry": {"type": "Point", "coordinates": [76.5, 30.5]}, "properties": {"kind": "grid_point", "weight_km2": 664.205, "weight_imd_km2": 664.205}}, {"type": "Feature", "geometry": {"type": "Point", "coordinates": [76.75, 30.5]}, "properties": {"kind": "grid_point", "weight_km2": 665.158, "weight_imd_km2": 665.158}}, {"type": "Feature", "geometry": {"type": "Point", "coordinates": [77.0, 30.5]}, "properties": {"kind": "grid_point", "weight_km2": 665.158, "weight_imd_km2": 665.158}}, {"type": "Feature", "geometry": {"type": "Point", "coordinates": [77.25, 30.5]}, "properties": {"kind": "grid_point", "weight_km2": 547.932, "weight_imd_km2": 547.932}}, {"type": "Feature", "geometry": {"type": "Point", "coordinates": [77.5, 30.5]}, "properties": {"kind": "grid_point", "weight_km2": 6.791, "weight_imd_km2": 6.791}}, {"type": "Feature", "geometry": {"type": "Point", "coordinates": [76.5, 30.75]}, "properties": {"kind": "grid_point", "weight_km2": 98.369, "weight_imd_km2": 98.369}}, {"type": "Feature", "geometry": {"type": "Point", "coordinates": [76.75, 30.75]}, "properties": {"kind": "grid_point", "weight_km2": 463.229, "weight_imd_km2": 463.229}}, {"type": "Feature", "geometry": {"type": "Point", "coordinates": [77.0, 30.75]}, "properties": {"kind": "grid_point", "weight_km2": 602.819, "weight_imd_km2": 602.819}}, {"type": "Feature", "geometry": {"type": "Point", "coordinates": [77.25, 30.75]}, "properties": {"kind": "grid_point", "weight_km2": 127.479, "weight_imd_km2": 127.479}}, {"type": "Feature", "geometry": {"type": "Point", "coordinates": [76.75, 31.0]}, "properties": {"kind": "grid_point", "weight_km2": 0.537, "weight_imd_km2": 0.537}}, {"type": "Feature", "geometry": {"type": "Point", "coordinates": [77.0, 31.0]}, "properties": {"kind": "grid_point", "weight_km2": 22.312, "weight_imd_km2": 22.312}}]}