{"type": "FeatureCollection", "features": [{"type": "Feature", "geometry": {"type": "Polygon", "coordinates": [[[76.80000000000003, 30.708333333333357], [76.80056728786896, 30.71054382324221], [76.80359937879777, 30.714456176757835], [76.80473395453562, 30.736285061306447], [76.79650488959422, 30.7383968777127], [76.79526604546444, 30.75098809136287], [76.80776604546443, 30.764456176757836], [76.80833333333337, 30.76666666666669], [76.80868665907121, 30.769091118706623], [76.81214667426218, 30.772575547960095], [76.81250000000003, 30.775000000000027], [76.81887715657555, 30.77556728786895], [76.83242984347876, 30.78814561631947], [76.83390062120229, 30.793877156575547], [76.83789588080515, 30.799032253689262], [76.84387715657554, 30.800567287868947], [76.84778951009118, 30.80359937879777], [76.8533159044054, 30.805017428927975], [76.8541666666667, 30.80833333333336], [76.85833333333336, 30.80833333333336], [76.86054382324221, 30.808900621202284], [76.8686228434245, 30.81609937879777], [76.87433878580732, 30.817566257052977], [76.87500000000003, 30.825000000000024], [76.87916666666669, 30.825000000000024], [76.88333333333337, 30.825000000000024], [76.91492445203995, 30.825353325737872], [76.92674221462677, 30.83714667426218], [76.93159111870662, 30.83785332573787], [76.94547492133249, 30.851711357964437], [76.94618665907122, 30.85587972005211], [76.94201999240454, 30.860075547960093], [76.94131334092884, 30.864214409722248], [76.94754299587676, 30.870475260416693], [76.95242445203996, 30.871186659071206], [76.95590888129344, 30.87464667426218], [76.96909111870663, 30.875353325737873], [76.97464396158857, 30.880878702799507], [76.97535332573787, 30.889213053385443], [76.97118665907121, 30.89340888129343], [76.97083333333336, 30.89583333333336], [76.97325778537329, 30.896186659071205], [76.98090888129343, 30.903813340928846], [76.98333333333336, 30.904166666666693], [76.99804382324221, 30.904733954535615], [77.00208333333336, 30.90786471896704], [77.0061228434245, 30.904733954535615], [77.02721048990888, 30.903599378797768], [77.03112284342451, 30.90056728786895], [77.03664923773874, 30.89914923773874], [77.03835076226132, 30.892517428927977], [77.04387715657555, 30.89109937879777], [77.05195617675784, 30.883900621202283], [77.0541666666667, 30.883333333333358], [77.05793728298615, 30.882365587022594], [77.06193271213111, 30.87721048990888], [77.06306728786896, 30.87278951009117], [77.07443271213111, 30.860543823242214], [77.07585076226131, 30.855017428927976], [77.08293728298614, 30.85319892035593], [77.08806728786895, 30.84657999674482], [77.08643018934465, 30.842312622070338], [77.0791666666667, 30.841666666666693], [77.0791666666667, 30.833333333333357], [77.08001742892799, 30.830017428927977], [77.08554382324222, 30.82859937879777], [77.08945617675785, 30.82556728786895], [77.10221048990888, 30.824432712131102], [77.11028951009118, 30.817233954535617], [77.11627061631947, 30.815698920355928], [77.12026604546445, 30.810543823242213], [77.12140062120228, 30.806122843424504], [77.12443271213111, 30.80221048990888], [77.12566121419275, 30.78839959038631], [77.13268771701392, 30.786596340603325], [77.14526604546444, 30.77304382324221], [77.14654168023007, 30.76338738335506], [77.15331590440542, 30.76164923773874], [77.15505405002173, 30.754875013563392], [77.16577928331166, 30.75345831976999], [77.1666666666667, 30.750000000000025], [77.16723395453562, 30.74778951009117], [77.17026604546444, 30.743877156575547], [77.17180107964413, 30.737896050347246], [77.17695617675784, 30.73390062120228], [77.18268771701392, 30.732429673936657], [77.19526604546444, 30.718877156575545], [77.19640062120229, 30.714456176757835], [77.21306728786895, 30.696845160590303], [77.21182861328128, 30.68423021104603], [77.20833333333337, 30.68333333333336], [77.20482788085941, 30.682433742947072], [77.2041666666667, 30.675000000000026], [77.18924221462677, 30.675353325737873], [77.17742445203996, 30.687146674262177], [77.16840888129343, 30.687853325737873], [77.16492445203997, 30.691313340928843], [77.16250000000004, 30.69166666666669], [77.16033969455299, 30.69104919433596], [77.15502827962243, 30.687169053819467], [77.15336405436202, 30.675735134548635], [77.14583333333337, 30.675000000000026], [77.1350755479601, 30.675353325737873], [77.13159111870662, 30.678813340928844], [77.12500000000003, 30.679166666666692], [77.1225755479601, 30.678813340928844], [77.11909111870663, 30.675353325737873], [77.1166666666667, 30.675000000000026], [77.11701999240455, 30.672575547960093], [77.12048000759552, 30.66909111870662], [77.12118665907121, 30.655908881293428], [77.12498541937937, 30.65208333333336], [77.12048000759552, 30.647546386718773], [77.12118665907121, 30.639242214626762], [77.12535332573788, 30.635046386718773], [77.12464667426218, 30.630908881293426], [77.12118665907121, 30.627424452039953], [77.12048000759552, 30.622575547960093], [77.10868665907121, 30.610757785373288], [77.10833333333336, 30.608333333333356], [77.10174221462677, 30.60798000759551], [77.09825778537329, 30.604519992404537], [77.09340888129343, 30.603813340928845], [77.08575778537329, 30.596186659071204], [77.08090888129344, 30.59548000759551], [77.0732577853733, 30.58785332573787], [77.05833333333337, 30.587500000000023], [77.0574378119575, 30.58401048448353], [77.03971048990888, 30.567233954535613], [77.03112284342451, 30.566099378797766], [77.01887715657556, 30.554733954535614], [77.01445617675785, 30.553599378797767], [76.99804382324221, 30.538067287868948], [76.9936228434245, 30.5369327121311], [76.98971048990889, 30.533900621202278], [76.98372938368058, 30.532365587022593], [76.97973395453562, 30.527210489908878], [76.97826300727, 30.521478949652803], [76.96471048990888, 30.50890062120228], [76.96028951009117, 30.507766045464432], [76.95221048990888, 30.500567287868947], [76.94668409559465, 30.499149237738738], [76.94526604546444, 30.493622843424504], [76.93806728786895, 30.48554382324221], [76.93664923773875, 30.480017428927972], [76.93001742892798, 30.478315904405406], [76.9291666666667, 30.475000000000023], [76.92800801595055, 30.47094726562502], [76.92299363878041, 30.467284138997417], [76.91759304470489, 30.465740288628496], [76.91556023491756, 30.458630032009573], [76.90632697211375, 30.45061747233075], [76.89662746853301, 30.44920586480037], [76.89506496853302, 30.438471815321204], [76.8916666666667, 30.43750000000002], [76.8916666666667, 30.425000000000022], [76.89095153808597, 30.417505900065127], [76.88550618489586, 30.4131049262153], [76.87595045301653, 30.411746554904536], [76.87409261067711, 30.405074055989605], [76.86866048177086, 30.403561740451412], [76.86467285156253, 30.4006049262153], [76.85495673285592, 30.399223836263044], [76.85060492621531, 30.39383951822919], [76.84909261067712, 30.38840738932294], [76.8425742255317, 30.386592610677106], [76.84033796522355, 30.37856174045141], [76.8301203409831, 30.379908921983528], [76.8279727511936, 30.387620713975718], [76.82300601535376, 30.383938259548632], [76.81866065131297, 30.382728407118076], [76.81304066975915, 30.37856174045141], [76.80616065131296, 30.379771592881966], [76.80054066975914, 30.383938259548632], [76.79140370686852, 30.382331339518252], [76.79522823757598, 30.37717285156252], [76.79643842909074, 30.372827148437523], [76.79939490424265, 30.368839518229187], [76.80000000000003, 30.36666666666669], [76.78945617675784, 30.366099378797763], [76.78403761121965, 30.361580403645856], [76.78262481689455, 30.350887383355058], [76.77585093180342, 30.349149237738736], [76.7744327121311, 30.3436228434245], [76.76788160536027, 30.336932712131098], [76.76577029758032, 30.345159573025196], [76.75342000325523, 30.346400621202278], [76.74804382324221, 30.34223395453561], [76.74166666666669, 30.34166666666669], [76.7350755479601, 30.342019992404534], [76.73159111870663, 30.34548000759551], [76.72674221462677, 30.3461866590712], [76.71909111870663, 30.35381334092884], [76.7166666666667, 30.35416666666669], [76.71445617675784, 30.353599378797764], [76.70930107964412, 30.3496039496528], [76.70748240152997, 30.342517428927973], [76.70195617675785, 30.341099378797765], [76.69387715657555, 30.33390062120228], [76.68945617675784, 30.33276604546443], [76.67721048990889, 30.32140062120228], [76.6686228434245, 30.320266045464432], [76.66471048990888, 30.317233954535613], [76.65918426513674, 30.315815904405405], [76.65776604546444, 30.310289510091167], [76.65463545057511, 30.30625000000002], [76.65787150065107, 30.302074517144117], [76.64941711425784, 30.292586263020855], [76.64362284342451, 30.291099378797764], [76.6384677463108, 30.2871039496528], [76.63750000000003, 30.283333333333353], [76.63528951009117, 30.28276604546443], [76.63137715657555, 30.27973395453561], [76.62585093180341, 30.278315904405403], [76.62414906819664, 30.27168409559464], [76.6186228434245, 30.27026604546443], [76.61471048990889, 30.267233954535612], [76.60195617675784, 30.266099378797765], [76.59804382324222, 30.263067287868946], [76.59583333333336, 30.26250000000002], [76.59526604546444, 30.260289510091166], [76.59223395453562, 30.256377156575542], [76.59095815022789, 30.24672071668839], [76.58372921413849, 30.24486558702259], [76.57973395453561, 30.239710489908873], [76.57846238878041, 30.230086263020855], [76.57304382324222, 30.225567287868945], [76.5686228434245, 30.224432712131097], [76.56471048990888, 30.221400621202278], [76.55918426513675, 30.21998257107207], [76.55776604546443, 30.21445617675783], [76.55473395453562, 30.210543823242208], [76.55359937879777, 30.2061228434245], [76.54223395453562, 30.193877156575542], [76.54109937879777, 30.189456176757833], [76.53806728786896, 30.185543823242206], [76.53661261664499, 30.17987501356339], [76.5259194268121, 30.178462388780403], [76.52140062120229, 30.173043823242207], [76.52026604546444, 30.1686228434245], [76.51723395453561, 30.164710489908874], [76.5166666666667, 30.16250000000002], [76.5100755479601, 30.162146674262175], [76.50035773383249, 30.152454969618077], [76.49964667426218, 30.147575547960088], [76.48785332573787, 30.135757785373283], [76.48750000000003, 30.133333333333354], [76.48693271213111, 30.1311228434245], [76.47962849934899, 30.122925482855923], [76.48390062120228, 30.117413330078143], [76.48259463840063, 30.109212917751755], [76.47695617675784, 30.10776604546443], [76.46471048990888, 30.096400621202278], [76.45612284342451, 30.095266045464427], [76.45221048990888, 30.092233954535608], [76.44778951009117, 30.091099378797765], [76.44387715657555, 30.08806728786894], [76.42695617675784, 30.086932712131095], [76.42304382324221, 30.083900621202275], [76.41666666666669, 30.083333333333353], [76.40507592095271, 30.082709757487], [76.4041666666667, 30.079166666666687], [76.40331573486331, 30.075850762261304], [76.40000000000002, 30.07500000000002], [76.39583333333336, 30.07500000000002], [76.39511617024742, 30.082346937391513], [76.38821716308597, 30.084319729275194], [76.3867828369141, 30.09901360405818], [76.37991824679906, 30.10097656250002], [76.37854902479386, 30.111500379774327], [76.38966013590498, 30.11311747233075], [76.40307837592233, 30.125360446506097], [76.4041666666667, 30.129166666666688], [76.40381334092885, 30.13992445203995], [76.3961866590712, 30.147575547960088], [76.39548000759551, 30.152424452039952], [76.38995310465498, 30.1579789903429], [76.36840888129343, 30.1586866590712], [76.36285485161677, 30.16421305338544], [76.36250000000003, 30.170833333333352], [76.36335093180341, 30.174149237738735], [76.36998240152997, 30.175850762261305], [76.37140062120228, 30.181377156575543], [76.38276604546444, 30.1936228434245], [76.38390062120229, 30.202210489908875], [76.3869327121311, 30.2061228434245], [76.38806728786895, 30.214710489908875], [76.39109937879776, 30.218622843424498], [76.39223395453561, 30.22795172797311], [76.38399454752607, 30.23006625705297], [76.38276604546444, 30.243877156575543], [76.37896525065106, 30.24878133138023], [76.38002878824872, 30.253526136610265], [76.39804382324222, 30.25473395453561], [76.4061228434245, 30.2619327121311], [76.41054382324221, 30.263067287868946], [76.4160107082791, 30.267626614040818], [76.41666666666669, 30.27500000000002], [76.42420010036895, 30.275735473632835], [76.42854902479387, 30.281173027886304], [76.42978430853952, 30.2854936387804], [76.43271569146053, 30.28950636121964], [76.43413594563805, 30.29926486545141], [76.44799346923831, 30.30061747233075], [76.45709092881947, 30.308512030707487], [76.45833333333336, 30.30416666666669], [76.46992407904733, 30.304790242513043], [76.47173292371964, 30.311838785807314], [76.47916666666669, 30.31250000000002], [76.48578711615671, 30.312855021158875], [76.49131334092884, 30.318408881293426], [76.49201999240454, 30.323257785373286], [76.49548000759552, 30.32674221462676], [76.49619089762372, 30.33162061903214], [76.51424221462676, 30.349646674262175], [76.52083333333336, 30.350000000000023], [76.52175971137156, 30.353240288628495], [76.52716013590498, 30.354784138997417], [76.53533986409508, 30.361882527669295], [76.53966013590498, 30.36311747233075], [76.54467451307511, 30.366780598958357], [76.54675971137155, 30.374073621961827], [76.55216013590497, 30.375617472330752], [76.55759785970055, 30.379966566297764], [76.55906846788197, 30.395030721028668], [76.56882680257164, 30.396450805664085], [76.57283986409507, 30.399382527669292], [76.57716013590498, 30.40061747233075], [76.58681420220272, 30.409180365668426], [76.58750000000002, 30.420833333333356], [76.59081573486331, 30.42168409559464], [76.59255405002173, 30.428458319769987], [76.60221048990888, 30.429733954535614], [76.60625000000003, 30.432864718967036], [76.61042938232424, 30.429625447591167], [76.62695617675784, 30.445266045464432], [76.63137715657555, 30.44640062120228], [76.65612284342451, 30.47026604546443], [76.66471048990888, 30.471400621202278], [76.67381523980038, 30.47951321072051], [76.67556728786894, 30.484079996744814], [76.67140062120228, 30.489456176757834], [76.67026604546443, 30.502951727973112], [76.67721048990889, 30.504733954535613], [76.6823655870226, 30.508729383680578], [76.68390062120228, 30.51471048990888], [76.68693271213111, 30.518622843424502], [76.68820851643883, 30.528279283311655], [76.69517211914065, 30.530066257052976], [76.69583333333335, 30.537500000000023], [76.69804382324222, 30.538067287868948], [76.70195617675785, 30.541099378797767], [76.72400953504777, 30.542285834418426], [76.72859937879777, 30.54778951009117], [76.73001759847008, 30.553315904405405], [76.73333333333336, 30.55416666666669], [76.73430107964413, 30.557937282986135], [76.73945617675784, 30.5619327121311], [76.74519568549265, 30.563405693901935], [76.74647098117407, 30.582427639431447], [76.75377078586158, 30.58430107964412], [76.75776604546444, 30.589456176757835], [76.75890062120229, 30.59804382324221], [76.78276604546444, 30.62278951009117], [76.78390062120229, 30.62721048990888], [76.78806728786896, 30.6325866699219], [76.7869327121311, 30.635543823242212], [76.78276604546444, 30.640920003255232], [76.78390062120229, 30.652210489908878], [76.7869327121311, 30.656122843424505], [76.78806728786896, 30.68971048990888], [76.79109937879777, 30.693622843424503], [76.79237094455299, 30.703247070312525], [76.79778951009118, 30.707766045464435], [76.80000000000003, 30.708333333333357]]]}, "properties": {"kind": "catchment", "name": "Ghaggar Bhankarpur", "outlet": 4080762860, "area_km2": 2115.7, "n_subbasins": 1, "source": "HydroBASINS v1c Asia level 8 (Lehner & Grill 2013), hybas_as_lev08_v1c.zip, sha256 878c56bb4253a7c8...; upstream set of the sub-basin containing the dam"}}, {"type": "Feature", "geometry": {"type": "Point", "coordinates": [76.5, 30.0]}, "properties": {"kind": "grid_point", "weight_km2": 36.004, "weight_imd_km2": 36.004}}, {"type": "Feature", "geometry": {"type": "Point", "coordinates": [76.25, 30.25]}, "properties": {"kind": "grid_point", "weight_km2": 2.339, "weight_imd_km2": 2.339}}, {"type": "Feature", "geometry": {"type": "Point", "coordinates": [76.5, 30.25]}, "properties": {"kind": "grid_point", "weight_km2": 399.555, "weight_imd_km2": 399.555}}, {"type": "Feature", "geometry": {"type": "Point", "coordinates": [76.75, 30.25]}, "properties": {"kind": "grid_point", "weight_km2": 80.217, "weight_imd_km2": 80.217}}, {"type": "Feature", "geometry": {"type": "Point", "coordinates": [76.5, 30.5]}, "properties": {"kind": "grid_point", "weight_km2": 30.619, "weight_imd_km2": 30.619}}, {"type": "Feature", "geometry": {"type": "Point", "coordinates": [76.75, 30.5]}, "properties": {"kind": "grid_point", "weight_km2": 493.923, "weight_imd_km2": 493.923}}, {"type": "Feature", "geometry": {"type": "Point", "coordinates": [77.0, 30.5]}, "properties": {"kind": "grid_point", "weight_km2": 246.203, "weight_imd_km2": 246.203}}, {"type": "Feature", "geometry": {"type": "Point", "coordinates": [76.75, 30.75]}, "properties": {"kind": "grid_point", "weight_km2": 143.87, "weight_imd_km2": 143.87}}, {"type": "Feature", "geometry": {"type": "Point", "coordinates": [77.0, 30.75]}, "properties": {"kind": "grid_point", "weight_km2": 600.798, "weight_imd_km2": 600.798}}, {"type": "Feature", "geometry": {"type": "Point", "coordinates": [77.25, 30.75]}, "properties": {"kind": "grid_point", "weight_km2": 59.908, "weight_imd_km2": 59.908}}, {"type": "Feature", "geometry": {"type": "Point", "coordinates": [77.0, 31.0]}, "properties": {"kind": "grid_point", "weight_km2": 22.312, "weight_imd_km2": 22.312}}]}