{"type": "FeatureCollection", "features": [{"type": "Feature", "geometry": {"type": "Polygon", "coordinates": [[[75.41028951009118, 30.845266045464435], [75.40637715657556, 30.842233954535615], [75.39508666992191, 30.841099378797768], [75.3884677463108, 30.84622938368058], [75.38693271213111, 30.85221048990888], [75.38232082790802, 30.857740614149332], [75.33945617675785, 30.85890062120228], [75.33430107964413, 30.86289605034725], [75.33219604492191, 30.871097819010444], [75.32708333333336, 30.86713528103301], [75.32304382324222, 30.870266045464437], [75.31445617675784, 30.871400621202284], [75.31054382324223, 30.874432712131103], [75.30612284342452, 30.87556728786895], [75.30221048990889, 30.87859937879777], [75.29778951009118, 30.879733954535617], [75.29387715657555, 30.882766045464436], [75.2916666666667, 30.883333333333358], [75.2916666666667, 30.891666666666694], [75.2963541666667, 30.893007066514784], [75.29505411783857, 30.903458997938394], [75.27700636121965, 30.90478413899742], [75.2719919840495, 30.908447265625025], [75.27021586100264, 30.914660305447075], [75.26728413899743, 30.91867302788631], [75.26597459581167, 30.936506483289957], [75.26033969455298, 30.938117472330756], [75.25532531738284, 30.94178059895836], [75.25354919433597, 30.94799363878041], [75.24988606770836, 30.953008015950548], [75.24367302788632, 30.95478413899742], [75.23542310926652, 30.961943223741347], [75.23125000000003, 30.95889485677086], [75.22716030544709, 30.961882527669296], [75.22175971137156, 30.96342637803822], [75.21962076822919, 30.970907931857667], [75.21466030544708, 30.96728413899742], [75.21033969455299, 30.966049194335966], [75.20625000000003, 30.963061523437528], [75.20216030544708, 30.966049194335966], [75.19783969455298, 30.96728413899742], [75.18966030544708, 30.9743825276693], [75.18425971137155, 30.97592637803822], [75.18271586100263, 30.98132697211374], [75.17978413899743, 30.985339694552977], [75.17854919433597, 30.99382697211374], [75.17466905381947, 30.999138387044297], [75.16450636121965, 31.000617472330756], [75.15906880696618, 31.00496656629777], [75.15833333333336, 31.012500000000028], [75.15174221462676, 31.012853325737876], [75.14825778537329, 31.016313340928846], [75.13924221462676, 31.017019992404542], [75.1357577853733, 31.020480007595513], [75.13090888129344, 31.02118665907121], [75.12742445203996, 31.02464667426218], [75.12083333333337, 31.025000000000027], [75.10174221462677, 31.02464667426218], [75.09825778537329, 31.02118665907121], [75.06250000000003, 31.02083333333336], [75.06214667426218, 31.02325778537329], [75.05662027994795, 31.02881164550784], [75.04340888129343, 31.02951999240454], [75.03992445203995, 31.032980007595512], [75.0350755479601, 31.033686659071208], [75.03159111870663, 31.03714667426218], [75.0291666666667, 31.037500000000026], [75.02859937879778, 31.056377156575547], [75.02140062120229, 31.06445617675784], [75.01992424858943, 31.070209757487007], [74.99691535102, 31.071447753906277], [74.99526604546443, 31.075746663411486], [74.99943271213111, 31.081122843424506], [75.00056728786896, 31.08435872395836], [74.97973395453562, 31.106122843424508], [74.9791666666667, 31.108333333333363], [74.97695617675784, 31.108900621202284], [74.97291666666669, 31.112031385633706], [74.96887715657554, 31.108900621202284], [74.95954827202694, 31.107766045464437], [74.95748257107208, 31.11581590440541], [74.9541666666667, 31.116666666666696], [74.94250420464412, 31.117338392469645], [74.94106174045142, 31.125540500217042], [74.94529452853736, 31.13125000000003], [74.94227159288198, 31.13532714843753], [74.94166666666669, 31.14583333333336], [74.94166666666669, 31.150000000000027], [74.94166666666669, 31.154166666666693], [74.9541666666667, 31.154166666666693], [74.95767211914065, 31.15506625705298], [74.95833333333336, 31.16250000000003], [74.96250000000003, 31.16250000000003], [74.97500000000002, 31.16250000000003], [74.9753577338325, 31.16495412190758], [74.99340888129343, 31.182980007595514], [75.00242445203996, 31.18368665907121], [75.00590888129344, 31.18714667426218], [75.00833333333337, 31.18750000000003], [75.01887715657556, 31.186932712131103], [75.02278951009117, 31.183900621202284], [75.02574666341148, 31.182766045464437], [75.03112284342451, 31.186932712131103], [75.03679165310334, 31.188387383355064], [75.03806728786896, 31.198043823242216], [75.04264017740888, 31.203527323404977], [75.05907999674483, 31.20473395453562], [75.06445617675784, 31.200567287868953], [75.07593722873267, 31.199432712131106], [75.08528951009117, 31.20776604546444], [75.08971048990888, 31.208900621202286], [75.09778951009118, 31.21609937879777], [75.10221048990888, 31.21723395453562], [75.11028951009118, 31.224432712131104], [75.11471048990889, 31.22556728786895], [75.12278951009118, 31.232766045464437], [75.12721048990889, 31.233900621202284], [75.13528951009118, 31.24109937879777], [75.14804382324222, 31.24223395453562], [75.15195617675785, 31.24526604546444], [75.15637715657556, 31.246400621202284], [75.16184421115454, 31.25095977783206], [75.16250000000004, 31.25833333333336], [75.1619327121311, 31.260543823242216], [75.15776604546444, 31.26592000325524], [75.15890062120229, 31.27721048990888], [75.1619327121311, 31.28112284342451], [75.16335076226132, 31.286649068196645], [75.1666666666667, 31.28750000000003], [75.1689147949219, 31.286970520019562], [75.17400071885854, 31.28285132514109], [75.17839423285594, 31.284219699435795], [75.17969631618926, 31.28974829779734], [75.18280368381079, 31.293585035536054], [75.18333333333337, 31.30000000000003], [75.1854682074653, 31.30064273410376], [75.19369845920141, 31.30769059922963], [75.19903564453128, 31.309297519260014], [75.20064290364587, 31.314635043674073], [75.21299540201827, 31.328289794921904], [75.22296820746531, 31.32980940077043], [75.22842576768666, 31.334083387586837], [75.22980957031253, 31.352135043674075], [75.23269042968754, 31.356198289659318], [75.2339762369792, 31.364635043674074], [75.2368570963542, 31.368698289659317], [75.23814290364587, 31.372968377007407], [75.24102376302086, 31.37703162299265], [75.24243808322485, 31.390895250108535], [75.25630154079865, 31.39230940077043], [75.26545715332034, 31.400149875217043], [75.26730957031253, 31.406301710340742], [75.27019042968753, 31.410364956325985], [75.2714762369792, 31.414635043674075], [75.2743570963542, 31.418698289659318], [75.27564290364586, 31.422968377007408], [75.27852376302087, 31.42703162299265], [75.2791666666667, 31.429166666666696], [75.28575778537329, 31.429519992404543], [75.30174221462677, 31.445480007595517], [75.30659111870663, 31.44618665907121], [75.3100755479601, 31.449646674262183], [75.32083333333337, 31.45000000000003], [75.32429165310333, 31.450887383355067], [75.32570427788632, 31.461580573187966], [75.33112284342451, 31.46609937879777], [75.33691711425784, 31.467586432562964], [75.34526604546444, 31.47695617675784], [75.34647115071618, 31.494927639431456], [75.35000000000004, 31.495833333333366], [75.35085076226132, 31.499149068196644], [75.35637715657555, 31.500567287868954], [75.36992967393667, 31.513145785861575], [75.37140062120228, 31.518877156575552], [75.37859937879777, 31.526956176757842], [75.3791666666667, 31.533333333333363], [75.38137715657555, 31.53390062120229], [75.38528951009118, 31.536932712131108], [75.3897104899089, 31.538067287868955], [75.39362284342451, 31.541099378797774], [75.39804382324222, 31.54223395453562], [75.40195617675785, 31.54526604546444], [75.40637715657556, 31.546400621202288], [75.41457451714413, 31.553704833984405], [75.41875000000003, 31.55046878390845], [75.42403225368928, 31.554562547471818], [75.42556728786896, 31.56054382324222], [75.43276604546445, 31.56862284342451], [75.43390062120228, 31.58554382324222], [75.43847893608944, 31.591033935546907], [75.45742763943146, 31.59230431450741], [75.45833333333337, 31.595833333333363], [75.45868665907122, 31.598257785373296], [75.46214667426219, 31.601742214626768], [75.46250000000003, 31.608333333333366], [75.46471048990888, 31.608900621202288], [75.46862284342451, 31.611932712131107], [75.47304382324222, 31.613067287868954], [75.48112284342452, 31.62026604546444], [75.48971048990889, 31.621400621202287], [75.49362284342452, 31.62443271213111], [75.49960394965281, 31.625967746310796], [75.50359937879777, 31.63112284342451], [75.50506218804257, 31.63682284884986], [75.52278951009119, 31.653599378797775], [75.52831590440542, 31.655017598470085], [75.53008626302086, 31.661917114257847], [75.53957451714413, 31.670371500651072], [75.5446960449219, 31.666402011447516], [75.54675292968753, 31.674417114257846], [75.55612284342452, 31.68276604546444], [75.56164923773875, 31.68418426513675], [75.56335076226132, 31.690815734863314], [75.5666666666667, 31.6916666666667], [75.56732245551218, 31.699040222168], [75.57278951009118, 31.703599378797776], [75.5772104899089, 31.704733954535623], [75.58112284342451, 31.707766045464442], [75.58683878580733, 31.70923292371965], [75.58806728786895, 31.72304382324222], [75.59109937879778, 31.726956176757845], [75.59263441297746, 31.732937452528244], [75.59778951009118, 31.736932712131107], [75.60221048990888, 31.738067287868958], [75.60612284342452, 31.741099378797777], [75.62721048990889, 31.742233954535624], [75.63528951009118, 31.74943271213111], [75.64387715657556, 31.750567287868957], [75.65612284342451, 31.76193271213111], [75.66471048990888, 31.763067287868957], [75.66862284342452, 31.766099378797776], [75.67721048990889, 31.767233954535623], [75.68528951009118, 31.77443271213111], [75.68971048990889, 31.775567287868956], [75.69362284342452, 31.778599378797775], [75.69804382324222, 31.779733954535622], [75.70195617675785, 31.78276604546444], [75.70833333333337, 31.783333333333367], [75.74583333333337, 31.783333333333367], [75.7607577853733, 31.783686659071215], [75.76840888129344, 31.791313340928852], [75.7732577853733, 31.792019992404548], [75.77674221462678, 31.79548000759552], [75.78159111870663, 31.796186659071214], [75.78714192708337, 31.801709832085535], [75.78750000000004, 31.8041666666667], [75.79583333333338, 31.8041666666667], [75.80637715657556, 31.804733954535624], [75.81028951009118, 31.807766045464444], [75.81471048990889, 31.80890062120229], [75.83112284342451, 31.82443271213111], [75.83691711425784, 31.825919765896302], [75.84526604546444, 31.83528951009118], [75.84668409559465, 31.840815734863316], [75.85000000000004, 31.8416666666667], [75.8607577853733, 31.84201999240455], [75.86424221462677, 31.84548000759552], [75.87500000000004, 31.845833333333367], [75.89075317382816, 31.845225863986578], [75.89166666666671, 31.8416666666667], [75.90242445203997, 31.841313340928853], [75.90590888129344, 31.837853325737882], [75.9107577853733, 31.837146674262186], [75.91424221462677, 31.833686659071216], [75.91909111870663, 31.83298000759552], [75.92257554796011, 31.82951999240455], [75.92500000000004, 31.8291666666667], [75.93256191677521, 31.828395250108542], [75.93333333333337, 31.82083333333337], [75.93579033745664, 31.8204752604167], [75.94131334092886, 31.814924452039964], [75.94201999240455, 31.810075547960103], [75.9496466742622, 31.802424452039965], [75.9503580729167, 31.79754316541887], [75.95590888129344, 31.792019992404548], [75.96078830295143, 31.791308932834234], [75.97048000759553, 31.78159111870663], [75.97119106716583, 31.776711527506542], [75.98090888129344, 31.767019992404546], [75.98333333333335, 31.7666666666667], [75.98298000759551, 31.755908881293436], [75.97535332573787, 31.748257785373298], [75.97500000000004, 31.7416666666667], [75.9783157348633, 31.740815734863315], [75.9791666666667, 31.737500000000033], [75.97951999240453, 31.730908881293434], [75.99131334092884, 31.71909111870663], [75.99201999240454, 31.710075547960102], [75.9954800075955, 31.70659111870663], [75.9961866590712, 31.70174221462677], [76.0079800075955, 31.689924452039964], [76.0086866590712, 31.685075547960103], [76.01214667426217, 31.681591118706628], [76.01250000000002, 31.6791666666667], [76.01250000000005, 31.658333333333367], [76.01627078586156, 31.657365587022603], [76.02026604546444, 31.652210489908885], [76.02140062120228, 31.64778951009118], [76.0244327121311, 31.643877156575552], [76.02566121419272, 31.630066257052984], [76.03137715657554, 31.628599378797773], [76.0561228434245, 31.60473395453562], [76.06187642415367, 31.603257412380675], [76.06250000000003, 31.591666666666697], [76.06316121419273, 31.58423292371965], [76.07109798855254, 31.582196214464005], [76.06723395453561, 31.577210489908886], [76.0666666666667, 31.57500000000003], [76.06701999240454, 31.5725755479601], [76.07464667426217, 31.56492445203996], [76.07500000000005, 31.558333333333366], [76.0791666666667, 31.558333333333366], [76.07916666666671, 31.5541666666667], [76.08162350124785, 31.55380859375003], [76.08714667426217, 31.548257785373295], [76.08785332573787, 31.543408881293434], [76.09964667426217, 31.53159111870663], [76.10000000000004, 31.529166666666697], [76.10350545247398, 31.528267076280414], [76.10473395453562, 31.514456176757843], [76.11609937879777, 31.502210489908883], [76.1166666666667, 31.500000000000032], [76.11998240152997, 31.499149068196644], [76.12083333333335, 31.495833333333366], [76.1211866590712, 31.493408881293433], [76.12535332573788, 31.489212883843347], [76.12464667426218, 31.4850755479601], [76.1211866590712, 31.48159111870663], [76.12083333333337, 31.479166666666696], [76.12304382324221, 31.478599378797774], [76.12695617675783, 31.475567287868955], [76.13293745252824, 31.474032253689266], [76.1369327121311, 31.46887715657555], [76.13806728786895, 31.460289510091176], [76.14109937879776, 31.456377156575552], [76.14232143825957, 31.442639668782583], [76.15195617675784, 31.433900621202287], [76.15637715657554, 31.43276604546444], [76.16028951009118, 31.42973395453562], [76.16604309082034, 31.428257412380674], [76.1666666666667, 31.416666666666696], [76.16998240152998, 31.415815734863312], [76.17168426513675, 31.409184265136748], [76.17500000000003, 31.408333333333363], [76.17500000000004, 31.404166666666697], [76.1783157348633, 31.403315734863313], [76.1797339545356, 31.397789510091176], [76.18276604546443, 31.393877156575552], [76.18404184977216, 31.384220716688397], [76.1908157348633, 31.382482401529977], [76.19223395453561, 31.376956176757844], [76.19526604546444, 31.373043823242217], [76.19583333333335, 31.366666666666696], [76.19498240152997, 31.363350931803414], [76.18835093180341, 31.361649068196645], [76.18750000000003, 31.358333333333363], [76.18811764187285, 31.356173197428415], [76.19104902479386, 31.352160135904978], [76.19228430853951, 31.343673197428416], [76.19521569146053, 31.33966013590498], [76.19645097520619, 31.32700653076175], [76.1993823581272, 31.322993469238313], [76.20061764187285, 31.31033986409508], [76.20354902479386, 31.306326802571643], [76.204973687066, 31.29653896755645], [76.2229934692383, 31.295215691460534], [76.22700653076174, 31.292284308539525], [76.24382680257163, 31.291049024793868], [76.24783986409507, 31.28811764187286], [76.2580022176107, 31.2866385565864], [76.2618823581272, 31.281326802571645], [76.26250000000002, 31.279166666666697], [76.26581573486331, 31.27831573486331], [76.26723395453561, 31.272789510091176], [76.27026604546444, 31.26887715657555], [76.27083333333336, 31.266666666666694], [76.27325778537329, 31.26631334092885], [76.29340888129343, 31.24618665907121], [76.2982577853733, 31.245480007595514], [76.30245378282338, 31.241313340928848], [76.30659111870662, 31.242019992404543], [76.3100755479601, 31.245480007595514], [76.31666666666669, 31.245833333333362], [76.31723395453561, 31.23945617675784], [76.32026604546444, 31.235543823242217], [76.32175309922962, 31.229749552408883], [76.33112284342451, 31.221400621202285], [76.33683878580732, 31.219933742947077], [76.33750000000002, 31.212500000000027], [76.3416666666667, 31.212500000000027], [76.34263441297746, 31.208729214138483], [76.34778951009118, 31.20473395453562], [76.3533157348633, 31.20331573486331], [76.35416666666669, 31.200000000000028], [76.35174221462677, 31.19964667426218], [76.34825778537329, 31.19618665907121], [76.34340888129343, 31.195480007595513], [76.33992445203995, 31.192019992404543], [76.33750000000002, 31.191666666666695], [76.3369327121311, 31.18945617675784], [76.33390062120228, 31.185543823242217], [76.33276604546444, 31.181122843424507], [76.32973395453561, 31.177210489908884], [76.32859937879776, 31.168622843424508], [76.32140062120229, 31.160543823242215], [76.32026604546444, 31.15612284342451], [76.31609937879777, 31.150746663411486], [76.31723395453561, 31.13945617675784], [76.32036454942494, 31.135416666666693], [76.31723395453561, 31.13137715657555], [76.31596493191192, 31.121772257487006], [76.27721048990888, 31.083900621202286], [76.27168426513674, 31.082482571072077], [76.26998240152997, 31.07585076226131], [76.2666666666667, 31.075000000000028], [76.26450653076174, 31.0743825276693], [76.25632680257164, 31.067284138997422], [76.23830702039933, 31.065961032443603], [76.23670010036895, 31.05492011176218], [76.2245308770074, 31.053549194335965], [76.21882680257164, 31.05771586100263], [76.20833333333336, 31.058333333333362], [76.20487518310549, 31.059220716688394], [76.20345815022789, 31.069945949978326], [76.19778951009117, 31.071400621202283], [76.19387715657554, 31.074432712131102], [76.18945617675783, 31.07556728786895], [76.18554382324221, 31.07859937879777], [76.18333333333335, 31.079166666666694], [76.18242407904734, 31.075623575846382], [76.17083333333336, 31.075000000000028], [76.15924258761937, 31.075623575846382], [76.15833333333337, 31.079166666666694], [76.15000000000002, 31.079166666666694], [76.11028951009116, 31.07859937879777], [76.10637715657555, 31.07556728786895], [76.10085093180341, 31.074149237738744], [76.09914906819664, 31.067517428927978], [76.09583333333336, 31.066666666666695], [76.09498240152998, 31.06335076226131], [76.09166666666668, 31.06250000000003], [76.09076097276478, 31.05897115071617], [76.07278951009117, 31.057766045464437], [76.06887715657554, 31.054733954535617], [76.06666666666669, 31.054166666666696], [76.05617302788632, 31.054784138997423], [76.05216030544709, 31.05771586100263], [76.04660169813371, 31.05930514865454], [76.04503072102868, 31.07009819878475], [76.03117302788633, 31.07145080566409], [76.02615865071618, 31.075113932291693], [76.02403971354171, 31.082525634765652], [76.01619737413198, 31.083950805664088], [76.01049363878042, 31.079784138997425], [75.99953070746531, 31.078549194335963], [75.99382697211375, 31.082715861002633], [75.98533969455299, 31.083950805664088], [75.97716030544709, 31.091049194335966], [75.96592983669709, 31.092284138997424], [75.95632697211376, 31.083950805664088], [75.95416666666671, 31.08333333333336], [75.93924221462677, 31.08368665907121], [75.9357577853733, 31.08714667426218], [75.90000000000003, 31.087500000000027], [75.89886271158858, 31.08306884765628], [75.89387715657556, 31.086932712131105], [75.89166666666671, 31.087500000000027], [75.89076707628043, 31.083994547526068], [75.87589959038633, 31.082672119140653], [75.87378506130646, 31.074432712131102], [75.86445617675786, 31.07556728786895], [75.86054382324222, 31.07859937879777], [75.84778951009119, 31.07973395453562], [75.84375000000004, 31.08286471896704], [75.8397104899089, 31.07973395453562], [75.83528951009119, 31.07859937879777], [75.8270921495226, 31.071295166015652], [75.82157999674483, 31.07556728786895], [75.81445617675784, 31.074432712131102], [75.81054382324223, 31.071400621202283], [75.78840908474396, 31.070209757487007], [75.78693271213112, 31.06445617675784], [75.78390062120229, 31.060543823242213], [75.78333333333337, 31.058333333333362], [75.78112284342451, 31.058900621202284], [75.7772104899089, 31.061932712131103], [75.76755405002174, 31.06320834689673], [75.76609937879778, 31.06887715657555], [75.76158040364587, 31.074295722113742], [75.75195617675784, 31.07556728786895], [75.74804382324223, 31.07859937879777], [75.74583333333337, 31.079166666666694], [75.74548000759552, 31.076742214626762], [75.74201999240455, 31.07325778537329], [75.7416666666667, 31.07083333333336], [75.74109937879778, 31.068622843424507], [75.73806728786896, 31.064710489908883], [75.736612616645, 31.059041680230063], [75.7259195963542, 31.057629055447077], [75.72140062120229, 31.05221048990888], [75.71994594997834, 31.046541680230064], [75.71028951009119, 31.045266045464437], [75.70637715657556, 31.042233954535618], [75.6967207166884, 31.04095831976999], [75.69583333333337, 31.037500000000026], [75.69340888129344, 31.037853325737874], [75.68992445203996, 31.041313340928845], [75.6666666666667, 31.041666666666693], [75.66552937825524, 31.037235514322944], [75.65907999674482, 31.042233954535618], [75.65612284342451, 31.04109937879777], [75.64387715657556, 31.02973395453562], [75.63945617675785, 31.02859937879777], [75.63554382324222, 31.025567287868952], [75.63112284342452, 31.0244327121311], [75.62574666341149, 31.020266045464435], [75.61028951009118, 31.021400621202282], [75.60637715657556, 31.0244327121311], [75.59362284342451, 31.025567287868952], [75.58958333333337, 31.028698052300374], [75.58407999674483, 31.0244327121311], [75.56028951009118, 31.025567287868952], [75.55491333007816, 31.02973395453562], [75.55017734103735, 31.027916802300375], [75.5464006212023, 31.023043823242215], [75.54526604546444, 31.018622843424506], [75.54223395453562, 31.014710489908882], [75.54109937879778, 30.997789510091174], [75.53806728786896, 30.993877156575547], [75.5369327121311, 30.98528951009117], [75.53390062120229, 30.981377156575547], [75.53333333333337, 30.97083333333336], [75.53333333333337, 30.966666666666693], [75.53424886067712, 30.957690429687528], [75.55213487413198, 30.958976236979193], [75.55619845920143, 30.961857096354194], [75.58963487413197, 30.96314290364586], [75.59551154242625, 30.967309570312526], [75.59796820746531, 30.96602376302086], [75.60384487575958, 30.961857096354194], [75.61463487413198, 30.96314290364586], [75.61869845920143, 30.96602376302086], [75.63546820746531, 30.967309570312526], [75.64134487575959, 30.971476236979193], [75.64495374891497, 30.969587537977457], [75.64583333333337, 30.966666666666693], [75.6482577853733, 30.96701999240454], [75.65245361328128, 30.971186659071208], [75.67742445203997, 30.970480007595512], [75.68090888129343, 30.96701999240454], [75.70416666666671, 30.966666666666693], [75.70538160536027, 30.9619327121311], [75.73137715657556, 30.96306728786895], [75.74072943793406, 30.971400621202285], [75.74387715657555, 30.970266045464435], [75.74925333658858, 30.966099378797768], [75.75221048990889, 30.967233954535615], [75.7575866699219, 30.971400621202285], [75.7647104899089, 30.970266045464435], [75.76862284342451, 30.967233954535615], [75.79387715657556, 30.966099378797768], [75.79778951009118, 30.96306728786895], [75.80637715657556, 30.9619327121311], [75.81028951009118, 30.958900621202282], [75.82083333333337, 30.95833333333336], [75.83992445203997, 30.95868665907121], [75.84340888129344, 30.96214667426218], [75.8482577853733, 30.962853325737875], [75.85174221462677, 30.966313340928846], [75.86909111870663, 30.96701999240454], [75.87674221462677, 30.97464667426218], [75.91250000000004, 30.975000000000026], [75.9166666666667, 30.975000000000026], [75.91909111870663, 30.975353325737874], [75.92328694661462, 30.97951999240454], [75.94409111870664, 30.978813340928845], [75.94757554796011, 30.975353325737874], [75.9607577853733, 30.97464667426218], [75.96424221462678, 30.971186659071208], [75.96909111870663, 30.970480007595512], [75.9725755479601, 30.96701999240454], [75.9857577853733, 30.966313340928846], [75.98924221462677, 30.962853325737875], [75.9982577853733, 30.96214667426218], [76.00174221462677, 30.95868665907121], [76.01909111870664, 30.957980007595513], [76.0225755479601, 30.954519992404542], [76.02742445203997, 30.953813340928846], [76.03090888129344, 30.950353325737872], [76.03333333333336, 30.950000000000028], [76.03575778537329, 30.950353325737872], [76.04130859375002, 30.955876329210096], [76.04166666666669, 30.95833333333336], [76.05659111870662, 30.95868665907121], [76.0600755479601, 30.96214667426218], [76.06909111870662, 30.962853325737875], [76.07291666666669, 30.966652086046032], [76.07745378282337, 30.96214667426218], [76.09825778537329, 30.962853325737875], [76.10174221462675, 30.966313340928846], [76.11492445203996, 30.96701999240454], [76.11840888129342, 30.970480007595512], [76.13159111870662, 30.971186659071208], [76.1350755479601, 30.97464667426218], [76.14583333333336, 30.975000000000026], [76.14825778537329, 30.97464667426218], [76.15174221462676, 30.971186659071208], [76.16075778537329, 30.970480007595512], [76.16424221462675, 30.96701999240454], [76.18333333333335, 30.966666666666693], [76.21492445203995, 30.96701999240454], [76.21912044949003, 30.971186659071208], [76.25659111870662, 30.970480007595512], [76.2600755479601, 30.96701999240454], [76.27742445203995, 30.966313340928846], [76.28090888129343, 30.962853325737875], [76.30000000000003, 30.962500000000027], [76.3033157348633, 30.96164923773874], [76.30416666666669, 30.95833333333336], [76.30659111870662, 30.95868665907121], [76.3107871161567, 30.962853325737875], [76.31492445203996, 30.96214667426218], [76.31840888129342, 30.95868665907121], [76.33159111870663, 30.957980007595513], [76.33578711615671, 30.953813340928846], [76.33992445203995, 30.954519992404542], [76.34412044949005, 30.95868665907121], [76.35242445203995, 30.957980007595513], [76.35590888129343, 30.954519992404542], [76.39583333333336, 30.954166666666694], [76.41075778537329, 30.953813340928846], [76.41424221462677, 30.950353325737872], [76.41909111870662, 30.94964667426218], [76.42674221462676, 30.94201999240454], [76.43159111870662, 30.941313340928847], [76.4357871161567, 30.93714667426218], [76.44825778537329, 30.937853325737873], [76.45208333333336, 30.941652086046034], [76.45662044949005, 30.93714667426218], [76.47325778537329, 30.937853325737873], [76.47674221462677, 30.941313340928847], [76.47916666666669, 30.94166666666669], [76.48038160536026, 30.946400621202283], [76.48971048990887, 30.945266045464436], [76.4950866699219, 30.94109937879777], [76.49804382324221, 30.942233954535617], [76.5061228434245, 30.949432712131102], [76.51250000000003, 30.950000000000028], [76.51492445203996, 30.950353325737872], [76.53090888129343, 30.966313340928846], [76.5482577853733, 30.96701999240454], [76.55174221462676, 30.970480007595512], [76.57083333333335, 30.97083333333336], [76.58159111870663, 30.971186659071208], [76.5850755479601, 30.97464667426218], [76.59409111870663, 30.975353325737874], [76.59757554796009, 30.978813340928845], [76.61909111870662, 30.97951999240454], [76.6225755479601, 30.98298000759551], [76.63159111870662, 30.983686659071207], [76.6350755479601, 30.987146674262178], [76.6416666666667, 30.987500000000026], [76.64804382324222, 30.986932712131104], [76.65195617675784, 30.983900621202284], [76.65637715657554, 30.982766045464437], [76.66445617675784, 30.97556728786895], [76.66998240152998, 30.974149237738743], [76.67204827202694, 30.966099378797768], [76.69804382324222, 30.967233954535615], [76.70195617675785, 30.970266045464435], [76.7041666666667, 30.97083333333336], [76.70473395453561, 30.968622843424505], [76.70776604546444, 30.96471048990888], [76.70954827202694, 30.957766045464435], [76.71887715657554, 30.958900621202282], [76.7235042995877, 30.962486775716172], [76.72859937879777, 30.95637715657555], [76.73001759847008, 30.95085076226131], [76.73690151638458, 30.949084472656278], [76.73750000000003, 30.929166666666692], [76.74387715657555, 30.92859937879777], [76.74778951009117, 30.92556728786895], [76.75744594997833, 30.924291653103325], [76.75833333333335, 30.92083333333336], [76.76079016791452, 30.920475260416694], [76.76631334092885, 30.914924452039955], [76.76701999240454, 30.910075547960094], [76.77048000759551, 30.906591118706622], [76.77083333333336, 30.904166666666693], [76.77325778537329, 30.903813340928846], [76.77674221462676, 30.900353325737875], [76.78575778537329, 30.89964667426218], [76.78924221462677, 30.896186659071205], [76.79583333333336, 30.89583333333336], [76.79618665907121, 30.89340888129343], [76.79964667426218, 30.889924452039956], [76.80000000000003, 30.87916666666669], [76.79583333333336, 30.87916666666669], [76.79526604546444, 30.876956176757837], [76.79223395453562, 30.873043823242213], [76.79109937879777, 30.864456176757837], [76.78806728786896, 30.860543823242214], [76.78658023410377, 30.85474955240888], [76.77721048990888, 30.84640062120228], [76.77168426513674, 30.844982571072073], [76.77026604546444, 30.83945617675784], [76.75890062120229, 30.82721048990888], [76.7574135674371, 30.821416219075545], [76.74804382324221, 30.81306728786895], [76.74166666666669, 30.812500000000025], [76.72674221462677, 30.812146674262177], [76.72325778537329, 30.808686659071206], [76.7100755479601, 30.80798000759551], [76.70659111870663, 30.80451999240454], [76.69340888129344, 30.803813340928844], [76.68992445203996, 30.800353325737873], [76.6850755479601, 30.799646674262178], [76.68125000000003, 30.79584791395402], [76.67742445203996, 30.799646674262178], [76.65000000000003, 30.800000000000026], [76.6475755479601, 30.800353325737873], [76.64409111870663, 30.803813340928844], [76.63333333333335, 30.804166666666692], [76.63248240152997, 30.807482571072075], [76.62695617675784, 30.808900621202284], [76.62304382324221, 30.811932712131103], [76.60000000000002, 30.812500000000025], [76.5994327121311, 30.81471048990888], [76.5910837809245, 30.82408040364586], [76.58528951009117, 30.82556728786895], [76.57304382324222, 30.8369327121311], [76.5686228434245, 30.83806728786895], [76.56346774631079, 30.842062717013913], [76.56168908013241, 30.8489932590061], [76.5575866699219, 30.850567287868948], [76.55208333333336, 30.84630194769968], [76.54804382324221, 30.8494327121311], [76.5436228434245, 30.850567287868948], [76.53971048990888, 30.853599378797767], [76.52842000325523, 30.854733954535615], [76.52304382324222, 30.850567287868948], [76.5061228434245, 30.8494327121311], [76.50221048990888, 30.84640062120228], [76.49906277126739, 30.845266045464435], [76.4884197658963, 30.85474955240888], [76.48693271213111, 30.860543823242214], [76.48390062120228, 30.864456176757837], [76.48267211914064, 30.87826707628041], [76.47916666666669, 30.87916666666669], [76.47827928331166, 30.875708346896726], [76.4686228434245, 30.874432712131103], [76.46054382324222, 30.867233954535617], [76.42591467963327, 30.866064114040825], [76.42500000000003, 30.862500000000026], [76.42535332573787, 30.860075547960093], [76.43714667426218, 30.84825778537329], [76.43785332573788, 30.843408881293428], [76.44131334092884, 30.839924452039956], [76.44166666666669, 30.81666666666669], [76.44166666666669, 30.812500000000025], [76.43750000000003, 30.812500000000025], [76.43333333333337, 30.812500000000025], [76.43248240152997, 30.809184095594645], [76.42916666666669, 30.80833333333336], [76.42500000000003, 30.80833333333336], [76.4186731974284, 30.80895080566409], [76.41466013590497, 30.811882527669297], [76.41203087700741, 30.813117472330756], [76.40632680257164, 30.80895080566409], [76.40200653076174, 30.80771586100263], [76.39382680257164, 30.800617472330753], [76.38950653076175, 30.799382527669295], [76.38027309841583, 30.791369967990477], [76.3782402886285, 30.784259711371554], [76.37283986409508, 30.78271586100263], [76.36466013590497, 30.775617472330755], [76.36033986409508, 30.774382527669296], [76.34382680257164, 30.75895080566409], [76.33950653076174, 30.75771586100263], [76.3354934692383, 30.754784138997422], [76.33117319742841, 30.753549194335964], [76.32708333333336, 30.750561523437526], [76.32299346923831, 30.753549194335964], [76.32036421034074, 30.754784138997422], [76.31336144341365, 30.74966905381947], [76.31170586480037, 30.738294135199677], [76.3009716457791, 30.73673163519968], [76.29938235812719, 30.73117302788631], [76.2957194010417, 30.726158650716172], [76.28842637803822, 30.72407362196183], [76.28652835422095, 30.717435031467037], [76.27700653076174, 30.716049194335962], [76.2729934692383, 30.713117472330755], [76.26738382975263, 30.711513604058183], [76.2666666666667, 30.70416666666669], [76.26424221462676, 30.703813340928843], [76.26075778537329, 30.700353325737872], [76.25590888129342, 30.699646674262176], [76.25208333333336, 30.69584791395402], [76.24825778537328, 30.699646674262176], [76.24340888129343, 30.700353325737872], [76.23992445203996, 30.703813340928843], [76.22257554796009, 30.70451999240454], [76.21909111870661, 30.70798000759551], [76.2166666666667, 30.708333333333357], [76.21445617675784, 30.707766045464435], [76.20903761121964, 30.703247070312525], [76.20762481689455, 30.692554050021727], [76.20195617675783, 30.691099378797766], [76.19804382324222, 30.688067287868947], [76.18945617675783, 30.6869327121311], [76.18430107964411, 30.682937282986135], [76.18248240152997, 30.67585076226131], [76.17585093180341, 30.67414923773874], [76.17414906819664, 30.667517428927976], [76.17083333333336, 30.666666666666693], [76.16666666666669, 30.666666666666693], [76.15923292371964, 30.6673278808594], [76.15748240152998, 30.67414923773874], [76.15195617675784, 30.675567287868947], [76.13840348985462, 30.688145616319467], [76.1369327121311, 30.693877156575546], [76.13237355550133, 30.69934421115454], [76.1186228434245, 30.70056728786895], [76.11471048990887, 30.70359937879777], [76.1061228434245, 30.704733954535616], [76.09804382324221, 30.7119327121311], [76.08528951009117, 30.71306728786895], [76.07591976589629, 30.721416219075547], [76.07500000000002, 30.725000000000023], [76.06250000000003, 30.725000000000023], [76.06193271213111, 30.727210489908877], [76.05056728786896, 30.739456176757837], [76.049112616645, 30.745124986436657], [76.03945617675785, 30.74640062120228], [76.03137715657556, 30.753599378797766], [76.01666666666671, 30.75416666666669], [76.01719631618927, 30.747751871744818], [76.02447035047747, 30.739748128255233], [76.02552964952261, 30.726918538411482], [76.02969631618927, 30.72177395290801], [76.02825453016497, 30.71743333604603], [76.02275187174483, 30.71613701714412], [76.00224812825525, 30.696362982855927], [75.9894185384115, 30.69530368381079], [75.98541666666671, 30.69206271701391], [75.98010728624136, 30.696362982855927], [75.96858520507816, 30.69530368381079], [75.95641479492191, 30.683862982855928], [75.9291666666667, 30.68333333333336], [75.92881334092885, 30.685757785373287], [75.91911892361115, 30.695478651258703], [75.90590888129344, 30.696186659071206], [75.90242445203997, 30.699646674262176], [75.8975755479601, 30.700353325737872], [75.89409111870664, 30.703813340928843], [75.88162027994795, 30.70451999240454], [75.87742445203997, 30.700353325737872], [75.87500000000004, 30.700000000000024], [75.86756625705299, 30.70066121419273], [75.86581590440542, 30.707482571072074], [75.86028951009118, 30.708900621202282], [75.85487094455299, 30.713419596354193], [75.85359937879778, 30.72304382324221], [75.84960394965282, 30.72819892035593], [75.84583333333337, 30.729166666666693], [75.84340888129344, 30.729519992404537], [75.83992445203997, 30.73298000759551], [75.83750000000003, 30.73333333333336], [75.83657362196185, 30.73657362196183], [75.83117302788632, 30.738117472330753], [75.8219397650825, 30.746130032009575], [75.81986151801219, 30.753398301866344], [75.810339694553, 30.754784138997422], [75.80532531738285, 30.758447265625026], [75.80354919433597, 30.764660305447073], [75.79966905381949, 30.76997172037763], [75.78723246256514, 30.771781751844642], [75.79104919433597, 30.777006361219645], [75.79228413899743, 30.779635959201414], [75.78811747233077, 30.785339694552977], [75.7868825276693, 30.789660305447075], [75.7832194010417, 30.794674682617213], [75.77700636121965, 30.796450805664087], [75.7708672417535, 30.8013610839844], [75.7743825276693, 30.80617302788631], [75.77561747233077, 30.814660305447074], [75.7786051432292, 30.818750000000026], [75.77488606770837, 30.823841349283878], [75.77083333333337, 30.825000000000024], [75.76445617675785, 30.824432712131102], [75.76054382324223, 30.821400621202283], [75.75612284342452, 30.820266045464436], [75.75221048990889, 30.817233954535617], [75.74508666992192, 30.81609937879777], [75.73971048990889, 30.820266045464436], [75.73112284342452, 30.821400621202283], [75.72721048990888, 30.824432712131102], [75.71862284342451, 30.82556728786895], [75.71458333333337, 30.82869805230037], [75.71054382324222, 30.82556728786895], [75.70612284342451, 30.824432712131102], [75.70113728841149, 30.820568847656276], [75.69943271213111, 30.82721048990888], [75.69543728298615, 30.832365587022593], [75.68945617675784, 30.833900621202282], [75.68554382324223, 30.8369327121311], [75.68001742892798, 30.83835076226131], [75.67835557725698, 30.844826592339434], [75.67425333658858, 30.84640062120228], [75.66887715657556, 30.842233954535615], [75.66250000000004, 30.841666666666693], [75.65590888129344, 30.841313340928846], [75.6482577853733, 30.833686659071205], [75.64583333333337, 30.833333333333357], [75.64340888129344, 30.833686659071205], [75.63992445203996, 30.83714667426218], [75.63333333333337, 30.837500000000027], [75.62695617675784, 30.8369327121311], [75.61887715657555, 30.829733954535616], [75.61592000325524, 30.82859937879777], [75.61054382324222, 30.832766045464435], [75.60501742892798, 30.834184095594644], [75.60359937879778, 30.83971048990888], [75.59640062120229, 30.84778951009117], [75.59492424858945, 30.853543090820338], [75.57174241807729, 30.854790242513047], [75.57026604546445, 30.860543823242214], [75.56577419704864, 30.865929836697074], [75.5575866699219, 30.867233954535617], [75.55221048990889, 30.86306728786895], [75.54778951009118, 30.8619327121311], [75.54387715657556, 30.85890062120228], [75.53675333658857, 30.857766045464437], [75.53013441297746, 30.86289605034725], [75.5282870822483, 30.870094468858532], [75.52008666992191, 30.871400621202284], [75.5147104899089, 30.867233954535617], [75.51175333658857, 30.86609937879777], [75.50637715657555, 30.870266045464437], [75.50121493869361, 30.871400621202284], [75.49914923773875, 30.863350762261312], [75.4923278808594, 30.86160040961374], [75.49109937879777, 30.84778951009117], [75.48732265896271, 30.842916531033012], [75.48258666992191, 30.841099378797768], [75.47721048990888, 30.845266045464435], [75.46862284342451, 30.84640062120228], [75.46471048990888, 30.8494327121311], [75.45758666992191, 30.850567287868948], [75.4522104899089, 30.84640062120228], [75.45000000000003, 30.84583333333336], [75.42083333333336, 30.84583333333336], [75.41250000000004, 30.84583333333336], [75.41028951009118, 30.845266045464435]]]}, "properties": {"kind": "catchment", "name": "Harike local", "outlet": 4080730060, "area_km2": 9894.6, "n_subbasins": 15, "role": "local", "source": "HydroBASINS v1c Asia level 8 (Lehner & Grill 2013), hybas_as_lev08_v1c.zip, sha256 878c56bb4253a7c8...; upstream set of the sub-basin containing the dam"}}, {"type": "Feature", "geometry": {"type": "Point", "coordinates": [75.25, 30.75]}, "properties": {"kind": "grid_point", "weight_km2": 8.261, "weight_imd_km2": 8.261}}, {"type": "Feature", "geometry": {"type": "Point", "coordinates": [75.5, 30.75]}, "properties": {"kind": "grid_point", "weight_km2": 61.423, "weight_imd_km2": 61.423}}, {"type": "Feature", "geometry": {"type": "Point", "coordinates": [75.75, 30.75]}, "properties": {"kind": "grid_point", "weight_km2": 208.482, "weight_imd_km2": 208.482}}, {"type": "Feature", "geometry": {"type": "Point", "coordinates": [76.0, 30.75]}, "properties": {"kind": "grid_point", "weight_km2": 445.161, "weight_imd_km2": 445.161}}, {"type": "Feature", "geometry": {"type": "Point", "coordinates": [76.25, 30.75]}, "properties": {"kind": "grid_point", "weight_km2": 424.793, "weight_imd_km2": 424.793}}, {"type": "Feature", "geometry": {"type": "Point", "coordinates": [76.5, 30.75]}, "properties": {"kind": "grid_point", "weight_km2": 103.712, "weight_imd_km2": 103.712}}, {"type": "Feature", "geometry": {"type": "Point", "coordinates": [76.75, 30.75]}, "properties": {"kind": "grid_point", "weight_km2": 108.579, "weight_imd_km2": 108.579}}, {"type": "Feature", "geometry": {"type": "Point", "coordinates": [75.0, 31.0]}, "properties": {"kind": "grid_point", "weight_km2": 130.452, "weight_imd_km2": 130.452}}, {"type": "Feature", "geometry": {"type": "Point", "coordinates": [75.25, 31.0]}, "properties": {"kind": "grid_point", "weight_km2": 494.291, "weight_imd_km2": 494.291}}, {"type": "Feature", "geometry": {"type": "Point", "coordinates": [75.5, 31.0]}, "properties": {"kind": "grid_point", "weight_km2": 604.663, "weight_imd_km2": 604.663}}, {"type": "Feature", "geometry": {"type": "Point", "coordinates": [75.75, 31.0]}, "properties": {"kind": "grid_point", "weight_km2": 416.765, "weight_imd_km2": 416.765}}, {"type": "Feature", "geometry": {"type": "Point", "coordinates": [76.0, 31.0]}, "properties": {"kind": "grid_point", "weight_km2": 369.505, "weight_imd_km2": 369.505}}, {"type": "Feature", "geometry": {"type": "Point", "coordinates": [76.25, 31.0]}, "properties": {"kind": "grid_point", "weight_km2": 335.222, "weight_imd_km2": 335.222}}, {"type": "Feature", "geometry": {"type": "Point", "coordinates": [76.5, 31.0]}, "properties": {"kind": "grid_point", "weight_km2": 216.633, "weight_imd_km2": 216.633}}, {"type": "Feature", "geometry": {"type": "Point", "coordinates": [76.75, 31.0]}, "properties": {"kind": "grid_point", "weight_km2": 137.739, "weight_imd_km2": 137.739}}, {"type": "Feature", "geometry": {"type": "Point", "coordinates": [75.0, 31.25]}, "properties": {"kind": "grid_point", "weight_km2": 128.374, "weight_imd_km2": 128.374}}, {"type": "Feature", "geometry": {"type": "Point", "coordinates": [75.25, 31.25]}, "properties": {"kind": "grid_point", "weight_km2": 560.208, "weight_imd_km2": 560.208}}, {"type": "Feature", "geometry": {"type": "Point", "coordinates": [75.5, 31.25]}, "properties": {"kind": "grid_point", "weight_km2": 660.074, "weight_imd_km2": 660.074}}, {"type": "Feature", "geometry": {"type": "Point", "coordinates": [75.75, 31.25]}, "properties": {"kind": "grid_point", "weight_km2": 660.074, "weight_imd_km2": 660.074}}, {"type": "Feature", "geometry": {"type": "Point", "coordinates": [76.0, 31.25]}, "properties": {"kind": "grid_point", "weight_km2": 660.074, "weight_imd_km2": 660.074}}, {"type": "Feature", "geometry": {"type": "Point", "coordinates": [76.25, 31.25]}, "properties": {"kind": "grid_point", "weight_km2": 393.983, "weight_imd_km2": 393.983}}, {"type": "Feature", "geometry": {"type": "Point", "coordinates": [75.25, 31.5]}, "properties": {"kind": "grid_point", "weight_km2": 103.568, "weight_imd_km2": 103.568}}, {"type": "Feature", "geometry": {"type": "Point", "coordinates": [75.5, 31.5]}, "properties": {"kind": "grid_point", "weight_km2": 597.122, "weight_imd_km2": 597.122}}, {"type": "Feature", "geometry": {"type": "Point", "coordinates": [75.75, 31.5]}, "properties": {"kind": "grid_point", "weight_km2": 658.354, "weight_imd_km2": 658.354}}, {"type": "Feature", "geometry": {"type": "Point", "coordinates": [76.0, 31.5]}, "properties": {"kind": "grid_point", "weight_km2": 595.999, "weight_imd_km2": 595.999}}, {"type": "Feature", "geometry": {"type": "Point", "coordinates": [76.25, 31.5]}, "properties": {"kind": "grid_point", "weight_km2": 38.419, "weight_imd_km2": 38.419}}, {"type": "Feature", "geometry": {"type": "Point", "coordinates": [75.5, 31.75]}, "properties": {"kind": "grid_point", "weight_km2": 87.937, "weight_imd_km2": 87.937}}, {"type": "Feature", "geometry": {"type": "Point", "coordinates": [75.75, 31.75]}, "properties": {"kind": "grid_point", "weight_km2": 439.346, "weight_imd_km2": 439.346}}, {"type": "Feature", "geometry": {"type": "Point", "coordinates": [76.0, 31.75]}, "properties": {"kind": "grid_point", "weight_km2": 245.357, "weight_imd_km2": 245.357}}]}