{"type": "FeatureCollection", "features": [{"type": "Feature", "geometry": {"type": "Polygon", "coordinates": [[[77.04340888129343, 31.478813340928852], [77.03992445203995, 31.475353325737878], [77.03750000000004, 31.47500000000003], [77.0369327121311, 31.472789510091175], [77.03390062120229, 31.46887715657555], [77.03211839463978, 31.46193271213111], [77.01862284342451, 31.463067287868952], [77.01471048990888, 31.46609937879777], [77.01028951009117, 31.467233954535622], [77.00221048990889, 31.474432712131108], [76.99778951009118, 31.475567287868955], [76.99387715657555, 31.478599378797774], [76.98750000000003, 31.479166666666696], [76.98660040961374, 31.47566121419274], [76.9791666666667, 31.47500000000003], [76.97500000000002, 31.47500000000003], [76.97464192708337, 31.472543165418866], [76.96909111870663, 31.467019992404545], [76.95590888129344, 31.46631334092885], [76.95242445203996, 31.46285332573788], [76.9475755479601, 31.462146674262183], [76.94409111870662, 31.458686659071212], [76.93924221462676, 31.457980007595516], [76.9357577853733, 31.454519992404546], [76.90833333333336, 31.454166666666698], [76.9090013292101, 31.460443115234405], [76.91292724609377, 31.466148206922774], [76.91174011230471, 31.496094258626332], [76.90627644856774, 31.492334662543435], [76.897890218099, 31.49099867078996], [76.89377644856773, 31.48816799587677], [76.8914981418186, 31.486832004123293], [76.88420037163631, 31.491854010687966], [76.88266533745663, 31.50627644856774], [76.87983466254343, 31.51039021809899], [76.87809210883249, 31.515894232855935], [76.86455688476565, 31.517334662543433], [76.8604431152344, 31.52016533745663], [76.85816480848527, 31.5215013292101], [76.85210978190108, 31.517334662543433], [76.81666666666669, 31.516666666666698], [76.8158157348633, 31.51998240152998], [76.80895012749569, 31.521744283040395], [76.80776604546443, 31.546770562066005], [76.81609937879777, 31.55612284342451], [76.81723395453562, 31.564710489908887], [76.82026604546444, 31.56862284342451], [76.82140062120229, 31.57304382324222], [76.8244327121311, 31.576956176757843], [76.82556728786895, 31.58824666341149], [76.82140062120229, 31.593622843424512], [76.82012481689456, 31.603279283311664], [76.81666666666669, 31.6041666666667], [76.81631334092884, 31.61492445203996], [76.81285332573788, 31.618408881293433], [76.81250000000003, 31.6291666666667], [76.80000000000003, 31.6291666666667], [76.79851091172964, 31.624344550238746], [76.79371100531687, 31.625655449761318], [76.78962232801652, 31.628511216905412], [76.76773189968536, 31.629883490668433], [76.76601121690541, 31.63545566134986], [76.76184455023875, 31.641420830620692], [76.76315544976131, 31.647955661349858], [76.76601121690541, 31.652044338650207], [76.76732211642798, 31.65628899468319], [76.7702051798503, 31.6604166666667], [76.76732211642798, 31.664544338650206], [76.76601121690541, 31.689622328016526], [76.75482211642797, 31.702044338650207], [76.7526775783963, 31.70898878309465], [76.74371100531687, 31.70767788357208], [76.73545566134986, 31.700655449761317], [76.7270443386502, 31.69934455023875], [76.72295566134986, 31.69648878309465], [76.71871100531686, 31.695177883572082], [76.71274583604604, 31.691011216905416], [76.6924238416884, 31.692410617404548], [76.69090711805558, 31.711787075466614], [76.67500000000003, 31.712500000000034], [76.67083333333336, 31.712500000000034], [76.67048000759551, 31.705908881293436], [76.66701999240455, 31.702424452039963], [76.66631334092885, 31.697575547960103], [76.65451999240454, 31.685757785373298], [76.65381334092885, 31.680908881293433], [76.6461866590712, 31.673257785373295], [76.64548000759551, 31.6600755479601], [76.62951999240454, 31.64409111870663], [76.62881334092884, 31.6225755479601], [76.62118665907121, 31.61492445203996], [76.62083333333337, 31.60000000000003], [76.6100755479601, 31.599646674262186], [76.60659111870662, 31.59618665907121], [76.59340888129343, 31.59548000759552], [76.58785807291669, 31.589956834581194], [76.58714667426219, 31.585075547960102], [76.58162044949005, 31.57952168782555], [76.56911688910593, 31.57881334092885], [76.55625000000002, 31.591653781467045], [76.54409111870662, 31.579519992404546], [76.53507554796009, 31.57881334092885], [76.53159111870663, 31.57535332573788], [76.52500000000002, 31.57500000000003], [76.52083333333336, 31.57500000000003], [76.52048000759551, 31.568408881293433], [76.51668124728735, 31.564583333333363], [76.52048000759551, 31.560757785373294], [76.52083333333336, 31.558333333333366], [76.51424221462676, 31.557980007595518], [76.51041666666669, 31.554181247287357], [76.50659111870662, 31.557980007595518], [76.50416666666669, 31.558333333333366], [76.48528951009118, 31.55776604546444], [76.48013441297746, 31.553770785861577], [76.47859937879777, 31.547789510091178], [76.46723395453562, 31.535543823242218], [76.46577928331166, 31.5298751831055], [76.45612284342451, 31.528599378797775], [76.45221048990888, 31.525567287868956], [76.44583333333335, 31.52500000000003], [76.44517211914065, 31.53243374294708], [76.43945617675784, 31.53390062120229], [76.43403761121964, 31.538419426812098], [76.43276604546443, 31.548043823242217], [76.42140062120228, 31.560289510091177], [76.42026604546443, 31.564710489908887], [76.41723395453562, 31.56862284342451], [76.41609937879777, 31.577210489908886], [76.41306728786896, 31.58112284342451], [76.41164906819664, 31.586649068196646], [76.40487518310549, 31.588387383355066], [76.40359937879776, 31.598043823242218], [76.40056728786895, 31.601956176757845], [76.3994327121311, 31.606377156575554], [76.34640062120228, 31.66028951009118], [76.34526604546443, 31.664710489908884], [76.34223395453562, 31.66862284342451], [76.34109937879776, 31.67304382324222], [76.32556728786895, 31.689456176757844], [76.3244327121311, 31.693877156575553], [76.32043745252824, 31.699032253689268], [76.31666666666669, 31.70000000000003], [76.31445617675784, 31.69943271213111], [76.30637715657555, 31.692233954535624], [76.30085093180341, 31.690815734863314], [76.29911261664499, 31.684041849772168], [76.28838738335506, 31.682624816894563], [76.28750000000002, 31.6791666666667], [76.28333333333336, 31.6791666666667], [76.28276604546443, 31.68554382324222], [76.27973395453562, 31.689456176757844], [76.27859937879776, 31.693877156575553], [76.26990407307945, 31.70346374511722], [76.25922071668839, 31.7048751831055], [76.25776604546444, 31.71054382324222], [76.24098951551652, 31.728271145290833], [76.23750000000003, 31.7291666666667], [76.23714667426218, 31.73159111870663], [76.21701999240454, 31.75174221462677], [76.21631334092885, 31.75659111870663], [76.19828745524092, 31.77464243570967], [76.19340888129342, 31.775353325737882], [76.18575778537328, 31.78298000759552], [76.17674221462676, 31.783686659071215], [76.16702440049916, 31.79337819417321], [76.16666666666669, 31.795833333333366], [76.16007554796009, 31.796186659071214], [76.15659111870661, 31.799646674262185], [76.15174221462676, 31.80035332573788], [76.14825778537329, 31.80381334092885], [76.1416666666667, 31.8041666666667], [76.12083333333335, 31.8041666666667], [76.11445617675784, 31.804733954535624], [76.11054382324221, 31.807766045464444], [76.1061228434245, 31.80890062120229], [76.10221048990887, 31.81193271213111], [76.09255405002172, 31.813208516438834], [76.09109937879776, 31.818877156575553], [76.08806728786895, 31.82278951009118], [76.0869327121311, 31.827210489908886], [76.07435421413848, 31.8407631768121], [76.07083333333335, 31.8416666666667], [76.06840888129342, 31.841313340928853], [76.06075778537328, 31.833686659071216], [76.05416666666669, 31.833333333333368], [76.05325741238066, 31.829790242513056], [76.0416666666667, 31.8291666666667], [76.03750000000002, 31.8291666666667], [76.03688235812719, 31.827006530761754], [76.02978430853952, 31.81882680257165], [76.02854902479386, 31.81450653076175], [76.02561764187286, 31.810493469238313], [76.0243823581272, 31.806173197428418], [76.02145097520618, 31.80216013590498], [76.0200391981337, 31.79246080186635], [76.01033986409507, 31.79104902479387], [75.99382680257163, 31.775617641872863], [75.9876139322917, 31.773841179741787], [75.98395097520618, 31.76882680257165], [75.98333333333335, 31.7666666666667], [75.98090888129344, 31.767019992404546], [75.97119106716583, 31.776711527506542], [75.97048000759553, 31.78159111870663], [75.96078830295143, 31.791308932834234], [75.95590888129344, 31.792019992404548], [75.9503580729167, 31.79754316541887], [75.9496466742622, 31.802424452039965], [75.94201999240455, 31.810075547960103], [75.94131334092886, 31.814924452039964], [75.93579033745664, 31.8204752604167], [75.93333333333337, 31.82083333333337], [75.93256191677521, 31.828395250108542], [75.92500000000004, 31.8291666666667], [75.92257554796011, 31.82951999240455], [75.91909111870663, 31.83298000759552], [75.91424221462677, 31.833686659071216], [75.9107577853733, 31.837146674262186], [75.90590888129344, 31.837853325737882], [75.90242445203997, 31.841313340928853], [75.89166666666671, 31.8416666666667], [75.89075317382816, 31.845225863986578], [75.87500000000004, 31.845833333333367], [75.86424221462677, 31.84548000759552], [75.8607577853733, 31.84201999240455], [75.85000000000004, 31.8416666666667], [75.84914923773876, 31.844982401529982], [75.84583333333337, 31.845833333333367], [75.84498257107208, 31.84914906819665], [75.83835076226133, 31.850850931803418], [75.83693271213112, 31.856377156575554], [75.82858378092452, 31.865746900770432], [75.82500000000003, 31.8666666666667], [75.82464667426218, 31.877424452039964], [75.82118665907122, 31.880908881293436], [75.82083333333337, 31.88333333333337], [75.82026604546445, 31.885543823242223], [75.81627061631949, 31.890698920355938], [75.81028951009118, 31.892233954535623], [75.80637715657556, 31.895266045464442], [75.79362284342452, 31.89640062120229], [75.78820427788632, 31.9009194268121], [75.78693271213112, 31.91054382324222], [75.78390062120229, 31.914456176757845], [75.78248257107208, 31.919982401529982], [75.7791666666667, 31.920833333333366], [75.77831590440542, 31.924149068196648], [75.77278951009119, 31.925567287868958], [75.76887715657556, 31.928599378797777], [75.76028951009118, 31.929733954535624], [75.75637715657555, 31.932766045464444], [75.75085076226132, 31.934184265136754], [75.74943271213111, 31.93971048990889], [75.7464006212023, 31.943622843424514], [75.74583333333337, 31.94583333333337], [75.7493554009332, 31.946737331814255], [75.75056728786896, 31.963246663411475], [75.7464006212023, 31.968622843424498], [75.74526604546445, 31.977210489908874], [75.74223395453562, 31.981122843424497], [75.74109937879778, 31.985543823242207], [75.73806728786896, 31.98945617675783], [75.73693271213111, 31.99387715657554], [75.72556728786896, 32.0061228434245], [75.72443271213112, 32.01054382324221], [75.72140062120229, 32.01445617675783], [75.72083333333337, 32.02083333333335], [75.72026604546444, 32.03971048990887], [75.71723395453563, 32.0436228434245], [75.71595831977, 32.05327928331165], [75.71028951009119, 32.05473395453561], [75.70637715657556, 32.057766045464426], [75.70195617675785, 32.05890062120228], [75.69236958821618, 32.06759575737849], [75.69095831977, 32.07827928331165], [75.68528951009118, 32.07973395453561], [75.68137715657555, 32.08276604546443], [75.67008666992191, 32.083900621202275], [75.66471048990888, 32.07973395453561], [75.64925333658857, 32.07859937879776], [75.64387715657556, 32.08276604546443], [75.6342207166884, 32.08404168023005], [75.63333333333337, 32.08750000000002], [75.62257554796011, 32.08714667426217], [75.61909111870663, 32.0836866590712], [75.59583333333337, 32.08333333333335], [75.59583333333337, 32.08750000000002], [75.59583333333337, 32.09166666666668], [75.59583333333337, 32.09583333333335], [75.59829033745663, 32.09619140625002], [75.60381334092885, 32.10174221462675], [75.60451999240455, 32.11909111870662], [75.60798000759551, 32.12257554796009], [75.60868665907121, 32.13992445203995], [75.61214667426219, 32.143408881293425], [75.61285332573789, 32.15242445203995], [75.61631334092885, 32.15590888129342], [75.61702440049916, 32.160787624783005], [75.63090888129344, 32.17464667426217], [75.64583333333337, 32.17500000000002], [75.64673699273007, 32.17852105034724], [75.66028951009118, 32.191099378797766], [75.66627061631948, 32.19263441297745], [75.67026604546444, 32.19778951009117], [75.67173292371966, 32.203505452473976], [75.68554382324223, 32.20473395453561], [75.69362284342452, 32.211932712131095], [75.69914923773875, 32.21335076226131], [75.70085076226133, 32.219982571072066], [75.70793728298615, 32.221801079644116], [75.71193271213112, 32.22695617675783], [75.7134195963542, 32.232750447591165], [75.72278951009118, 32.24109937879776], [75.72721048990888, 32.242233954535614], [75.73112284342452, 32.24526604546443], [75.73554382324222, 32.24640062120228], [75.74092000325524, 32.25056728786895], [75.74387715657555, 32.249432712131096], [75.7479166666667, 32.24630194769967], [75.75195617675784, 32.249432712131096], [75.7647104899089, 32.25056728786895], [75.76862284342451, 32.253599378797766], [75.7916666666667, 32.25416666666669], [75.79409111870663, 32.25451999240453], [75.79791666666671, 32.2583187527127], [75.80245361328129, 32.25381334092884], [75.81492445203996, 32.25451999240453], [75.81912027994795, 32.2586866590712], [75.8232577853733, 32.257980007595506], [75.82708333333338, 32.25418124728735], [75.83125000000004, 32.2583187527127], [75.8350755479601, 32.25451999240453], [75.86492445203997, 32.25381334092884], [75.86840888129343, 32.25035332573787], [75.8732577853733, 32.24964667426217], [75.87674221462677, 32.2461866590712], [75.89409111870664, 32.2454800075955], [75.89828694661462, 32.24131334092884], [75.90659111870663, 32.242019992404536], [75.91459859212243, 32.25000203450523], [75.92048000759553, 32.24409111870662], [75.92083333333338, 32.24166666666669], [75.92721048990889, 32.24109937879776], [75.93125881618927, 32.23796183268231], [75.93945617675784, 32.24526604546443], [75.94387715657555, 32.24640062120228], [75.95612284342452, 32.25776604546443], [75.9647104899089, 32.25890062120228], [75.96862284342451, 32.2619327121311], [75.97429165310334, 32.26338738335505], [75.97571411132816, 32.274154324001756], [75.9803853352865, 32.27520141601565], [75.98528951009118, 32.271400621202275], [75.98971048990889, 32.27026604546443], [75.99362284342452, 32.26723395453561], [75.99914923773875, 32.2658159044054], [76.00000000000004, 32.262500000000024], [76.00242445203997, 32.262146674262176], [76.00590888129344, 32.2586866590712], [76.00833333333337, 32.258333333333354], [76.00886281331383, 32.27308146158856], [76.01197052001956, 32.27691853841148], [76.01302947998049, 32.28010728624134], [76.00886281331383, 32.28525187174481], [76.00780385335288, 32.298081461588566], [76.00469614664716, 32.30191853841148], [76.00363718668622, 32.30529581705731], [76.01762390136722, 32.32007751464846], [76.02308163113067, 32.32136298285592], [76.02691836886937, 32.324470350477455], [76.03242136637373, 32.32576666937936], [76.03386281331382, 32.33010728624134], [76.02969614664715, 32.335251871744816], [76.02916666666671, 32.33750000000002], [76.02973395453562, 32.339710489908875], [76.04231245252824, 32.35326300726999], [76.04804382324221, 32.35473395453561], [76.05195617675784, 32.35776604546443], [76.06054382324221, 32.35890062120228], [76.06445617675783, 32.3619327121311], [76.07304382324222, 32.363067287868944], [76.07695617675783, 32.36609937879776], [76.08661261664498, 32.36737501356339], [76.08806728786895, 32.37304382324221], [76.0994327121311, 32.38528951009117], [76.10056728786894, 32.38971048990888], [76.11343315972225, 32.40346408420141], [76.12304382324221, 32.404733954535615], [76.12695617675783, 32.407766045464435], [76.13137715657554, 32.40890062120228], [76.13653225368925, 32.41289605034724], [76.13750000000002, 32.416666666666686], [76.13992445203995, 32.41701999240453], [76.14547526041669, 32.42254299587676], [76.14583333333336, 32.425000000000026], [76.14825778537329, 32.42464667426218], [76.15174221462676, 32.4211866590712], [76.17500000000003, 32.420833333333356], [76.1759197658963, 32.417249552408876], [76.18528951009117, 32.40890062120228], [76.19804382324222, 32.407766045464435], [76.20612284342451, 32.400567287868945], [76.21164906819664, 32.39914923773874], [76.21250000000002, 32.39583333333336], [76.2166666666667, 32.39583333333336], [76.24804382324221, 32.396400621202275], [76.25302954779734, 32.400264485677106], [76.25416666666669, 32.39583333333336], [76.25833333333335, 32.39583333333336], [76.2586866590712, 32.389242214626755], [76.26214667426218, 32.385757785373286], [76.26250000000002, 32.37916666666669], [76.2666666666667, 32.37916666666669], [76.26909111870663, 32.37881334092884], [76.27257554796009, 32.37535332573787], [76.27745683458119, 32.37464192708335], [76.28298000759551, 32.36909111870662], [76.28368665907121, 32.364242214626756], [76.28714667426217, 32.36075778537329], [76.28785332573787, 32.34757554796009], [76.29131334092884, 32.34409111870662], [76.29166666666669, 32.34166666666669], [76.29409111870662, 32.34131334092884], [76.29828711615671, 32.33714667426217], [76.30659111870662, 32.33785332573787], [76.3107871161567, 32.34201999240454], [76.31909111870662, 32.34131334092884], [76.3232871161567, 32.33714667426217], [76.33159111870663, 32.33785332573787], [76.33578711615671, 32.34201999240454], [76.33992445203995, 32.34131334092884], [76.34340888129343, 32.33785332573787], [76.34829016791453, 32.33714192708335], [76.35381334092884, 32.33159111870662], [76.35416666666669, 32.32916666666669], [76.35659111870662, 32.32881334092884], [76.3600755479601, 32.325353325737865], [76.36250000000003, 32.325000000000024], [76.36285332573787, 32.32257554796009], [76.36631334092884, 32.319091118706616], [76.36701999240454, 32.31424221462676], [76.37464667426218, 32.30659111870662], [76.37500000000003, 32.30416666666669], [76.3783157348633, 32.3033159044054], [76.37916666666669, 32.30000000000002], [76.38137715657555, 32.2994327121311], [76.38945617675783, 32.29223395453561], [76.39804382324222, 32.29109937879777], [76.40195617675784, 32.28806728786894], [76.40637715657554, 32.2869327121311], [76.41028951009118, 32.28390062120228], [76.41608378092451, 32.28241373697919], [76.42443271213111, 32.27304382324221], [76.42585093180341, 32.267517428927974], [76.42916666666669, 32.26666666666669], [76.44409111870662, 32.26631334092884], [76.4475755479601, 32.262853325737865], [76.45242445203996, 32.262146674262176], [76.46495022243926, 32.24964667426217], [76.47742445203995, 32.25035332573787], [76.48090888129343, 32.25381334092884], [76.48333333333336, 32.25416666666669], [76.48664906819664, 32.253315904405405], [76.48750000000003, 32.25000000000002], [76.48992445203996, 32.24964667426217], [76.50661655002173, 32.23298000759551], [76.51492445203996, 32.2336866590712], [76.51912044949005, 32.237853325737866], [76.52325778537329, 32.23714667426217], [76.52674221462676, 32.2336866590712], [76.53333333333336, 32.233333333333356], [76.53992445203995, 32.23298000759551], [76.54340888129343, 32.22951999240453], [76.57742445203996, 32.22881334092884], [76.58090888129342, 32.22535332573787], [76.58750000000002, 32.22500000000002], [76.58785332573787, 32.22257554796009], [76.59131334092885, 32.219091118706615], [76.5916666666667, 32.21666666666669], [76.59387715657554, 32.216099378797765], [76.6061228434245, 32.20473395453561], [76.61164906819664, 32.2033159044054], [76.61250000000003, 32.20000000000002], [76.61471048990889, 32.1994327121311], [76.6186228434245, 32.19640062120228], [76.62721048990888, 32.19526604546443], [76.6311228434245, 32.19223395453561], [76.64909430609812, 32.191028849283875], [76.65000000000003, 32.18750000000002], [76.65637715657554, 32.186932712131096], [76.66028951009118, 32.18390062120228], [76.66471048990888, 32.18276604546443], [76.6700866699219, 32.17859937879776], [76.68243696424699, 32.17984042697485], [76.68425309922962, 32.18691711425783], [76.6936228434245, 32.19526604546443], [76.69804382324222, 32.19640062120228], [76.70342000325523, 32.20056728786894], [76.71887715657554, 32.1994327121311], [76.72695617675784, 32.19223395453561], [76.73248240152998, 32.190815904405405], [76.73333333333336, 32.18750000000002], [76.73750000000003, 32.18750000000002], [76.73806728786896, 32.189710489908876], [76.74109937879777, 32.1936228434245], [76.74251759847007, 32.19914923773874], [76.74804382324221, 32.20056728786894], [76.75195617675784, 32.20359937879776], [76.75637715657555, 32.20473395453561], [76.76179572211375, 32.20925292968752], [76.76306728786895, 32.218877156575545], [76.76609937879778, 32.22278951009117], [76.7666666666667, 32.229166666666686], [76.77083333333336, 32.229166666666686], [76.77325778537329, 32.22881334092884], [76.77674221462676, 32.22535332573787], [76.79583333333336, 32.22500000000002], [76.79804382324221, 32.2244327121311], [76.80195617675784, 32.22140062120228], [76.80637715657555, 32.22026604546443], [76.81028951009118, 32.21723395453561], [76.8158157348633, 32.2158159044054], [76.81751759847008, 32.20918409559464], [76.82414906819665, 32.20748257107207], [76.82589959038631, 32.20066121419273], [76.83333333333336, 32.20000000000002], [76.84387715657554, 32.20056728786894], [76.84925333658857, 32.20473395453561], [76.86471048990889, 32.20359937879776], [76.8700866699219, 32.1994327121311], [76.87721048990889, 32.20056728786894], [76.8811228434245, 32.20359937879776], [76.89387715657556, 32.20473395453561], [76.90195617675784, 32.211932712131095], [76.90637715657554, 32.213067287868945], [76.91175333658857, 32.21723395453561], [76.92721048990889, 32.216099378797765], [76.9311228434245, 32.213067287868945], [76.93554382324221, 32.211932712131095], [76.9436228434245, 32.20473395453561], [76.95221048990888, 32.20359937879776], [76.95758666992191, 32.1994327121311], [76.96054382324222, 32.20056728786894], [76.96445617675784, 32.20359937879776], [76.96887715657554, 32.20473395453561], [76.97425333658857, 32.208900621202275], [76.98971048990889, 32.20776604546443], [76.9936228434245, 32.20473395453561], [76.99914923773875, 32.2033159044054], [77.00000000000003, 32.20000000000002], [77.00637715657555, 32.20056728786894], [77.01028951009117, 32.20359937879776], [77.03137715657554, 32.20473395453561], [77.03528951009118, 32.20776604546443], [77.0408159044054, 32.20918409559464], [77.04251742892798, 32.2158159044054], [77.04583333333336, 32.21666666666669], [77.04583333333336, 32.22083333333335], [77.04548000759551, 32.227424452039955], [77.0399570041233, 32.23297526041669], [77.0350755479601, 32.2336866590712], [77.02952067057295, 32.23921373155384], [77.02881334092885, 32.26492445203995], [77.02535332573788, 32.268408881293425], [77.02500000000003, 32.27500000000002], [77.02592637803822, 32.278240288628496], [77.03240695529517, 32.280093044704884], [77.03395080566409, 32.2854936387804], [77.0368825276693, 32.28950636121964], [77.03820563422312, 32.30752631293405], [77.04799363878041, 32.30895080566408], [77.05200636121965, 32.31188252766929], [77.05740695529516, 32.313426378038216], [77.0589508056641, 32.31882697211374], [77.0618825276693, 32.322839694552975], [77.06250000000003, 32.33333333333336], [77.06164923773875, 32.33664923773874], [77.05456271701392, 32.33846774631078], [77.05056728786896, 32.3436228434245], [77.04943271213111, 32.34804382324221], [77.04526604546444, 32.35342000325523], [77.04640062120228, 32.36054382324221], [77.04943271213111, 32.364456176757834], [77.05056728786896, 32.36887715657554], [77.07443271213111, 32.3936228434245], [77.07585076226131, 32.39914923773874], [77.0791666666667, 32.40000000000002], [77.08159111870663, 32.39964667426217], [77.08578694661462, 32.39548000759551], [77.1107577853733, 32.396186659071205], [77.11424221462677, 32.39964667426217], [77.11909111870663, 32.40035332573787], [77.1225755479601, 32.40381334092884], [77.13159111870662, 32.40451999240454], [77.1350755479601, 32.407980007595505], [77.14409111870663, 32.4086866590712], [77.1475755479601, 32.412146674262175], [77.15242445203997, 32.41285332573787], [77.15590888129343, 32.416313340928845], [77.15833333333336, 32.416666666666686], [77.15918409559465, 32.41335076226131], [77.16471048990888, 32.4119327121311], [77.16862284342452, 32.40890062120228], [77.17304382324222, 32.407766045464435], [77.17695617675784, 32.404733954535615], [77.18137715657555, 32.403599378797765], [77.18957451714412, 32.39629516601565], [77.1936228434245, 32.3994327121311], [77.19583333333337, 32.40000000000002], [77.19618801540801, 32.39338107638891], [77.20590888129344, 32.3836866590712], [77.21075778537329, 32.382980007595506], [77.21424221462676, 32.37951999240454], [77.22325778537329, 32.37881334092884], [77.22745361328128, 32.37464667426217], [77.23159111870663, 32.37535332573787], [77.23578694661461, 32.37951999240454], [77.23992445203996, 32.37881334092884], [77.2475755479601, 32.3711866590712], [77.25242445203996, 32.37048000759551], [77.26424221462676, 32.3586866590712], [77.26909111870663, 32.35798000759551], [77.2725755479601, 32.35451999240453], [77.27500000000003, 32.354166666666686], [77.27535332573788, 32.35174221462676], [77.27881334092885, 32.348257785373285], [77.2791666666667, 32.34166666666669], [77.28554382324222, 32.341099378797765], [77.29362284342452, 32.333900621202275], [77.29804382324222, 32.33276604546443], [77.30195617675784, 32.32973395453561], [77.30637715657555, 32.32859937879776], [77.31028951009118, 32.32556728786894], [77.31608378092452, 32.32408040364585], [77.32443271213111, 32.314710489908876], [77.32570427788632, 32.305086263020854], [77.33112284342451, 32.300567287868944], [77.33710394965281, 32.299032253689255], [77.34109937879778, 32.29387715657554], [77.34223395453563, 32.2811228434245], [77.34640062120229, 32.27574666341148], [77.34526604546444, 32.2561228434245], [77.34213528103302, 32.25208333333335], [77.34526604546444, 32.248043823242206], [77.34680107964412, 32.24206271701391], [77.35195617675785, 32.238067287868944], [77.35765618218319, 32.23660447862415], [77.37443271213111, 32.218877156575545], [77.37585076226132, 32.21335076226131], [77.38137715657555, 32.211932712131095], [77.38945617675785, 32.20473395453561], [77.3916666666667, 32.20416666666669], [77.39409111870663, 32.204519992404535], [77.3975755479601, 32.20798000759551], [77.40000000000003, 32.20833333333336], [77.40000000000003, 32.20416666666669], [77.40242445203997, 32.20381334092884], [77.41424221462677, 32.19201999240453], [77.42742445203996, 32.19131334092884], [77.43090888129343, 32.18785332573787], [77.44583333333337, 32.18750000000002], [77.45756734212243, 32.18822055392797], [77.4618570963542, 32.19369845920141], [77.46314290364586, 32.202134874131964], [77.46602376302087, 32.20619845920141], [77.46748725043406, 32.22054409450957], [77.47467820909291, 32.225642903645856], [77.48130154079864, 32.22435709635419], [77.48953179253476, 32.21730957031252], [77.49380154079864, 32.21602376302086], [77.49786512586809, 32.21314290364585], [77.50213487413198, 32.21185709635419], [77.50619845920143, 32.20897623697919], [77.51463487413199, 32.20769042968752], [77.52436625162764, 32.199357096354184], [77.53673027886288, 32.200789048936656], [77.53827141655819, 32.21589525010853], [77.54583333333336, 32.21666666666669], [77.54668409559466, 32.21335076226131], [77.55221048990889, 32.211932712131095], [77.55612284342452, 32.208900621202275], [77.56210394965281, 32.20736558702259], [77.56609937879777, 32.20221048990887], [77.56732245551218, 32.188459947374156], [77.57278951009118, 32.18390062120228], [77.5772104899089, 32.18276604546443], [77.58528951009119, 32.175567287868944], [77.59490424262157, 32.17429707845054], [77.60359937879778, 32.16471048990888], [77.60505405002174, 32.159041680230054], [77.61471048990889, 32.15776604546443], [77.61862284342452, 32.15473395453561], [77.62827928331167, 32.15345831976998], [77.6291666666667, 32.15000000000002], [77.63333333333337, 32.15000000000002], [77.64387715657556, 32.149432712131095], [77.64778951009119, 32.146400621202275], [77.65331590440542, 32.14498257107207], [77.65473395453563, 32.13945617675783], [77.66193271213112, 32.13137715657554], [77.66335076226132, 32.12585076226131], [77.66887715657556, 32.124432712131096], [77.67278951009118, 32.12140062120228], [77.67831590440542, 32.11998257107207], [77.6791666666667, 32.11666666666669], [77.67951999240455, 32.114242214626756], [77.68298000759552, 32.11075778537328], [77.68333333333337, 32.104166666666686], [77.68554382324223, 32.10359937879778], [77.69092000325524, 32.09943271213111], [77.69804382324222, 32.10056728786896], [77.70342000325525, 32.104733954535625], [77.71054382324222, 32.10359937879778], [77.71862284342451, 32.09640062120229], [77.72414923773876, 32.09498240152998], [77.72621493869362, 32.08693271213111], [77.73137715657556, 32.08806728786896], [77.73528951009118, 32.09109937879778], [77.75000000000004, 32.09166666666668], [77.75056728786896, 32.08945617675785], [77.75359937879777, 32.085543823242226], [77.75473395453562, 32.08112284342452], [77.75776604546445, 32.07721048990889], [77.75890062120229, 32.068622843424514], [77.76609937879778, 32.06054382324222], [77.76729939778649, 32.042645772298215], [77.77278951009119, 32.038067287868955], [77.7772104899089, 32.03693271213111], [77.78528951009119, 32.02973395453562], [77.79081590440542, 32.02831573486332], [77.7916666666667, 32.025000000000034], [77.79131334092885, 32.01840888129344], [77.77951999240454, 32.00659111870663], [77.7791666666667, 32.000000000000036], [77.78578559027781, 31.99964514838328], [77.79618665907121, 31.989215935601162], [77.79548000759553, 31.985075547960104], [77.77951999240454, 31.969091118706633], [77.77881334092885, 31.964242214626772], [77.77535332573788, 31.9607577853733], [77.77464192708337, 31.955876498752204], [77.76909111870663, 31.950353325737883], [77.76666666666671, 31.950000000000035], [77.76701999240456, 31.947575547960103], [77.77881334092885, 31.935757785373298], [77.77951999240454, 31.92674221462677], [77.79548000759553, 31.9107577853733], [77.79583333333338, 31.908333333333367], [77.80242445203997, 31.90798000759552], [77.80590888129343, 31.90451999240455], [77.8107577853733, 31.903813340928853], [77.81458333333337, 31.900014580620695], [77.81912027994795, 31.90451999240455], [77.82742445203996, 31.903813340928853], [77.8350755479601, 31.896186659071216], [77.83992445203997, 31.89548000759552], [77.84340888129344, 31.89201999240455], [77.8482577853733, 31.891313340928853], [77.85174221462677, 31.887853325737883], [77.8666666666667, 31.887500000000035], [77.86569892035594, 31.88372921413849], [77.86054382324222, 31.879733954535624], [77.855017428928, 31.878315734863314], [77.85359937879778, 31.87278951009118], [77.85056728786896, 31.868877156575554], [77.84943271213112, 31.864456176757848], [77.84109937879778, 31.85510389539934], [77.84223395453563, 31.843622843424512], [77.84526604546444, 31.83971048990889], [77.84640062120229, 31.82278951009118], [77.85056728786896, 31.817413330078157], [77.84943271213112, 31.81028951009118], [77.84630194769969, 31.806250000000034], [77.84943271213112, 31.802210489908887], [77.85056728786896, 31.79362284342451], [77.85359937879778, 31.789710489908888], [77.855017428928, 31.78418426513675], [77.85833333333338, 31.783333333333367], [77.85798000759553, 31.77674221462677], [77.85451999240455, 31.773257785373296], [77.8541666666667, 31.76250000000003], [77.8475755479601, 31.762146674262187], [77.84375000000004, 31.758347913954026], [77.83992445203997, 31.762146674262187], [77.80245361328129, 31.76285332573788], [77.7982577853733, 31.758686659071213], [77.79583333333338, 31.758333333333365], [77.79340888129344, 31.75798000759552], [77.78992445203997, 31.754519992404546], [77.78578694661462, 31.75381334092885], [77.78159111870663, 31.75798000759552], [77.77674221462678, 31.758686659071213], [77.7732577853733, 31.762146674262187], [77.76840888129344, 31.76285332573788], [77.76492445203996, 31.766313340928853], [77.76250000000003, 31.7666666666667], [77.76214667426218, 31.76424221462677], [77.75868665907122, 31.760757785373297], [77.75798000759552, 31.75174221462677], [77.75381334092886, 31.747546217176684], [77.75451999240455, 31.730908881293434], [77.75798000759552, 31.727424452039962], [77.75833333333337, 31.7166666666667], [77.75501742892799, 31.715815734863313], [77.7541666666667, 31.712500000000034], [77.73507554796011, 31.712146674262186], [77.73159111870663, 31.708686659071212], [77.70416666666671, 31.708333333333364], [77.70174221462678, 31.70798000759552], [77.6982577853733, 31.704519992404546], [77.68333333333337, 31.704166666666698], [77.6823655870226, 31.700395880805154], [77.67721048990889, 31.69640062120229], [77.67168409559466, 31.69498240152998], [77.67026604546444, 31.689456176757844], [77.65890062120229, 31.677210489908887], [77.65736558702261, 31.67122921413849], [77.6522104899089, 31.66723395453562], [77.65000000000003, 31.6666666666667], [77.65000000000003, 31.658333333333367], [77.63090888129344, 31.65798000759552], [77.62742445203996, 31.654519992404545], [77.62500000000003, 31.654166666666697], [77.62083333333337, 31.654166666666697], [77.62009819878476, 31.646635945638053], [77.61033969455299, 31.645215691460535], [77.60632697211375, 31.64228430853953], [77.60200636121965, 31.64104902479387], [77.59799363878042, 31.63811764187286], [77.57169087727868, 31.636825900607672], [77.56311747233076, 31.62716013590498], [77.56181369357643, 31.605005900065137], [77.55632697211375, 31.600617641872862], [77.54783969455299, 31.5993823581272], [77.53966030544709, 31.59228430853953], [77.53410169813371, 31.59069502088762], [77.53247172037764, 31.579497782389353], [77.52716030544708, 31.57561764187286], [77.50497606065542, 31.574311998155412], [77.50354919433597, 31.56450653076175], [77.4964508056641, 31.556326802571647], [77.49490695529518, 31.550926378038227], [77.4916666666667, 31.550000000000033], [77.49081590440542, 31.55331573486331], [77.48528951009118, 31.55473395453562], [77.48137715657556, 31.55776604546444], [77.46445617675785, 31.558900621202287], [77.46054382324222, 31.561932712131107], [77.4416666666667, 31.562500000000032], [77.43750000000003, 31.562500000000032], [77.4368825276693, 31.55200653076175], [77.4339508056641, 31.547993469238314], [77.43233371310767, 31.5368823581272], [77.40617302788633, 31.538117641872862], [77.40046929253475, 31.54228430853953], [77.38533969455298, 31.541049024793868], [77.38132697211375, 31.538117641872862], [77.35933091905385, 31.536823018391956], [77.35833333333336, 31.533333333333363], [77.35590888129343, 31.53368665907121], [77.35242445203997, 31.537146674262182], [77.35000000000004, 31.53750000000003], [77.33924221462676, 31.537146674262182], [77.3357577853733, 31.53368665907121], [77.3100755479601, 31.53298000759552], [77.30242445203996, 31.52535332573788], [77.29757554796011, 31.524646674262183], [77.29202473958337, 31.51912350124786], [77.29131334092885, 31.514242214626766], [77.28543192545577, 31.508331298828157], [77.27742445203997, 31.51631334092885], [77.2666666666667, 31.516666666666698], [77.26609937879778, 31.514456176757843], [77.26306728786895, 31.51054382324222], [77.2618808322483, 31.48849046495229], [77.25637715657555, 31.483900621202288], [77.24778951009118, 31.48276604546444], [77.24387715657555, 31.47973395453562], [77.23808288574222, 31.47824690077043], [77.22973395453562, 31.46887715657555], [77.22831590440542, 31.463350931803415], [77.22500000000004, 31.46250000000003], [77.21840888129343, 31.46285332573788], [77.21492445203997, 31.46631334092885], [77.1975755479601, 31.467019992404545], [77.19409111870662, 31.470480007595516], [77.17500000000003, 31.470833333333363], [77.17083333333336, 31.470833333333363], [77.17048000759551, 31.473257785373296], [77.16701999240455, 31.476742214626768], [77.1666666666667, 31.479166666666696], [77.15590888129343, 31.479519992404544], [77.15242445203997, 31.482980007595515], [77.14583333333337, 31.483333333333363], [77.14493781195749, 31.47984381781687], [77.12721048990889, 31.463067287868952], [77.12168409559465, 31.461649068196646], [77.11961839463979, 31.453599378797772], [77.11445617675784, 31.45473395453562], [77.11054382324222, 31.45776604546444], [77.10612284342452, 31.458900621202286], [77.10221048990888, 31.46193271213111], [77.07695617675785, 31.463067287868952], [77.07304382324222, 31.46609937879777], [77.06666666666669, 31.466666666666697], [77.05923292371965, 31.467327880859404], [77.05748257107209, 31.474149068196645], [77.05195617675784, 31.475567287868955], [77.04804382324222, 31.478599378797774], [77.04583333333336, 31.479166666666696], [77.04340888129343, 31.478813340928852]]]}, "properties": {"kind": "catchment", "name": "Pong", "outlet": 4080700890, "area_km2": 13637.4, "n_subbasins": 15, "source": "HydroBASINS v1c Asia level 8 (Lehner & Grill 2013), hybas_as_lev08_v1c.zip, sha256 878c56bb4253a7c8...; upstream set of the sub-basin containing the dam"}}, {"type": "Feature", "geometry": {"type": "Point", "coordinates": [76.5, 31.5]}, "properties": {"kind": "grid_point", "weight_km2": 135.096, "weight_imd_km2": 135.096}}, {"type": "Feature", "geometry": {"type": "Point", "coordinates": [76.75, 31.5]}, "properties": {"kind": "grid_point", "weight_km2": 66.973, "weight_imd_km2": 66.973}}, {"type": "Feature", "geometry": {"type": "Point", "coordinates": [77.0, 31.5]}, "properties": {"kind": "grid_point", "weight_km2": 408.404, "weight_imd_km2": 408.404}}, {"type": "Feature", "geometry": {"type": "Point", "coordinates": [77.25, 31.5]}, "properties": {"kind": "grid_point", "weight_km2": 334.242, "weight_imd_km2": 334.242}}, {"type": "Feature", "geometry": {"type": "Point", "coordinates": [77.5, 31.5]}, "properties": {"kind": "grid_point", "weight_km2": 125.902, "weight_imd_km2": 125.902}}, {"type": "Feature", "geometry": {"type": "Point", "coordinates": [75.75, 31.75]}, "properties": {"kind": "grid_point", "weight_km2": 13.379, "weight_imd_km2": 13.379}}, {"type": "Feature", "geometry": {"type": "Point", "coordinates": [76.0, 31.75]}, "properties": {"kind": "grid_point", "weight_km2": 159.793, "weight_imd_km2": 159.793}}, {"type": "Feature", "geometry": {"type": "Point", "coordinates": [76.25, 31.75]}, "properties": {"kind": "grid_point", "weight_km2": 387.016, "weight_imd_km2": 387.016}}, {"type": "Feature", "geometry": {"type": "Point", "coordinates": [76.5, 31.75]}, "properties": {"kind": "grid_point", "weight_km2": 656.43, "weight_imd_km2": 656.43}}, {"type": "Feature", "geometry": {"type": "Point", "coordinates": [76.75, 31.75]}, "properties": {"kind": "grid_point", "weight_km2": 557.411, "weight_imd_km2": 557.411}}, {"type": "Feature", "geometry": {"type": "Point", "coordinates": [77.0, 31.75]}, "properties": {"kind": "grid_point", "weight_km2": 656.622, "weight_imd_km2": 656.622}}, {"type": "Feature", "geometry": {"type": "Point", "coordinates": [77.25, 31.75]}, "properties": {"kind": "grid_point", "weight_km2": 656.622, "weight_imd_km2": 656.622}}, {"type": "Feature", "geometry": {"type": "Point", "coordinates": [77.5, 31.75]}, "properties": {"kind": "grid_point", "weight_km2": 646.814, "weight_imd_km2": 646.814}}, {"type": "Feature", "geometry": {"type": "Point", "coordinates": [77.75, 31.75]}, "properties": {"kind": "grid_point", "weight_km2": 362.368, "weight_imd_km2": 362.368}}, {"type": "Feature", "geometry": {"type": "Point", "coordinates": [75.5, 32.0]}, "properties": {"kind": "grid_point", "weight_km2": 9.993, "weight_imd_km2": 9.993}}, {"type": "Feature", "geometry": {"type": "Point", "coordinates": [75.75, 32.0]}, "properties": {"kind": "grid_point", "weight_km2": 392.12, "weight_imd_km2": 392.12}}, {"type": "Feature", "geometry": {"type": "Point", "coordinates": [76.0, 32.0]}, "properties": {"kind": "grid_point", "weight_km2": 654.877, "weight_imd_km2": 654.877}}, {"type": "Feature", "geometry": {"type": "Point", "coordinates": [76.25, 32.0]}, "properties": {"kind": "grid_point", "weight_km2": 654.877, "weight_imd_km2": 654.877}}, {"type": "Feature", "geometry": {"type": "Point", "coordinates": [76.5, 32.0]}, "properties": {"kind": "grid_point", "weight_km2": 654.877, "weight_imd_km2": 654.877}}, {"type": "Feature", "geometry": {"type": "Point", "coordinates": [76.75, 32.0]}, "properties": {"kind": "grid_point", "weight_km2": 654.877, "weight_imd_km2": 654.877}}, {"type": "Feature", "geometry": {"type": "Point", "coordinates": [77.0, 32.0]}, "properties": {"kind": "grid_point", "weight_km2": 654.877, "weight_imd_km2": 654.877}}, {"type": "Feature", "geometry": {"type": "Point", "coordinates": [77.25, 32.0]}, "properties": {"kind": "grid_point", "weight_km2": 654.877, "weight_imd_km2": 654.877}}, {"type": "Feature", "geometry": {"type": "Point", "coordinates": [77.5, 32.0]}, "properties": {"kind": "grid_point", "weight_km2": 654.877, "weight_imd_km2": 654.877}}, {"type": "Feature", "geometry": {"type": "Point", "coordinates": [77.75, 32.0]}, "properties": {"kind": "grid_point", "weight_km2": 390.775, "weight_imd_km2": 390.775}}, {"type": "Feature", "geometry": {"type": "Point", "coordinates": [75.5, 32.25]}, "properties": {"kind": "grid_point", "weight_km2": 5.442, "weight_imd_km2": 5.442}}, {"type": "Feature", "geometry": {"type": "Point", "coordinates": [75.75, 32.25]}, "properties": {"kind": "grid_point", "weight_km2": 279.682, "weight_imd_km2": 279.682}}, {"type": "Feature", "geometry": {"type": "Point", "coordinates": [76.0, 32.25]}, "properties": {"kind": "grid_point", "weight_km2": 460.165, "weight_imd_km2": 460.165}}, {"type": "Feature", "geometry": {"type": "Point", "coordinates": [76.25, 32.25]}, "properties": {"kind": "grid_point", "weight_km2": 615.282, "weight_imd_km2": 615.282}}, {"type": "Feature", "geometry": {"type": "Point", "coordinates": [76.5, 32.25]}, "properties": {"kind": "grid_point", "weight_km2": 318.011, "weight_imd_km2": 318.011}}, {"type": "Feature", "geometry": {"type": "Point", "coordinates": [76.75, 32.25]}, "properties": {"kind": "grid_point", "weight_km2": 200.361, "weight_imd_km2": 200.361}}, {"type": "Feature", "geometry": {"type": "Point", "coordinates": [77.0, 32.25]}, "properties": {"kind": "grid_point", "weight_km2": 359.419, "weight_imd_km2": 359.419}}, {"type": "Feature", "geometry": {"type": "Point", "coordinates": [77.25, 32.25]}, "properties": {"kind": "grid_point", "weight_km2": 565.965, "weight_imd_km2": 565.965}}, {"type": "Feature", "geometry": {"type": "Point", "coordinates": [77.5, 32.25]}, "properties": {"kind": "grid_point", "weight_km2": 186.884, "weight_imd_km2": 186.884}}, {"type": "Feature", "geometry": {"type": "Point", "coordinates": [77.75, 32.25]}, "properties": {"kind": "grid_point", "weight_km2": 8.291, "weight_imd_km2": 8.291}}, {"type": "Feature", "geometry": {"type": "Point", "coordinates": [76.0, 32.5]}, "properties": {"kind": "grid_point", "weight_km2": 7.099, "weight_imd_km2": 7.099}}, {"type": "Feature", "geometry": {"type": "Point", "coordinates": [76.25, 32.5]}, "properties": {"kind": "grid_point", "weight_km2": 46.292, "weight_imd_km2": 46.292}}, {"type": "Feature", "geometry": {"type": "Point", "coordinates": [77.0, 32.5]}, "properties": {"kind": "grid_point", "weight_km2": 13.768, "weight_imd_km2": 13.768}}, {"type": "Feature", "geometry": {"type": "Point", "coordinates": [77.25, 32.5]}, "properties": {"kind": "grid_point", "weight_km2": 26.687, "weight_imd_km2": 26.687}}]}