{"type": "FeatureCollection", "features": [{"type": "Feature", "geometry": {"type": "Polygon", "coordinates": [[[76.48090888129343, 32.25381334092884], [76.47742445203995, 32.25035332573787], [76.46495022243926, 32.24964667426217], [76.45242445203996, 32.262146674262176], [76.4475755479601, 32.262853325737865], [76.44409111870662, 32.26631334092884], [76.42916666666669, 32.26666666666669], [76.42585093180341, 32.267517428927974], [76.42443271213111, 32.27304382324221], [76.41608378092451, 32.28241373697919], [76.41028951009118, 32.28390062120228], [76.40637715657554, 32.2869327121311], [76.40195617675784, 32.28806728786894], [76.39804382324222, 32.29109937879777], [76.38945617675783, 32.29223395453561], [76.38137715657555, 32.2994327121311], [76.37916666666669, 32.30000000000002], [76.3783157348633, 32.3033159044054], [76.37500000000003, 32.30416666666669], [76.37464667426218, 32.30659111870662], [76.36701999240454, 32.31424221462676], [76.36631334092884, 32.319091118706616], [76.36285332573787, 32.32257554796009], [76.36250000000003, 32.325000000000024], [76.3600755479601, 32.325353325737865], [76.35659111870662, 32.32881334092884], [76.35416666666669, 32.32916666666669], [76.35381334092884, 32.33159111870662], [76.34829016791453, 32.33714192708335], [76.34340888129343, 32.33785332573787], [76.33992445203995, 32.34131334092884], [76.33578711615671, 32.34201999240454], [76.33159111870663, 32.33785332573787], [76.3232871161567, 32.33714667426217], [76.31909111870662, 32.34131334092884], [76.3107871161567, 32.34201999240454], [76.30659111870662, 32.33785332573787], [76.29828711615671, 32.33714667426217], [76.29409111870662, 32.34131334092884], [76.29166666666669, 32.34166666666669], [76.29131334092884, 32.34409111870662], [76.28785332573787, 32.34757554796009], [76.28714667426217, 32.36075778537329], [76.28368665907121, 32.364242214626756], [76.28298000759551, 32.36909111870662], [76.27745683458119, 32.37464192708335], [76.27257554796009, 32.37535332573787], [76.26909111870663, 32.37881334092884], [76.2666666666667, 32.37916666666669], [76.26250000000002, 32.37916666666669], [76.26214667426218, 32.385757785373286], [76.2586866590712, 32.389242214626755], [76.25833333333335, 32.39583333333336], [76.25416666666669, 32.39583333333336], [76.25302954779734, 32.400264485677106], [76.24804382324221, 32.396400621202275], [76.2166666666667, 32.39583333333336], [76.21250000000002, 32.39583333333336], [76.21164906819664, 32.39914923773874], [76.20612284342451, 32.400567287868945], [76.19804382324222, 32.407766045464435], [76.18528951009117, 32.40890062120228], [76.1759197658963, 32.417249552408876], [76.17500000000003, 32.420833333333356], [76.15174221462676, 32.4211866590712], [76.14825778537329, 32.42464667426218], [76.14583333333336, 32.425000000000026], [76.14369828965931, 32.42564290364586], [76.13035753038197, 32.437711249457486], [76.12852393256296, 32.44380154079863], [76.12502356635201, 32.44873826768666], [76.1186982896593, 32.45064290364586], [76.11463504367407, 32.453523763020854], [76.10913119845922, 32.45518086751304], [76.10769059922963, 32.46463487413197], [76.10480940077042, 32.46869845920141], [76.10338999430341, 32.482613457573805], [76.08119828965931, 32.48397623697919], [76.07713504367406, 32.48685709635419], [76.0541666666667, 32.487500000000026], [76.05381334092884, 32.49409111870662], [76.05035332573787, 32.49757554796009], [76.04964667426218, 32.50242445203995], [76.04201999240453, 32.51007554796009], [76.04131334092884, 32.514924452039956], [76.03785332573787, 32.518408881293425], [76.03750000000002, 32.52500000000002], [76.02083333333337, 32.52500000000002], [76.01840888129344, 32.52464667426217], [76.0128580729167, 32.51912367078995], [76.01250000000005, 32.51666666666669], [76.01164923773875, 32.51335076226131], [76.00501742892799, 32.51164923773874], [76.00324707031254, 32.504749552408875], [75.99387715657556, 32.49640062120228], [75.98945617675786, 32.49526604546443], [75.97709486219622, 32.48379313151044], [75.97290785047747, 32.48703816731773], [75.9647104899089, 32.47973395453561], [75.93528951009118, 32.47859937879777], [75.93137715657556, 32.47556728786895], [75.92695617675786, 32.4744327121311], [75.92304382324222, 32.47140062120228], [75.91338738335507, 32.47012498643665], [75.91164923773876, 32.46335076226131], [75.90501742892799, 32.46164923773874], [75.90331590440542, 32.455017428927974], [75.90000000000003, 32.45416666666669], [75.90000000000003, 32.450000000000024], [75.8975755479601, 32.449646674262176], [75.89409111870664, 32.4461866590712], [75.88507554796011, 32.445480007595506], [75.88159111870664, 32.44201999240454], [75.87674221462677, 32.44131334092884], [75.87119140625003, 32.435790337456616], [75.87048000759552, 32.430908881293426], [75.86495293511288, 32.42535400390627], [75.83924221462678, 32.42464667426218], [75.82952440049917, 32.41495496961808], [75.82881334092886, 32.41007554796009], [75.82329033745664, 32.40452473958336], [75.81840888129344, 32.40381334092884], [75.81492445203996, 32.40035332573787], [75.80245090060768, 32.39964667426217], [75.79409111870663, 32.407980007595505], [75.78750000000004, 32.40833333333335], [75.78714667426219, 32.40174221462676], [75.78368665907122, 32.39825778537329], [75.78298000759553, 32.389242214626755], [75.77951999240454, 32.385757785373286], [75.77881334092885, 32.38090888129342], [75.77118665907122, 32.37325778537328], [75.77083333333337, 32.37083333333336], [75.76666666666671, 32.37083333333336], [75.76631334092886, 32.368408881293426], [75.76285332573788, 32.36492445203995], [75.76214667426218, 32.36007554796009], [75.75834791395403, 32.356250000000024], [75.76248541937937, 32.352083333333354], [75.75868665907122, 32.348257785373285], [75.75798000759552, 32.34340888129343], [75.75451999240455, 32.33992445203995], [75.75381334092886, 32.330908881293425], [75.75035332573788, 32.32742445203995], [75.74964226616757, 32.32254604763457], [75.72742445203997, 32.300353325737866], [75.7225755479601, 32.29964667426218], [75.71909111870663, 32.2961866590712], [75.71424221462678, 32.29548000759551], [75.70659111870663, 32.28785332573787], [75.6975755479601, 32.287146674262175], [75.69409111870664, 32.2836866590712], [75.68507554796011, 32.282980007595505], [75.67742445203997, 32.27535332573787], [75.66840888129344, 32.27464667426217], [75.66492445203997, 32.271186659071205], [75.6600755479601, 32.27048000759551], [75.65659111870663, 32.267019992404535], [75.64340888129344, 32.26631334092884], [75.63992445203996, 32.262853325737865], [75.6350755479601, 32.262146674262176], [75.62742445203996, 32.25451999240453], [75.60590888129343, 32.25381334092884], [75.59825778537329, 32.2461866590712], [75.59583333333337, 32.24583333333335], [75.59548000759553, 32.243408881293426], [75.59201999240454, 32.23992445203995], [75.59131334092885, 32.23507554796009], [75.58785332573788, 32.23159111870662], [75.58714667426219, 32.22674221462675], [75.57535332573788, 32.21492445203995], [75.57464667426218, 32.205908881293425], [75.57118665907122, 32.20242445203995], [75.57048000759552, 32.19340888129342], [75.56631334092886, 32.18921305338544], [75.56701999240455, 32.180908881293426], [75.57048000759552, 32.17742445203995], [75.57118665907122, 32.16840888129342], [75.57464667426218, 32.16492445203995], [75.57500000000003, 32.16250000000002], [75.56424221462677, 32.162146674262175], [75.55659111870663, 32.15451999240453], [75.55174221462677, 32.15381334092884], [75.5482577853733, 32.15035332573787], [75.54340888129343, 32.14964667426217], [75.53992445203997, 32.1461866590712], [75.52500000000003, 32.14583333333336], [75.524112616645, 32.14929165310332], [75.51445617675785, 32.150567287868945], [75.50947062174482, 32.15443115234377], [75.50719604492191, 32.14556884765627], [75.50221048990889, 32.149432712131095], [75.49489610460073, 32.150567287868945], [75.48554382324222, 32.14223395453561], [75.48038160536028, 32.14109937879776], [75.47859937879778, 32.148043823242205], [75.4740400526259, 32.1535108778212], [75.46028951009117, 32.15473395453561], [75.45637715657556, 32.15776604546443], [75.44778951009118, 32.15890062120228], [75.43971048990889, 32.16609937879776], [75.43454827202694, 32.16723395453561], [75.43219604492191, 32.15806884765627], [75.42721048990889, 32.1619327121311], [75.41862284342452, 32.16306728786894], [75.41471048990888, 32.16609937879776], [75.41175333658857, 32.16723395453561], [75.40637715657556, 32.16306728786894], [75.38528951009118, 32.1619327121311], [75.38137715657555, 32.15890062120228], [75.3791666666667, 32.15833333333335], [75.37570834689673, 32.15922071668839], [75.37443271213111, 32.16887715657554], [75.37140062120228, 32.172789510091164], [75.37026604546445, 32.17721048990887], [75.36723395453562, 32.1811228434245], [75.3666666666667, 32.18750000000002], [75.3666666666667, 32.191666666666684], [75.36998257107209, 32.19251742892797], [75.37083333333337, 32.195833333333354], [75.37329033745662, 32.19619140625002], [75.37881334092886, 32.201742214626755], [75.37952440049916, 32.206621636284744], [75.38924221462676, 32.21631334092884], [75.3916666666667, 32.21666666666669], [75.39131334092885, 32.227424452039955], [75.38785332573788, 32.23090888129342], [75.38750000000003, 32.23750000000002], [75.38806728786895, 32.25637715657554], [75.39109937879778, 32.26028951009117], [75.39232245551219, 32.27404005262589], [75.39778951009117, 32.278599378797765], [75.40345831977, 32.280054050021725], [75.40486891004778, 32.290731472439255], [75.42278951009118, 32.30776604546443], [75.42721048990889, 32.30890062120228], [75.43528951009118, 32.316099378797766], [75.44804382324222, 32.31723395453561], [75.46028951009117, 32.32859937879776], [75.46471048990888, 32.32973395453561], [75.47278951009118, 32.3369327121311], [75.47852105034725, 32.338403659396725], [75.49109937879777, 32.35195617675783], [75.49223395453562, 32.35637715657554], [75.50776604546445, 32.37278951009117], [75.50890062120229, 32.402210489908875], [75.51193271213111, 32.4061228434245], [75.51306728786896, 32.41054382324221], [75.51609937879778, 32.41445617675784], [75.51723395453563, 32.41887715657554], [75.52443271213112, 32.426956176757834], [75.52556728786895, 32.43554382324221], [75.52859937879778, 32.43945617675784], [75.52973395453563, 32.44804382324221], [75.53276604546444, 32.45195617675783], [75.53430107964414, 32.45793728298614], [75.54092000325524, 32.463067287868945], [75.54387715657556, 32.4619327121311], [75.54778951009118, 32.45890062120228], [75.55833333333337, 32.45833333333336], [75.56054382324223, 32.45890062120228], [75.56862284342452, 32.466099378797765], [75.57304382324222, 32.467233954535615], [75.57695617675785, 32.470266045464435], [75.58248257107208, 32.47168409559464], [75.58333333333337, 32.47500000000002], [75.58368665907122, 32.48159111870662], [75.59131334092885, 32.489242214626756], [75.59201999240454, 32.49825778537328], [75.59548000759553, 32.50174221462676], [75.59583333333337, 32.50416666666669], [75.59668409559465, 32.507482571072075], [75.60000000000004, 32.508333333333354], [75.60331590440542, 32.50918409559464], [75.6041666666667, 32.512500000000024], [75.6166666666667, 32.512500000000024], [75.61631334092885, 32.514924452039956], [75.61079033745663, 32.52047526041669], [75.60833333333336, 32.52083333333336], [75.60776604546444, 32.531377156575545], [75.60056728786896, 32.53945617675784], [75.5994327121311, 32.54260389539933], [75.60891621907555, 32.55324707031252], [75.61581590440542, 32.555017428927975], [75.61723395453562, 32.56054382324221], [75.62859937879777, 32.57278951009117], [75.62980448404952, 32.590760972764784], [75.63554382324222, 32.592233954535615], [75.64778951009119, 32.60359937879777], [75.65331590440542, 32.60501742892797], [75.6541666666667, 32.608333333333356], [75.66054382324222, 32.60890062120228], [75.66862284342452, 32.61609937879777], [75.67721048990889, 32.617233954535614], [75.68528951009118, 32.6244327121311], [75.6949137369792, 32.62570427788631], [75.69943271213111, 32.63112284342451], [75.70091552734378, 32.63690151638457], [75.72083333333337, 32.637500000000024], [75.72199198404951, 32.641552734375026], [75.72700636121965, 32.645215861002626], [75.73321940104171, 32.64699198404951], [75.73688252766931, 32.65200636121964], [75.7382941351997, 32.66170586480037], [75.74799363878041, 32.663117472330754], [75.75617302788632, 32.67021586100263], [75.75833333333337, 32.670833333333356], [75.75776604546445, 32.67304382324221], [75.75473395453562, 32.676956176757834], [75.75326097276479, 32.68269551595054], [75.73528951009118, 32.683900621202284], [75.72721048990888, 32.691099378797766], [75.72154168023008, 32.69255405002173], [75.72012498643667, 32.70327928331166], [75.71445617675785, 32.70473395453561], [75.7022104899089, 32.716099378797765], [75.69778951009118, 32.717233954535615], [75.67304382324222, 32.74109937879777], [75.667517428928, 32.742517428927975], [75.66609937879778, 32.74804382324221], [75.65890062120229, 32.75612284342451], [75.65776604546444, 32.763246663411486], [75.66203138563371, 32.768750000000026], [75.65890062120229, 32.77278951009117], [75.65833333333337, 32.77500000000003], [75.65922071668841, 32.77845831976999], [75.66994594997833, 32.77987501356339], [75.67168409559466, 32.78664923773874], [75.67721048990889, 32.78806728786895], [75.68112284342452, 32.79109937879777], [75.68554382324223, 32.79223395453562], [75.69106275770403, 32.796836344401065], [75.6916666666667, 32.81250000000003], [75.69223395453562, 32.83554382324221], [75.69536471896706, 32.83958333333336], [75.69223395453562, 32.843622843424505], [75.69081590440541, 32.84914923773874], [75.68399454752608, 32.85089959038631], [75.68333333333337, 32.85833333333336], [75.68333333333337, 32.862500000000026], [75.68992445203996, 32.86285332573787], [75.69340888129344, 32.86631334092885], [75.69583333333337, 32.866666666666696], [75.69649454752607, 32.87410040961374], [75.7022104899089, 32.87556728786895], [75.70758666992191, 32.87973395453562], [75.7157870822483, 32.878427802191865], [75.7166666666667, 32.87500000000003], [75.72083333333337, 32.87500000000003], [75.7291666666667, 32.87500000000003], [75.73750000000004, 32.87500000000003], [75.74409111870663, 32.875353325737876], [75.75590888129344, 32.887146674262176], [75.7607577853733, 32.88785332573787], [75.76495361328129, 32.89201999240454], [75.76909111870663, 32.891313340928846], [75.77328694661462, 32.887146674262176], [75.77742445203997, 32.88785332573787], [75.78090888129344, 32.891313340928846], [75.7916666666667, 32.891666666666694], [75.79223395453563, 32.90221048990888], [75.80370686848963, 32.91457180447051], [75.80046861436635, 32.918750000000024], [75.80456271701392, 32.92403225368926], [75.81183878580732, 32.92589959038631], [75.81306728786896, 32.93971048990888], [75.81609937879777, 32.94362284342451], [75.8166666666667, 32.94583333333336], [75.82410040961375, 32.94517211914065], [75.82500000000003, 32.94166666666669], [75.8272104899089, 32.94109937879777], [75.83112284342451, 32.93806728786895], [75.83664923773875, 32.93664923773874], [75.83838738335507, 32.9298750135634], [75.84804382324222, 32.92859937879777], [75.85195617675785, 32.92556728786895], [75.87721048990889, 32.9244327121311], [75.88528951009118, 32.91723395453562], [75.8897104899089, 32.91609937879777], [75.89362284342451, 32.91306728786895], [75.90637715657556, 32.911932712131104], [75.91028951009119, 32.908900621202285], [75.91598951551653, 32.90743781195749], [75.93276604546445, 32.88971048990888], [75.93430107964413, 32.88372938368058], [75.93945617675784, 32.87973395453562], [75.94387715657555, 32.878599378797766], [75.94778951009118, 32.87556728786895], [75.95000000000003, 32.87500000000003], [75.95833333333336, 32.87500000000003], [75.95918426513674, 32.878315904405405], [75.96471048990888, 32.87973395453562], [75.97278951009116, 32.8869327121311], [75.97721048990887, 32.88806728786895], [75.98528951009116, 32.89526604546444], [75.99387715657554, 32.89640062120228], [75.99778951009117, 32.8994327121311], [76.00221048990888, 32.90056728786895], [76.01028951009117, 32.907766045464435], [76.01471048990888, 32.908900621202285], [76.0186228434245, 32.911932712131104], [76.02916666666668, 32.91250000000002], [76.02916666666668, 32.91666666666669], [76.03267211914064, 32.917566257052975], [76.03333333333336, 32.925000000000026], [76.03369140625003, 32.92745700412329], [76.03924221462675, 32.93298000759551], [76.04409111870662, 32.933686659071206], [76.0475755479601, 32.93714667426218], [76.05242445203996, 32.937853325737876], [76.05590888129342, 32.94131334092884], [76.05833333333335, 32.94166666666669], [76.06164906819664, 32.94251742892798], [76.06335093180341, 32.949149237738744], [76.06887715657554, 32.95056728786895], [76.07278951009117, 32.95359937879777], [76.08137715657554, 32.95473395453562], [76.08528951009117, 32.95776604546444], [76.09166666666668, 32.95833333333336], [76.09201999240453, 32.96075778537329], [76.09964667426217, 32.96840888129343], [76.10035332573787, 32.97325778537329], [76.10381334092884, 32.97674221462676], [76.10451999240453, 32.98575778537329], [76.10798000759551, 32.98924221462676], [76.10833333333336, 33.00833333333336], [76.14387715657554, 33.007766045464436], [76.14778951009117, 33.00473395453562], [76.16324666341148, 33.00359937879777], [76.1686228434245, 33.007766045464436], [76.17304382324221, 33.00890062120229], [76.17819892035592, 33.01289605034725], [76.18030378553605, 33.02109781901044], [76.18528951009117, 33.01723395453562], [76.21324666341148, 33.01609937879777], [76.2186228434245, 33.02026604546444], [76.22414906819664, 33.021684095594644], [76.22500000000002, 33.02500000000003], [76.22916666666669, 33.02500000000003], [76.23660040961374, 33.024338785807316], [76.23750000000003, 33.02083333333336], [76.23785332573787, 33.01840888129343], [76.24131334092884, 33.014924452039956], [76.24201999240454, 32.997575547960096], [76.25381334092884, 32.98575778537329], [76.25416666666669, 32.98333333333336], [76.25659111870662, 32.98368665907121], [76.2607871161567, 32.98785332573787], [76.28159111870661, 32.98714667426218], [76.28507554796009, 32.98368665907121], [76.30659111870662, 32.982980007595515], [76.3100755479601, 32.97951999240454], [76.31492445203996, 32.978813340928845], [76.31840888129342, 32.97535332573787], [76.3416666666667, 32.97500000000003], [76.34201999240454, 32.9725755479601], [76.35035332573787, 32.964215766059056], [76.34964667426217, 32.95174221462676], [76.33749898274742, 32.9395694308811], [76.34757554796009, 32.92951999240454], [76.35242445203995, 32.92881334092885], [76.35590888129343, 32.92535332573787], [76.36492445203996, 32.92464667426218], [76.36840888129343, 32.9211866590712], [76.38162044949004, 32.9204783121745], [76.38714667426218, 32.914924452039955], [76.38750000000003, 32.91250000000002], [76.38714667426218, 32.90590888129343], [76.3836866590712, 32.90242445203996], [76.3829800075955, 32.89340888129343], [76.37535332573788, 32.885757785373286], [76.37464667426218, 32.87674221462676], [76.3711866590712, 32.87325778537329], [76.37048000759552, 32.868408881293426], [76.36701999240454, 32.86492445203996], [76.36631334092884, 32.86007554796009], [76.36285332573787, 32.856591118706625], [76.36250000000003, 32.85416666666669], [76.36250000000003, 32.84583333333336], [76.36285332573787, 32.835075547960095], [76.36631334092884, 32.831591118706626], [76.36666666666669, 32.82083333333336], [76.37022586398658, 32.81991984049482], [76.37083333333337, 32.80416666666669], [76.37328847249351, 32.80380893283423], [76.3829800075955, 32.794091118706625], [76.38333333333335, 32.79166666666669], [76.3836866590712, 32.78924221462676], [76.38714667426218, 32.78575778537329], [76.38785332573788, 32.76424221462676], [76.39131334092885, 32.760757785373286], [76.3916666666667, 32.75000000000003], [76.39571940104169, 32.74884134928388], [76.3993823581272, 32.74382697211374], [76.40070563422312, 32.72580702039933], [76.4104934692383, 32.7243825276693], [76.41450653076174, 32.721450805664084], [76.42053663465714, 32.719726901584224], [76.42854902479387, 32.710493638780406], [76.42916666666669, 32.70833333333336], [76.42951999240454, 32.70174221462676], [76.4333187527127, 32.69791666666669], [76.42951999240454, 32.69409111870662], [76.42881334092884, 32.68924221462676], [76.42501356336808, 32.68541564941409], [76.44131334092884, 32.66909111870662], [76.44166666666669, 32.65833333333336], [76.44409111870662, 32.65798000759551], [76.4482871161567, 32.65381334092884], [76.47742445203995, 32.65451999240454], [76.48090888129343, 32.65798000759551], [76.4857577853733, 32.65868665907121], [76.48924221462676, 32.662146674262175], [76.49825778537328, 32.66285332573787], [76.50245378282338, 32.66701999240454], [76.50659111870662, 32.666313340928845], [76.51041666666669, 32.66251458062068], [76.51424221462676, 32.666313340928845], [76.5291666666667, 32.66666666666669], [76.53001759847008, 32.66335076226131], [76.53554382324221, 32.6619327121311], [76.53945617675784, 32.65890062120228], [76.54804382324221, 32.657766045464435], [76.55195617675784, 32.654733954535615], [76.55833333333337, 32.65416666666669], [76.56075778537328, 32.65381334092884], [76.56424221462676, 32.65035332573787], [76.57325778537329, 32.64964667426218], [76.57674221462676, 32.646186659071205], [76.58159111870663, 32.64548000759551], [76.5850755479601, 32.642019992404535], [76.58995683458119, 32.641308593750026], [76.59548000759551, 32.635757785373286], [76.59618665907121, 32.622575547960096], [76.59964667426217, 32.61909111870662], [76.60035569932728, 32.61004536946617], [76.60590888129343, 32.60451999240454], [76.6232866075304, 32.60381232367624], [76.62915242513023, 32.597917005750894], [76.62535332573788, 32.59409111870662], [76.62500000000003, 32.575000000000024], [76.63554382324222, 32.57556728786895], [76.63945617675785, 32.57859937879777], [76.64387715657554, 32.57973395453561], [76.64925333658857, 32.58390062120228], [76.65743069118926, 32.582598198784744], [76.67026604546443, 32.568877156575546], [76.67204827202694, 32.561932712131096], [76.68137715657555, 32.56306728786895], [76.68675333658857, 32.56723395453562], [76.6949408637153, 32.56592983669707], [76.6994327121311, 32.56054382324221], [76.70070427788632, 32.55091959635419], [76.70612284342451, 32.54640062120228], [76.7121041191949, 32.54486558702259], [76.71609937879776, 32.53971048990888], [76.7166666666667, 32.53750000000002], [76.71909111870663, 32.53785332573787], [76.72257554796009, 32.541313340928845], [76.72500000000002, 32.54166666666669], [76.72742445203995, 32.54201999240453], [76.73090888129343, 32.54548000759551], [76.7357577853733, 32.5461866590712], [76.73924221462677, 32.54964667426218], [76.74409111870662, 32.55035332573787], [76.7475755479601, 32.55381334092884], [76.75242445203996, 32.554519992404536], [76.75590888129344, 32.55798000759551], [76.75833333333335, 32.55833333333336], [76.75869106716583, 32.5558783637153], [76.76840888129342, 32.5461866590712], [76.79583333333336, 32.545833333333356], [76.79618818495011, 32.53921305338544], [76.80245225694448, 32.53298000759551], [76.81492445203996, 32.5336866590712], [76.81912044949004, 32.53785332573787], [76.82325778537329, 32.537146674262175], [76.8357835557726, 32.52464667426217], [76.84825778537329, 32.52535332573787], [76.85174221462677, 32.52881334092884], [76.8607577853733, 32.52951999240454], [76.86458435058597, 32.5333197699653], [76.88090888129344, 32.517019992404535], [76.8916666666667, 32.51666666666669], [76.8916666666667, 32.50416666666669], [76.88835076226131, 32.503315904405405], [76.88750000000003, 32.50000000000002], [76.88714497884118, 32.493379720052104], [76.88159111870662, 32.48785332573787], [76.87916666666669, 32.487500000000026], [76.87916666666669, 32.479166666666686], [76.88159111870662, 32.478813340928845], [76.90174221462676, 32.458686659071205], [76.90662367078995, 32.45797526041669], [76.91214667426217, 32.452424452039956], [76.91285332573787, 32.426742214626756], [76.91631334092885, 32.42325778537329], [76.91702440049916, 32.4183783637153], [76.92674221462677, 32.4086866590712], [76.9291666666667, 32.40833333333335], [76.93001742892798, 32.411649237738736], [76.93554382324221, 32.41306728786895], [76.93945617675784, 32.41609937879777], [76.94387715657555, 32.41723395453561], [76.95195617675785, 32.4244327121311], [76.96887715657554, 32.425567287868944], [76.97278951009118, 32.42859937879776], [76.98137715657555, 32.429733954535614], [76.98528951009118, 32.43276604546443], [76.99387715657555, 32.43390062120228], [76.99778951009118, 32.436932712131096], [77.01054382324222, 32.43806728786895], [77.01592000325523, 32.44223395453561], [77.02821723090281, 32.44099833170575], [77.03276604546444, 32.43554382324221], [77.03390062120229, 32.431122843424504], [77.0369327121311, 32.42721048990887], [77.03840365939674, 32.4214789496528], [77.0529954698351, 32.40793592664933], [77.05538160536027, 32.41723395453561], [77.07409362792971, 32.41603190104169], [77.07500000000003, 32.41250000000002], [77.07854309082035, 32.4115909152561], [77.0791666666667, 32.40000000000002], [77.07585076226131, 32.39914923773874], [77.07443271213111, 32.3936228434245], [77.05056728786896, 32.36887715657554], [77.04943271213111, 32.364456176757834], [77.04640062120228, 32.36054382324221], [77.04526604546444, 32.35342000325523], [77.04943271213111, 32.34804382324221], [77.05056728786896, 32.3436228434245], [77.05456271701392, 32.33846774631078], [77.06164923773875, 32.33664923773874], [77.06250000000003, 32.33333333333336], [77.0618825276693, 32.322839694552975], [77.0589508056641, 32.31882697211374], [77.05740695529516, 32.313426378038216], [77.05200636121965, 32.31188252766929], [77.04799363878041, 32.30895080566408], [77.03820563422312, 32.30752631293405], [77.0368825276693, 32.28950636121964], [77.03395080566409, 32.2854936387804], [77.03240695529517, 32.280093044704884], [77.02592637803822, 32.278240288628496], [77.02500000000003, 32.27500000000002], [77.02535332573788, 32.268408881293425], [77.02881334092885, 32.26492445203995], [77.02952067057295, 32.23921373155384], [77.0350755479601, 32.2336866590712], [77.0399570041233, 32.23297526041669], [77.04548000759551, 32.227424452039955], [77.04583333333336, 32.22083333333335], [77.04583333333336, 32.21666666666669], [77.04251742892798, 32.2158159044054], [77.0408159044054, 32.20918409559464], [77.03528951009118, 32.20776604546443], [77.03137715657554, 32.20473395453561], [77.01028951009117, 32.20359937879776], [77.00637715657555, 32.20056728786894], [77.00000000000003, 32.20000000000002], [76.99914923773875, 32.2033159044054], [76.9936228434245, 32.20473395453561], [76.98971048990889, 32.20776604546443], [76.97425333658857, 32.208900621202275], [76.96887715657554, 32.20473395453561], [76.96445617675784, 32.20359937879776], [76.96054382324222, 32.20056728786894], [76.95758666992191, 32.1994327121311], [76.95221048990888, 32.20359937879776], [76.9436228434245, 32.20473395453561], [76.93554382324221, 32.211932712131095], [76.9311228434245, 32.213067287868945], [76.92721048990889, 32.216099378797765], [76.91175333658857, 32.21723395453561], [76.90637715657554, 32.213067287868945], [76.90195617675784, 32.211932712131095], [76.89387715657556, 32.20473395453561], [76.8811228434245, 32.20359937879776], [76.87721048990889, 32.20056728786894], [76.8700866699219, 32.1994327121311], [76.86471048990889, 32.20359937879776], [76.84925333658857, 32.20473395453561], [76.84387715657554, 32.20056728786894], [76.83333333333336, 32.20000000000002], [76.82589959038631, 32.20066121419273], [76.82414906819665, 32.20748257107207], [76.81751759847008, 32.20918409559464], [76.8158157348633, 32.2158159044054], [76.81028951009118, 32.21723395453561], [76.80637715657555, 32.22026604546443], [76.80195617675784, 32.22140062120228], [76.79804382324221, 32.2244327121311], [76.79583333333336, 32.22500000000002], [76.77674221462676, 32.22535332573787], [76.77325778537329, 32.22881334092884], [76.77083333333336, 32.229166666666686], [76.7666666666667, 32.229166666666686], [76.76609937879778, 32.22278951009117], [76.76306728786895, 32.218877156575545], [76.76179572211375, 32.20925292968752], [76.75637715657555, 32.20473395453561], [76.75195617675784, 32.20359937879776], [76.74804382324221, 32.20056728786894], [76.74251759847007, 32.19914923773874], [76.74109937879777, 32.1936228434245], [76.73806728786896, 32.189710489908876], [76.73750000000003, 32.18750000000002], [76.73333333333336, 32.18750000000002], [76.73248240152998, 32.190815904405405], [76.72695617675784, 32.19223395453561], [76.71887715657554, 32.1994327121311], [76.70342000325523, 32.20056728786894], [76.69804382324222, 32.19640062120228], [76.6936228434245, 32.19526604546443], [76.68425309922962, 32.18691711425783], [76.68243696424699, 32.17984042697485], [76.6700866699219, 32.17859937879776], [76.66471048990888, 32.18276604546443], [76.66028951009118, 32.18390062120228], [76.65637715657554, 32.186932712131096], [76.65000000000003, 32.18750000000002], [76.64909430609812, 32.191028849283875], [76.6311228434245, 32.19223395453561], [76.62721048990888, 32.19526604546443], [76.6186228434245, 32.19640062120228], [76.61471048990889, 32.1994327121311], [76.61250000000003, 32.20000000000002], [76.61164906819664, 32.2033159044054], [76.6061228434245, 32.20473395453561], [76.59387715657554, 32.216099378797765], [76.5916666666667, 32.21666666666669], [76.59131334092885, 32.219091118706615], [76.58785332573787, 32.22257554796009], [76.58750000000002, 32.22500000000002], [76.58090888129342, 32.22535332573787], [76.57742445203996, 32.22881334092884], [76.54340888129343, 32.22951999240453], [76.53992445203995, 32.23298000759551], [76.53333333333336, 32.233333333333356], [76.52674221462676, 32.2336866590712], [76.52325778537329, 32.23714667426217], [76.51912044949005, 32.237853325737866], [76.51492445203996, 32.2336866590712], [76.50661655002173, 32.23298000759551], [76.48992445203996, 32.24964667426217], [76.48750000000003, 32.25000000000002], [76.48664906819664, 32.253315904405405], [76.48333333333336, 32.25416666666669], [76.48090888129343, 32.25381334092884]]]}, "properties": {"kind": "catchment", "name": "Ranjit Sagar", "outlet": 4080698070, "area_km2": 6952.8, "n_subbasins": 11, "source": "HydroBASINS v1c Asia level 8 (Lehner & Grill 2013), hybas_as_lev08_v1c.zip, sha256 878c56bb4253a7c8...; upstream set of the sub-basin containing the dam"}}, {"type": "Feature", "geometry": {"type": "Point", "coordinates": [75.25, 32.25]}, "properties": {"kind": "grid_point", "weight_km2": 1.691, "weight_imd_km2": 1.691}}, {"type": "Feature", "geometry": {"type": "Point", "coordinates": [75.5, 32.25]}, "properties": {"kind": "grid_point", "weight_km2": 433.833, "weight_imd_km2": 433.833}}, {"type": "Feature", "geometry": {"type": "Point", "coordinates": [75.75, 32.25]}, "properties": {"kind": "grid_point", "weight_km2": 124.183, "weight_imd_km2": 124.183}}, {"type": "Feature", "geometry": {"type": "Point", "coordinates": [76.25, 32.25]}, "properties": {"kind": "grid_point", "weight_km2": 37.761, "weight_imd_km2": 37.761}}, {"type": "Feature", "geometry": {"type": "Point", "coordinates": [76.5, 32.25]}, "properties": {"kind": "grid_point", "weight_km2": 335.109, "weight_imd_km2": 335.109}}, {"type": "Feature", "geometry": {"type": "Point", "coordinates": [76.75, 32.25]}, "properties": {"kind": "grid_point", "weight_km2": 452.759, "weight_imd_km2": 452.759}}, {"type": "Feature", "geometry": {"type": "Point", "coordinates": [77.0, 32.25]}, "properties": {"kind": "grid_point", "weight_km2": 293.636, "weight_imd_km2": 293.636}}, {"type": "Feature", "geometry": {"type": "Point", "coordinates": [75.5, 32.5]}, "properties": {"kind": "grid_point", "weight_km2": 124.104, "weight_imd_km2": 124.104}}, {"type": "Feature", "geometry": {"type": "Point", "coordinates": [75.75, 32.5]}, "properties": {"kind": "grid_point", "weight_km2": 600.303, "weight_imd_km2": 600.303}}, {"type": "Feature", "geometry": {"type": "Point", "coordinates": [76.0, 32.5]}, "properties": {"kind": "grid_point", "weight_km2": 370.383, "weight_imd_km2": 370.383}}, {"type": "Feature", "geometry": {"type": "Point", "coordinates": [76.25, 32.5]}, "properties": {"kind": "grid_point", "weight_km2": 600.605, "weight_imd_km2": 600.605}}, {"type": "Feature", "geometry": {"type": "Point", "coordinates": [76.5, 32.5]}, "properties": {"kind": "grid_point", "weight_km2": 645.903, "weight_imd_km2": 645.903}}, {"type": "Feature", "geometry": {"type": "Point", "coordinates": [76.75, 32.5]}, "properties": {"kind": "grid_point", "weight_km2": 455.419, "weight_imd_km2": 455.419}}, {"type": "Feature", "geometry": {"type": "Point", "coordinates": [77.0, 32.5]}, "properties": {"kind": "grid_point", "weight_km2": 124.282, "weight_imd_km2": 124.282}}, {"type": "Feature", "geometry": {"type": "Point", "coordinates": [75.75, 32.75]}, "properties": {"kind": "grid_point", "weight_km2": 458.457, "weight_imd_km2": 458.457}}, {"type": "Feature", "geometry": {"type": "Point", "coordinates": [76.0, 32.75]}, "properties": {"kind": "grid_point", "weight_km2": 649.568, "weight_imd_km2": 649.568}}, {"type": "Feature", "geometry": {"type": "Point", "coordinates": [76.25, 32.75]}, "properties": {"kind": "grid_point", "weight_km2": 643.365, "weight_imd_km2": 643.365}}, {"type": "Feature", "geometry": {"type": "Point", "coordinates": [76.5, 32.75]}, "properties": {"kind": "grid_point", "weight_km2": 124.294, "weight_imd_km2": 124.294}}, {"type": "Feature", "geometry": {"type": "Point", "coordinates": [75.75, 33.0]}, "properties": {"kind": "grid_point", "weight_km2": 52.832, "weight_imd_km2": 52.832}}, {"type": "Feature", "geometry": {"type": "Point", "coordinates": [76.0, 33.0]}, "properties": {"kind": "grid_point", "weight_km2": 122.314, "weight_imd_km2": 122.314}}, {"type": "Feature", "geometry": {"type": "Point", "coordinates": [76.25, 33.0]}, "properties": {"kind": "grid_point", "weight_km2": 298.756, "weight_imd_km2": 298.756}}, {"type": "Feature", "geometry": {"type": "Point", "coordinates": [76.5, 33.0]}, "properties": {"kind": "grid_point", "weight_km2": 3.201, "weight_imd_km2": 3.201}}]}