{"type": "FeatureCollection", "features": [{"type": "Feature", "geometry": {"type": "Polygon", "coordinates": [[[75.81028951009118, 30.958900621202282], [75.80637715657556, 30.9619327121311], [75.79778951009118, 30.96306728786895], [75.79387715657556, 30.966099378797768], [75.76862284342451, 30.967233954535615], [75.7647104899089, 30.970266045464435], [75.7575866699219, 30.971400621202285], [75.75221048990889, 30.967233954535615], [75.74925333658858, 30.966099378797768], [75.74387715657555, 30.970266045464435], [75.74072943793406, 30.971400621202285], [75.73137715657556, 30.96306728786895], [75.70538160536027, 30.9619327121311], [75.70416666666671, 30.966666666666693], [75.68090888129343, 30.96701999240454], [75.67742445203997, 30.970480007595512], [75.65245361328128, 30.971186659071208], [75.6482577853733, 30.96701999240454], [75.64583333333337, 30.966666666666693], [75.64495374891497, 30.969587537977457], [75.64134487575959, 30.971476236979193], [75.63546820746531, 30.967309570312526], [75.61869845920143, 30.96602376302086], [75.61463487413198, 30.96314290364586], [75.60384487575958, 30.961857096354194], [75.59796820746531, 30.96602376302086], [75.59551154242625, 30.967309570312526], [75.58963487413197, 30.96314290364586], [75.55619845920143, 30.961857096354194], [75.55213487413198, 30.958976236979193], [75.53424886067712, 30.957690429687528], [75.53333333333337, 30.966666666666693], [75.53333333333337, 30.97083333333336], [75.53390062120229, 30.981377156575547], [75.5369327121311, 30.98528951009117], [75.53806728786896, 30.993877156575547], [75.54109937879778, 30.997789510091174], [75.54223395453562, 31.014710489908882], [75.54526604546444, 31.018622843424506], [75.5464006212023, 31.023043823242215], [75.55017734103735, 31.027916802300375], [75.55491333007816, 31.02973395453562], [75.56028951009118, 31.025567287868952], [75.58407999674483, 31.0244327121311], [75.58958333333337, 31.028698052300374], [75.59362284342451, 31.025567287868952], [75.60637715657556, 31.0244327121311], [75.61028951009118, 31.021400621202282], [75.62574666341149, 31.020266045464435], [75.63112284342452, 31.0244327121311], [75.63554382324222, 31.025567287868952], [75.63945617675785, 31.02859937879777], [75.64387715657556, 31.02973395453562], [75.65612284342451, 31.04109937879777], [75.65907999674482, 31.042233954535618], [75.66552937825524, 31.037235514322944], [75.6666666666667, 31.041666666666693], [75.68992445203996, 31.041313340928845], [75.69340888129344, 31.037853325737874], [75.69583333333337, 31.037500000000026], [75.6967207166884, 31.04095831976999], [75.70637715657556, 31.042233954535618], [75.71028951009119, 31.045266045464437], [75.71994594997834, 31.046541680230064], [75.72140062120229, 31.05221048990888], [75.7259195963542, 31.057629055447077], [75.736612616645, 31.059041680230063], [75.73806728786896, 31.064710489908883], [75.74109937879778, 31.068622843424507], [75.7416666666667, 31.07083333333336], [75.74201999240455, 31.07325778537329], [75.74548000759552, 31.076742214626762], [75.74583333333337, 31.079166666666694], [75.74804382324223, 31.07859937879777], [75.75195617675784, 31.07556728786895], [75.76158040364587, 31.074295722113742], [75.76609937879778, 31.06887715657555], [75.76755405002174, 31.06320834689673], [75.7772104899089, 31.061932712131103], [75.78112284342451, 31.058900621202284], [75.78333333333337, 31.058333333333362], [75.78390062120229, 31.060543823242213], [75.78693271213112, 31.06445617675784], [75.78840908474396, 31.070209757487007], [75.81054382324223, 31.071400621202283], [75.81445617675784, 31.074432712131102], [75.82157999674483, 31.07556728786895], [75.8270921495226, 31.071295166015652], [75.83528951009119, 31.07859937879777], [75.8397104899089, 31.07973395453562], [75.84375000000004, 31.08286471896704], [75.84778951009119, 31.07973395453562], [75.86054382324222, 31.07859937879777], [75.86445617675786, 31.07556728786895], [75.87378506130646, 31.074432712131102], [75.87589959038633, 31.082672119140653], [75.89076707628043, 31.083994547526068], [75.89166666666671, 31.087500000000027], [75.89387715657556, 31.086932712131105], [75.89886271158858, 31.08306884765628], [75.90000000000003, 31.087500000000027], [75.9357577853733, 31.08714667426218], [75.93924221462677, 31.08368665907121], [75.95416666666671, 31.08333333333336], [75.95632697211376, 31.083950805664088], [75.96592983669709, 31.092284138997424], [75.97716030544709, 31.091049194335966], [75.98533969455299, 31.083950805664088], [75.99382697211375, 31.082715861002633], [75.99953070746531, 31.078549194335963], [76.01049363878042, 31.079784138997425], [76.01619737413198, 31.083950805664088], [76.02403971354171, 31.082525634765652], [76.02615865071618, 31.075113932291693], [76.03117302788633, 31.07145080566409], [76.04503072102868, 31.07009819878475], [76.04660169813371, 31.05930514865454], [76.05216030544709, 31.05771586100263], [76.05617302788632, 31.054784138997423], [76.06666666666669, 31.054166666666696], [76.06887715657554, 31.054733954535617], [76.07278951009117, 31.057766045464437], [76.09076097276478, 31.05897115071617], [76.09166666666668, 31.06250000000003], [76.09498240152998, 31.06335076226131], [76.09583333333336, 31.066666666666695], [76.09914906819664, 31.067517428927978], [76.10085093180341, 31.074149237738744], [76.10637715657555, 31.07556728786895], [76.11028951009116, 31.07859937879777], [76.15000000000002, 31.079166666666694], [76.15833333333337, 31.079166666666694], [76.15924258761937, 31.075623575846382], [76.17083333333336, 31.075000000000028], [76.18242407904734, 31.075623575846382], [76.18333333333335, 31.079166666666694], [76.18554382324221, 31.07859937879777], [76.18945617675783, 31.07556728786895], [76.19387715657554, 31.074432712131102], [76.19778951009117, 31.071400621202283], [76.20345815022789, 31.069945949978326], [76.20487518310549, 31.059220716688394], [76.20833333333336, 31.058333333333362], [76.21882680257164, 31.05771586100263], [76.2245308770074, 31.053549194335965], [76.23670010036895, 31.05492011176218], [76.23830702039933, 31.065961032443603], [76.25632680257164, 31.067284138997422], [76.26450653076174, 31.0743825276693], [76.2666666666667, 31.075000000000028], [76.26998240152997, 31.07585076226131], [76.27168426513674, 31.082482571072077], [76.27721048990888, 31.083900621202286], [76.31596493191192, 31.121772257487006], [76.31723395453561, 31.13137715657555], [76.32036454942494, 31.135416666666693], [76.31723395453561, 31.13945617675784], [76.31609937879777, 31.150746663411486], [76.32026604546444, 31.15612284342451], [76.32140062120229, 31.160543823242215], [76.32859937879776, 31.168622843424508], [76.32973395453561, 31.177210489908884], [76.33276604546444, 31.181122843424507], [76.33390062120228, 31.185543823242217], [76.3369327121311, 31.18945617675784], [76.33750000000002, 31.191666666666695], [76.33992445203995, 31.192019992404543], [76.34340888129343, 31.195480007595513], [76.34825778537329, 31.19618665907121], [76.35174221462677, 31.19964667426218], [76.35416666666669, 31.200000000000028], [76.3533157348633, 31.20331573486331], [76.34778951009118, 31.20473395453562], [76.34263441297746, 31.208729214138483], [76.3416666666667, 31.212500000000027], [76.33750000000002, 31.212500000000027], [76.33683878580732, 31.219933742947077], [76.33112284342451, 31.221400621202285], [76.32175309922962, 31.229749552408883], [76.32026604546444, 31.235543823242217], [76.31723395453561, 31.23945617675784], [76.31666666666669, 31.245833333333362], [76.3100755479601, 31.245480007595514], [76.30659111870662, 31.242019992404543], [76.30245378282338, 31.241313340928848], [76.2982577853733, 31.245480007595514], [76.29340888129343, 31.24618665907121], [76.27325778537329, 31.26631334092885], [76.27083333333336, 31.266666666666694], [76.27026604546444, 31.26887715657555], [76.26723395453561, 31.272789510091176], [76.26581573486331, 31.27831573486331], [76.26250000000002, 31.279166666666697], [76.2618823581272, 31.281326802571645], [76.2580022176107, 31.2866385565864], [76.24783986409507, 31.28811764187286], [76.24382680257163, 31.291049024793868], [76.22700653076174, 31.292284308539525], [76.2229934692383, 31.295215691460534], [76.204973687066, 31.29653896755645], [76.20354902479386, 31.306326802571643], [76.20061764187285, 31.31033986409508], [76.1993823581272, 31.322993469238313], [76.19645097520619, 31.32700653076175], [76.19521569146053, 31.33966013590498], [76.19228430853951, 31.343673197428416], [76.19104902479386, 31.352160135904978], [76.18811764187285, 31.356173197428415], [76.18750000000003, 31.358333333333363], [76.18835093180341, 31.361649068196645], [76.19498240152997, 31.363350931803414], [76.19583333333335, 31.366666666666696], [76.19526604546444, 31.373043823242217], [76.19223395453561, 31.376956176757844], [76.1908157348633, 31.382482401529977], [76.18404184977216, 31.384220716688397], [76.18276604546443, 31.393877156575552], [76.1797339545356, 31.397789510091176], [76.1783157348633, 31.403315734863313], [76.17500000000004, 31.404166666666697], [76.17500000000003, 31.408333333333363], [76.17168426513675, 31.409184265136748], [76.16998240152998, 31.415815734863312], [76.1666666666667, 31.416666666666696], [76.16604309082034, 31.428257412380674], [76.16028951009118, 31.42973395453562], [76.15637715657554, 31.43276604546444], [76.15195617675784, 31.433900621202287], [76.14232143825957, 31.442639668782583], [76.14109937879776, 31.456377156575552], [76.13806728786895, 31.460289510091176], [76.1369327121311, 31.46887715657555], [76.13293745252824, 31.474032253689266], [76.12695617675783, 31.475567287868955], [76.12304382324221, 31.478599378797774], [76.12083333333337, 31.479166666666696], [76.1211866590712, 31.48159111870663], [76.12464667426218, 31.4850755479601], [76.12535332573788, 31.489212883843347], [76.1211866590712, 31.493408881293433], [76.12083333333335, 31.495833333333366], [76.11998240152997, 31.499149068196644], [76.1166666666667, 31.500000000000032], [76.11609937879777, 31.502210489908883], [76.10473395453562, 31.514456176757843], [76.10350545247398, 31.528267076280414], [76.10000000000004, 31.529166666666697], [76.09964667426217, 31.53159111870663], [76.08785332573787, 31.543408881293434], [76.08714667426217, 31.548257785373295], [76.08162350124785, 31.55380859375003], [76.07916666666671, 31.5541666666667], [76.0791666666667, 31.558333333333366], [76.07500000000005, 31.558333333333366], [76.07464667426217, 31.56492445203996], [76.06701999240454, 31.5725755479601], [76.0666666666667, 31.57500000000003], [76.06723395453561, 31.577210489908886], [76.07109798855254, 31.582196214464005], [76.06316121419273, 31.58423292371965], [76.06250000000003, 31.591666666666697], [76.06187642415367, 31.603257412380675], [76.0561228434245, 31.60473395453562], [76.03137715657554, 31.628599378797773], [76.02566121419272, 31.630066257052984], [76.0244327121311, 31.643877156575552], [76.02140062120228, 31.64778951009118], [76.02026604546444, 31.652210489908885], [76.01627078586156, 31.657365587022603], [76.01250000000005, 31.658333333333367], [76.01250000000002, 31.6791666666667], [76.01214667426217, 31.681591118706628], [76.0086866590712, 31.685075547960103], [76.0079800075955, 31.689924452039964], [75.9961866590712, 31.70174221462677], [75.9954800075955, 31.70659111870663], [75.99201999240454, 31.710075547960102], [75.99131334092884, 31.71909111870663], [75.97951999240453, 31.730908881293434], [75.9791666666667, 31.737500000000033], [75.9783157348633, 31.740815734863315], [75.97500000000004, 31.7416666666667], [75.97535332573787, 31.748257785373298], [75.98298000759551, 31.755908881293436], [75.98333333333335, 31.7666666666667], [75.98395097520618, 31.76882680257165], [75.9876139322917, 31.773841179741787], [75.99382680257163, 31.775617641872863], [76.01033986409507, 31.79104902479387], [76.0200391981337, 31.79246080186635], [76.02145097520618, 31.80216013590498], [76.0243823581272, 31.806173197428418], [76.02561764187286, 31.810493469238313], [76.02854902479386, 31.81450653076175], [76.02978430853952, 31.81882680257165], [76.03688235812719, 31.827006530761754], [76.03750000000002, 31.8291666666667], [76.0416666666667, 31.8291666666667], [76.05325741238066, 31.829790242513056], [76.05416666666669, 31.833333333333368], [76.06075778537328, 31.833686659071216], [76.06840888129342, 31.841313340928853], [76.07083333333335, 31.8416666666667], [76.07435421413848, 31.8407631768121], [76.0869327121311, 31.827210489908886], [76.08806728786895, 31.82278951009118], [76.09109937879776, 31.818877156575553], [76.09255405002172, 31.813208516438834], [76.10221048990887, 31.81193271213111], [76.1061228434245, 31.80890062120229], [76.11054382324221, 31.807766045464444], [76.11445617675784, 31.804733954535624], [76.12083333333335, 31.8041666666667], [76.1416666666667, 31.8041666666667], [76.14825778537329, 31.80381334092885], [76.15174221462676, 31.80035332573788], [76.15659111870661, 31.799646674262185], [76.16007554796009, 31.796186659071214], [76.16666666666669, 31.795833333333366], [76.16702440049916, 31.79337819417321], [76.17674221462676, 31.783686659071215], [76.18575778537328, 31.78298000759552], [76.19340888129342, 31.775353325737882], [76.19828745524092, 31.77464243570967], [76.21631334092885, 31.75659111870663], [76.21701999240454, 31.75174221462677], [76.23714667426218, 31.73159111870663], [76.23750000000003, 31.7291666666667], [76.24098951551652, 31.728271145290833], [76.25776604546444, 31.71054382324222], [76.25922071668839, 31.7048751831055], [76.26990407307945, 31.70346374511722], [76.27859937879776, 31.693877156575553], [76.27973395453562, 31.689456176757844], [76.28276604546443, 31.68554382324222], [76.28333333333336, 31.6791666666667], [76.28272586398657, 31.663413323296474], [76.27695617675784, 31.661932712131108], [76.2730438232422, 31.65890062120229], [76.25833333333335, 31.658333333333367], [76.25890062120229, 31.656122843424512], [76.2619327121311, 31.652210489908885], [76.2632042778863, 31.642586093478766], [76.26862284342451, 31.638067287868957], [76.2730438232422, 31.63693271213111], [76.2811228434245, 31.629733954535624], [76.28971048990888, 31.628599378797773], [76.29778951009116, 31.621400621202287], [76.30637715657555, 31.62026604546444], [76.31445617675784, 31.613067287868954], [76.31887715657554, 31.611932712131107], [76.32278951009117, 31.608900621202288], [76.3285837809245, 31.6074135674371], [76.33786587185332, 31.59699656168623], [76.33333333333336, 31.595833333333363], [76.33425309922963, 31.592249552408887], [76.3436228434245, 31.58390062120229], [76.34932284884985, 31.582437811957497], [76.36707916259768, 31.563675096299946], [76.35897098117407, 31.561594306098122], [76.35776604546443, 31.54362284342451], [76.35473395453562, 31.539710489908884], [76.35359937879777, 31.53112284342451], [76.34640062120228, 31.52304382324222], [76.34583333333336, 31.520833333333364], [76.34668426513674, 31.517517598470082], [76.35352088080515, 31.515763176812097], [76.36609937879777, 31.502210489908883], [76.36763441297745, 31.496229214138484], [76.37278951009117, 31.49223395453562], [76.37877078586158, 31.490698920355932], [76.38276604546444, 31.485543823242217], [76.38333333333335, 31.483333333333363], [76.38248240152997, 31.480017598470084], [76.37695617675784, 31.478599378797774], [76.37304382324221, 31.475567287868955], [76.3686228434245, 31.474432712131108], [76.36471048990887, 31.47140062120229], [76.35508609347876, 31.470129055447078], [76.35056728786896, 31.464710489908885], [76.3494327121311, 31.45612284342451], [76.34640062120228, 31.452210489908886], [76.34583333333336, 31.445833333333365], [76.34914906819664, 31.444982401529977], [76.35056728786896, 31.439456176757844], [76.35359937879777, 31.435543823242217], [76.35416666666669, 31.41250000000003], [76.35451999240453, 31.380908881293433], [76.35798000759551, 31.37742445203996], [76.35868665907121, 31.35590888129343], [76.36214667426218, 31.352424452039962], [76.36285332573787, 31.339242214626765], [76.37464667426218, 31.32742445203996], [76.37535383436418, 31.297549268934493], [76.38924221462676, 31.283686659071208], [76.39412180582684, 31.282975599500897], [76.40381334092885, 31.273257785373293], [76.40451999240454, 31.268408881293432], [76.41214667426217, 31.260757785373293], [76.41250000000002, 31.25833333333336], [76.41666666666669, 31.25833333333336], [76.42083333333336, 31.25833333333336], [76.4232577853733, 31.25868665907121], [76.42674221462676, 31.262146674262183], [76.43995208740238, 31.262854851616783], [76.44964667426218, 31.2725755479601], [76.45035332573788, 31.306591118706628], [76.45798000759551, 31.314242214626766], [76.4586866590712, 31.319091118706627], [76.46631334092885, 31.326742214626766], [76.46701999240454, 31.331591118706626], [76.47464667426217, 31.339242214626765], [76.47535807291669, 31.34412350124786], [76.48090888129343, 31.349646674262182], [76.48992445203996, 31.350353325737878], [76.49340888129343, 31.35381334092885], [76.49583333333337, 31.354166666666696], [76.49619106716582, 31.35171152750654], [76.50590888129342, 31.342019992404545], [76.51079016791452, 31.34130859375003], [76.51631334092885, 31.335757785373293], [76.51702440049915, 31.330878194173206], [76.52674221462676, 31.32118665907121], [76.5291666666667, 31.32083333333336], [76.53262481689455, 31.31994594997833], [76.53403761121965, 31.30925276014543], [76.53945617675784, 31.30473395453562], [76.55221048990889, 31.303599378797774], [76.5686228434245, 31.28806728786895], [76.57441711425784, 31.286580234103763], [76.58276604546444, 31.27721048990888], [76.58333333333336, 31.27500000000003], [76.58554382324222, 31.274432712131105], [76.59778951009118, 31.263067287868953], [76.60331573486332, 31.261649068196643], [76.60501759847008, 31.255017598470083], [76.61054382324221, 31.253599378797773], [76.61445617675784, 31.250567287868954], [76.61887715657555, 31.249432712131107], [76.62425333658857, 31.24526604546444], [76.63137715657555, 31.246400621202284], [76.6354166666667, 31.249531216091608], [76.63945617675785, 31.246400621202284], [76.64387715657554, 31.24526604546444], [76.64778951009117, 31.24223395453562], [76.65637715657554, 31.24109937879777], [76.66175333658857, 31.236932712131104], [76.66471048990888, 31.23806728786895], [76.66875000000003, 31.241197882758275], [76.67278951009118, 31.23806728786895], [76.71471048990888, 31.236932712131104], [76.71862284342451, 31.233900621202284], [76.72500000000002, 31.233333333333363], [76.72535332573787, 31.23090888129343], [76.73368665907121, 31.22254892985029], [76.73298000759551, 31.21840888129343], [76.72951999240455, 31.21492445203996], [76.7291666666667, 31.212500000000027], [76.7357577853733, 31.212146674262183], [76.73924221462677, 31.20868665907121], [76.74412350124786, 31.207975260416696], [76.74964667426218, 31.20242445203996], [76.75000000000003, 31.183333333333362], [76.75035332573788, 31.18090888129343], [76.75798000759552, 31.17325778537329], [76.7586866590712, 31.16840888129343], [76.76214667426218, 31.16492445203996], [76.76285332573788, 31.160075547960098], [76.76631334092885, 31.156591118706626], [76.7666666666667, 31.150000000000027], [76.76631334092885, 31.1475755479601], [76.76285332573788, 31.144091118706626], [76.76250000000003, 31.12500000000003], [76.76598951551652, 31.12410447862416], [76.78276604546444, 31.106377156575547], [76.78423682318797, 31.100645616319472], [76.79778951009118, 31.088067287868952], [76.8033157348633, 31.086649237738744], [76.8050723605686, 31.079804484049507], [76.82304382324222, 31.07859937879777], [76.82695617675785, 31.07556728786895], [76.83268754747182, 31.074096340603326], [76.84526604546444, 31.060543823242213], [76.84648912217885, 31.046793280707494], [76.85195617675784, 31.042233954535618], [76.85770975748702, 31.04075758192277], [76.85833333333336, 31.029166666666693], [76.86471048990889, 31.02859937879777], [76.8700866699219, 31.0244327121311], [76.87721048990889, 31.025567287868952], [76.8811228434245, 31.02859937879777], [76.88554382324222, 31.02973395453562], [76.89092000325523, 31.033900621202285], [76.90321723090281, 31.03266499837242], [76.90776604546444, 31.02721048990888], [76.90954827202694, 31.020266045464435], [76.91887715657555, 31.021400621202282], [76.92278951009118, 31.0244327121311], [76.92500000000003, 31.025000000000027], [76.92858378092451, 31.02408040364586], [76.93693271213111, 31.014710489908882], [76.93806728786895, 31.010289510091173], [76.94109937879777, 31.006377156575546], [76.94232788085941, 30.992566257052978], [76.949407280816, 30.990749443901937], [76.95059034559465, 30.94268120659725], [76.95612284342451, 30.93806728786895], [76.96573350694447, 30.93679741753475], [76.97859937879777, 30.923043823242214], [76.97973395453562, 30.914456176757838], [76.98276604546444, 30.910543823242215], [76.98333333333336, 30.904166666666693], [76.98090888129343, 30.903813340928846], [76.97325778537329, 30.896186659071205], [76.97083333333336, 30.89583333333336], [76.97118665907121, 30.89340888129343], [76.97535332573787, 30.889213053385443], [76.97464396158857, 30.880878702799507], [76.96909111870663, 30.875353325737873], [76.95590888129344, 30.87464667426218], [76.95242445203996, 30.871186659071206], [76.94754299587676, 30.870475260416693], [76.94131334092884, 30.864214409722248], [76.94201999240454, 30.860075547960093], [76.94618665907122, 30.85587972005211], [76.94547492133249, 30.851711357964437], [76.93159111870662, 30.83785332573787], [76.92674221462677, 30.83714667426218], [76.91492445203995, 30.825353325737872], [76.88333333333337, 30.825000000000024], [76.87916666666669, 30.825000000000024], [76.87500000000003, 30.825000000000024], [76.8725755479601, 30.825353325737872], [76.86909111870662, 30.828813340928846], [76.86250000000003, 30.82916666666669], [76.86164923773875, 30.832482571072074], [76.85612284342452, 30.833900621202282], [76.85221048990888, 30.8369327121311], [76.84668409559464, 30.83835076226131], [76.84526604546444, 30.843877156575545], [76.81989593505863, 30.870131429036483], [76.8092207166884, 30.87154168023006], [76.80743374294708, 30.878505452473984], [76.80000000000003, 30.87916666666669], [76.79964667426218, 30.889924452039956], [76.79618665907121, 30.89340888129343], [76.79583333333336, 30.89583333333336], [76.78924221462677, 30.896186659071205], [76.78575778537329, 30.89964667426218], [76.77674221462676, 30.900353325737875], [76.77325778537329, 30.903813340928846], [76.77083333333336, 30.904166666666693], [76.77048000759551, 30.906591118706622], [76.76701999240454, 30.910075547960094], [76.76631334092885, 30.914924452039955], [76.76079016791452, 30.920475260416694], [76.75833333333335, 30.92083333333336], [76.75744594997833, 30.924291653103325], [76.74778951009117, 30.92556728786895], [76.74387715657555, 30.92859937879777], [76.73750000000003, 30.929166666666692], [76.73690151638458, 30.949084472656278], [76.73001759847008, 30.95085076226131], [76.72859937879777, 30.95637715657555], [76.7235042995877, 30.962486775716172], [76.71887715657554, 30.958900621202282], [76.70954827202694, 30.957766045464435], [76.70776604546444, 30.96471048990888], [76.70473395453561, 30.968622843424505], [76.7041666666667, 30.97083333333336], [76.70195617675785, 30.970266045464435], [76.69804382324222, 30.967233954535615], [76.67204827202694, 30.966099378797768], [76.66998240152998, 30.974149237738743], [76.66445617675784, 30.97556728786895], [76.65637715657554, 30.982766045464437], [76.65195617675784, 30.983900621202284], [76.64804382324222, 30.986932712131104], [76.6416666666667, 30.987500000000026], [76.6350755479601, 30.987146674262178], [76.63159111870662, 30.983686659071207], [76.6225755479601, 30.98298000759551], [76.61909111870662, 30.97951999240454], [76.59757554796009, 30.978813340928845], [76.59409111870663, 30.975353325737874], [76.5850755479601, 30.97464667426218], [76.58159111870663, 30.971186659071208], [76.57083333333335, 30.97083333333336], [76.55174221462676, 30.970480007595512], [76.5482577853733, 30.96701999240454], [76.53090888129343, 30.966313340928846], [76.51492445203996, 30.950353325737872], [76.51250000000003, 30.950000000000028], [76.5061228434245, 30.949432712131102], [76.49804382324221, 30.942233954535617], [76.4950866699219, 30.94109937879777], [76.48971048990887, 30.945266045464436], [76.48038160536026, 30.946400621202283], [76.47916666666669, 30.94166666666669], [76.47674221462677, 30.941313340928847], [76.47325778537329, 30.937853325737873], [76.45662044949005, 30.93714667426218], [76.45208333333336, 30.941652086046034], [76.44825778537329, 30.937853325737873], [76.4357871161567, 30.93714667426218], [76.43159111870662, 30.941313340928847], [76.42674221462676, 30.94201999240454], [76.41909111870662, 30.94964667426218], [76.41424221462677, 30.950353325737872], [76.41075778537329, 30.953813340928846], [76.39583333333336, 30.954166666666694], [76.35590888129343, 30.954519992404542], [76.35242445203995, 30.957980007595513], [76.34412044949005, 30.95868665907121], [76.33992445203995, 30.954519992404542], [76.33578711615671, 30.953813340928846], [76.33159111870663, 30.957980007595513], [76.31840888129342, 30.95868665907121], [76.31492445203996, 30.96214667426218], [76.3107871161567, 30.962853325737875], [76.30659111870662, 30.95868665907121], [76.30416666666669, 30.95833333333336], [76.3033157348633, 30.96164923773874], [76.30000000000003, 30.962500000000027], [76.28090888129343, 30.962853325737875], [76.27742445203995, 30.966313340928846], [76.2600755479601, 30.96701999240454], [76.25659111870662, 30.970480007595512], [76.21912044949003, 30.971186659071208], [76.21492445203995, 30.96701999240454], [76.18333333333335, 30.966666666666693], [76.16424221462675, 30.96701999240454], [76.16075778537329, 30.970480007595512], [76.15174221462676, 30.971186659071208], [76.14825778537329, 30.97464667426218], [76.14583333333336, 30.975000000000026], [76.1350755479601, 30.97464667426218], [76.13159111870662, 30.971186659071208], [76.11840888129342, 30.970480007595512], [76.11492445203996, 30.96701999240454], [76.10174221462675, 30.966313340928846], [76.09825778537329, 30.962853325737875], [76.07745378282337, 30.96214667426218], [76.07291666666669, 30.966652086046032], [76.06909111870662, 30.962853325737875], [76.0600755479601, 30.96214667426218], [76.05659111870662, 30.95868665907121], [76.04166666666669, 30.95833333333336], [76.04130859375002, 30.955876329210096], [76.03575778537329, 30.950353325737872], [76.03333333333336, 30.950000000000028], [76.03090888129344, 30.950353325737872], [76.02742445203997, 30.953813340928846], [76.0225755479601, 30.954519992404542], [76.01909111870664, 30.957980007595513], [76.00174221462677, 30.95868665907121], [75.9982577853733, 30.96214667426218], [75.98924221462677, 30.962853325737875], [75.9857577853733, 30.966313340928846], [75.9725755479601, 30.96701999240454], [75.96909111870663, 30.970480007595512], [75.96424221462678, 30.971186659071208], [75.9607577853733, 30.97464667426218], [75.94757554796011, 30.975353325737874], [75.94409111870664, 30.978813340928845], [75.92328694661462, 30.97951999240454], [75.91909111870663, 30.975353325737874], [75.9166666666667, 30.975000000000026], [75.91250000000004, 30.975000000000026], [75.87674221462677, 30.97464667426218], [75.86909111870663, 30.96701999240454], [75.85174221462677, 30.966313340928846], [75.8482577853733, 30.962853325737875], [75.84340888129344, 30.96214667426218], [75.83992445203997, 30.95868665907121], [75.82083333333337, 30.95833333333336], [75.81028951009118, 30.958900621202282]]]}, "properties": {"kind": "catchment", "name": "Sutlej local", "outlet": 4080735710, "area_km2": 3967.9, "n_subbasins": 2, "role": "local", "source": "HydroBASINS v1c Asia level 8 (Lehner & Grill 2013), hybas_as_lev08_v1c.zip, sha256 878c56bb4253a7c8...; upstream set of the sub-basin containing the dam"}}, {"type": "Feature", "geometry": {"type": "Point", "coordinates": [76.75, 30.75]}, "properties": {"kind": "grid_point", "weight_km2": 18.787, "weight_imd_km2": 18.787}}, {"type": "Feature", "geometry": {"type": "Point", "coordinates": [77.0, 30.75]}, "properties": {"kind": "grid_point", "weight_km2": 33.097, "weight_imd_km2": 33.097}}, {"type": "Feature", "geometry": {"type": "Point", "coordinates": [75.5, 31.0]}, "properties": {"kind": "grid_point", "weight_km2": 57.118, "weight_imd_km2": 57.118}}, {"type": "Feature", "geometry": {"type": "Point", "coordinates": [75.75, 31.0]}, "properties": {"kind": "grid_point", "weight_km2": 245.017, "weight_imd_km2": 245.017}}, {"type": "Feature", "geometry": {"type": "Point", "coordinates": [76.0, 31.0]}, "properties": {"kind": "grid_point", "weight_km2": 292.276, "weight_imd_km2": 292.276}}, {"type": "Feature", "geometry": {"type": "Point", "coordinates": [76.25, 31.0]}, "properties": {"kind": "grid_point", "weight_km2": 326.502, "weight_imd_km2": 326.502}}, {"type": "Feature", "geometry": {"type": "Point", "coordinates": [76.5, 31.0]}, "properties": {"kind": "grid_point", "weight_km2": 445.043, "weight_imd_km2": 445.043}}, {"type": "Feature", "geometry": {"type": "Point", "coordinates": [76.75, 31.0]}, "properties": {"kind": "grid_point", "weight_km2": 464.082, "weight_imd_km2": 464.082}}, {"type": "Feature", "geometry": {"type": "Point", "coordinates": [77.0, 31.0]}, "properties": {"kind": "grid_point", "weight_km2": 133.64, "weight_imd_km2": 133.64}}, {"type": "Feature", "geometry": {"type": "Point", "coordinates": [76.25, 31.25]}, "properties": {"kind": "grid_point", "weight_km2": 259.644, "weight_imd_km2": 259.644}}, {"type": "Feature", "geometry": {"type": "Point", "coordinates": [76.5, 31.25]}, "properties": {"kind": "grid_point", "weight_km2": 450.212, "weight_imd_km2": 450.212}}, {"type": "Feature", "geometry": {"type": "Point", "coordinates": [76.75, 31.25]}, "properties": {"kind": "grid_point", "weight_km2": 151.711, "weight_imd_km2": 151.711}}, {"type": "Feature", "geometry": {"type": "Point", "coordinates": [76.0, 31.5]}, "properties": {"kind": "grid_point", "weight_km2": 62.282, "weight_imd_km2": 62.282}}, {"type": "Feature", "geometry": {"type": "Point", "coordinates": [76.25, 31.5]}, "properties": {"kind": "grid_point", "weight_km2": 558.31, "weight_imd_km2": 558.31}}, {"type": "Feature", "geometry": {"type": "Point", "coordinates": [76.5, 31.5]}, "properties": {"kind": "grid_point", "weight_km2": 0.882, "weight_imd_km2": 0.882}}, {"type": "Feature", "geometry": {"type": "Point", "coordinates": [76.0, 31.75]}, "properties": {"kind": "grid_point", "weight_km2": 251.546, "weight_imd_km2": 251.546}}, {"type": "Feature", "geometry": {"type": "Point", "coordinates": [76.25, 31.75]}, "properties": {"kind": "grid_point", "weight_km2": 217.734, "weight_imd_km2": 217.734}}]}